kiosk_no,owner,distirict,term_no,lat,lon,title,term_type,address
0040000545,HAYDAR SAĞLAM,null,00605,40.82206,29.377607,SAĞLAM GIDA VE ŞARKÜTERİ,0,ÖZGÜRLÜK MAH. UĞUR MUMCU CAD. NO:114 GEBZE/KOCAELİ
0040000546,HASAN DEMİR,null,00606,40.702639,30.02628,SİZİN MARKET,0,ARSLANBEY ATAKENT MAH. 138. ADA ÜZERİ  İZMİT/KOCAELİ
0040000548,AYNUR AYGÜN,null,00608,40.794685,29.978977,GÜNEŞ MARKET,0,YEŞİLOVA MAH. TURAN GÜNEŞ CAD. NO:588 İZMİT/ KOCAELİ
0040000553,LOKMAN ALTINTAŞ,null,00613,40.772713,29.954338,KUZENLER İLETİŞİM YENİ,0,YENİ ŞEHİR MAH. TURAN CAD. NO:264/A İZMİT/KOCAELİ
0040000557,SEZGİN KESİKBAŞ,null,00617,41.068385,30.147602,OTOGAR BÜFE,0,ÇARŞI MAH. NO:YOK  KANDIRA/KOCAELİ
0040000558,CEMİL AVCI,null,00618,40.764545,29.929372,PLAZA BÜFE,0,ÖMERAĞA MAH. BELSA PLAZA 5-6 BLOK NO:63 İZMİT/KOCAELİ
0040000569,HAKAN TATLI,null,00629,40.770038,29.757158,HAKAN MARKET,0,M.SİNAN MAH. GÜL SOKAK NO:25 KÖRFEZ/KOCAELİ
0040000573,MEHMET ESATULLAH AKTAŞ,null,00633,40.789609,29.373433,HEMMEŞE KURUYEMİŞ,0,O.GAZİ M.A.OĞLU CAD.NO:122 GEBZE/KOCAELİ
0040000581,CESUR SAVAŞ,null,00699,40.79815,29.440443,JOY TEKEL SHOP,0,YENİKENT MAH.ZEMİN KAT GALAKSİ AVM NO:15/H DERİNCE/KOCAELİ
0040000581,CESUR SAVAŞ,null,00641,40.771663,29.810341,JOY TEKEL SHOP,0,YENİKENT MAH.ZEMİN KAT GALAKSİ AVM NO:15/H DERİNCE/KOCAELİ
0040000584,YILDIRIM ARSLAN,null,00644,40.783894,29.631218,ASMAR MARKET,0,KIŞLADÜZÜ CAMLI NO:34 KÖRFEZ/KOCAELİ
0040000586,HÜSEYİN YILMAZ,null,02175,40.761445,29.797921,YILMAZ MARKET,0,KUZEY İRFAN CAD. NO:50  KÖRFEZ/KOCAELİ
0040000586,HÜSEYİN YILMAZ,null,00646,40.764797,29.800116,YILMAZ MARKET,0,KUZEY İRFAN CAD. NO:50  KÖRFEZ/KOCAELİ
0040000587,ERDEM BAŞARAN,null,00647,40.722057,29.793797,TURUVA MARKET,0,D.DERE YÜZBAŞILAR MAH.İSTİKLAL CAD. NO:84/A GÖLCÜK/KOCAELİ
0040000588,VEYSEL HOROZ,null,00649,40.767606,29.907464,KARDEŞLER GIDA,0,YENİDOĞAN ZABITAN MAH. N.KEMAL CAD. NO:2 İZMİT/KOCAELİ
0040000603,HÜSEYİN KAHYA,null,00665,40.773403,29.936332,KAHYA MARKET,0,TOPÇULAR MAH. NO:99/1 İZMİT/KOCAELİ
0040000605,HAVVA DEMİR,null,00667,40.786993,29.965367,EFE MARKET,0,YEŞİLOVA MAH. CESUR SOK. NO:35 İZMİT/KOCAELİ
0040000606,BAHADIR YAMAK,null,00668,40.762448,29.879826,BARIŞ MARKET,0,CUMHURİYET MAH. GÜLŞEN GÜLBAŞ SOK. NO:2B/6 İZMİT/KOCAELİ
0040000733,KAZIM ALTUN,null,00802,40.771532,29.965095,YENİŞEHİR MARKET,0,Ö.AĞA MAH. FETHİYE CAD. KARAGÖZ İŞHANI NO:42 İZMİT/KOCAELİ
0040000739,REYHAN KILIÇ,null,00808,40.775855,29.978464,DAMLA ŞARKÜTERİ,0,ALİKAHYA FATİH MAH. SEYMEN CAD. NO:57/B İZMİT/KOCAELİ
0040000744,SİNAN EROĞLU,null,00813,40.760071,29.949395,YAREN MARKET,0,KÖRFEZ MAH. Ş.BASRİ SOK. NO:8/A İZMİT/KOCAELİ
0040000748,ŞEHRİYE ERİM,null,00817,40.809243,29.401663,ÖZGÜR MARKET (TEDA MARKET),0,Y.SELİM MAH. GÜNDOĞAN CAD. NO:61 GEBZE/KOCAELİ
0040000777,AHMET TAŞDEMİR,null,00847,40.780238,29.521934,TAŞDEMİR MARKET,0,DİLİSKELESİ MAH. CUM.CAD. 716. SOK. NO:15/1 GEBZE/KOCAELİ
0040000794,HATİCE ASLAN,null,00866,40.773018,29.956634,ELİF PASTA BÖREK CAFE,0,BEKİRDERE MAH. TURAN GÜNEŞ CAD. NO:365 İZMİT/KOCAELİ
0040000829,ANIL BAYRAKTAR,null,00904,40.766536,30.013424,MODA MARKET,0,ALİKAHYA ATATÜRK MAH. GÜNEŞ SU CAD. NO:57 A İZMİT/KOCAELİ
0040000838,AYŞE KILIÇARSLAN,null,00913,40.784312,29.615795,DOĞA BÜFE,0,HACI AKİF MAH. SEMT HEREKE CUMHURİYET CAD. NO:8 KÖRFEZ/KOCAELİ
0040000839,ÜMİT ÜSTÜNDAĞ,null,00914,40.761014,29.805985,ÜSTÜNDAĞ MARKET,0,İBNİ SİNA MAH. SIRRIPAŞA CAD. NO:32 DERİNCE/KOCAELİ
0040000842,AHMET MANSIZ,null,00917,40.752972,29.823419,BEYOĞULLARI MARKET,0,DUMLUPINAR MAH. BURAK SOK. NO:7/B DERİNCE/KOCAELİ
0040000845,EYÜP GÖKBAYRAK,null,00922,40.764398,29.870573,DÖRTTE BİR MARKET,0,YENİ MAH. SEMT AMBER SOK. 11 A İZMİT/KOCAELİ
0040000845,EYÜP GÖKBAYRAK,null,00920,40.754265,29.822717,DÖRTTE BİR MARKET,0,YENİ MAH. SEMT AMBER SOK. 11 A İZMİT/KOCAELİ
0040000714,FİLİZ ATEŞ,null,00783,40.767287,29.966486,ATEŞ BÜFE,0,YENİŞEHİR MAH. PAŞA CAD. NO:78/1 İZMİT/KOCAELİ
0040000756,KILIÇARSLAN PAZ. LTD. ŞTİ.,null,00825,40.785722,29.620545,null,0,AGAH ATEŞ MAH. D100 E65 KARAYOLU ÜZERİ KÖRFEZ/KOCAELİ
0040000772,MEHMET NURİ YAYLA,null,00842,40.801524,29.435043,YAYLA MARKET,0,GÜZELLER MAH. BAĞDAT CAD. EŞLER PASAJI NO:199 GEBZE/KOCAELİ
0040000785,BAKKİ ALTUN,null,00857,40.807915,29.388716,ALTUN BÜFE,0,ULUS MAH. ANKARA CAD. NO:82/B GEBZE/KOCAELİ
0040000823,GÖKSEL AYLAN,null,01713,40.768738,29.942712,ALPEREN BÜFE,0,KADIKÖY MAH. SEMT BAĞDAT CAD. 10B İZMİT/KOCAELİ
0040000823,GÖKSEL AYLAN,null,00895,40.768553,29.942627,ALPEREN BÜFE,0,KADIKÖY MAH. SEMT BAĞDAT CAD. 10B İZMİT/KOCAELİ
0040000846,BAYRAM GÜLER,null,00921,40.877719,29.262824,GÜLER KURUYEMİŞ,0,FEVZİ ÇAKMAK MAH. SEMT TEVFİK İLERİ CAD. NO:115/A PENDİK/İSTANBUL
0040000860,TUBA KORKMAZ,null,00937,40.769091,29.779088,GÜL MARKET,0,YENİYALI MAH. HAMİT KAPLAN CAD. NO:73 KÖRFEZ/KOCAELİ
0040000717,ERDAL SİNAN SAROĞLU,null,00786,40.770755,29.974766,GÜNEŞLİ ATA MARKET,0,MEHMET ALİ PAŞA MAH. SALKIM SÖĞÜT CAD. LİTYUMPARK EVLERİ İZMİT/KOCAELİ
0040000732,YUNUS TABAK,null,01403,40.791733,29.415648,İNCİ MARKET,0,OSMAN YILMAZ MAH. BAHARİYE CAD. NO:16/6 GEBZE/KOCAELİ
0040000732,YUNUS TABAK,null,00801,40.793674,29.409903,İNCİ MARKET,0,OSMAN YILMAZ MAH. BAHARİYE CAD. NO:16/6 GEBZE/KOCAELİ
0040000754,MUKTEDİR MURAT AVCİ,null,00823,40.769016,29.755691,KARDEŞLER MARKET,0,MİMAR SİNAN MAH. M.AKİF ERSOY CAD. NO:145 KÖRFEZ/KOCAELİ
0040000774,NESLİHAN ALTINSOY,null,00844,40.772207,29.965078,ATAKAN MİNİ MARKET,0,YENİŞEHİR MAH. YEŞİL SOK. NO:14/2 İZMİT/KOCAELİ
0040000788,FİLİT BOZKURT,null,00860,40.802028,29.392029,BOZKURT MARKET,0,HÜRRİYET MAH. YAŞAR DOĞU CAD. NO:80/C GEBZE/KOCAELİ
0040000804,ŞEREF YILMAZ,null,00876,40.738837,30.113109,YILMAZ GIDA TİCARET,0,UZUNTARLA İBRİKDERE MAH.2.SK.NO:17/A
0040000820,MUSTAFA KURTULUŞ,null,00892,40.752131,29.785933,KURTULUŞ MARKET,0,GÜNEY MAH. ENGİN SOK. GENÇLER S.C BL. ALTI NO:39/1 KÖRFEZ/KOCAELİ
0040000843,ŞEVVAL FATOŞ YAKUT,null,00918,40.698358,29.817508,FORM -A OKUL,0,DÜZ AĞAÇ MAH FAHRİ KORUTÜRK CAD. 242. ADA NO:16/07 GÖLCÜK/KOCAELİ
0040000852,İSMET KUTLAY,null,00928,40.789109,29.42116,HASANOĞLU ET VE TAVUK ÜR. GIDA TEM.TAH.SAN.TİC.LTD.ŞTİ.,0,OSMAN YILMAZ MAH. İSTASYON CAD. NO:623 GEBZE/KOCAELİ
0040000722,ADEM ARSLAN,null,00791,40.78244,29.396868,KAFKAS GIDA PAZARI,0,ORHAN GAZİ MAH. AŞİROĞLU CAD. KAHRAMAN SOK. NO:17 DARICA/KOCAELİ
0040000738,ERDAL GÜMÜŞ,null,00807,40.757227,29.827097,KÖRFEZ KURUYEMİŞ,0,SIRRIPAŞA MAH. DENİZCİLER CAD. NO:134/E DERİNCE/KOCAELİ
0040000780,DURALİ DEMİRHAN,null,00851,40.814899,29.387287,ELİF MARKET,0,MİMAR SİNAN MAH. M.SİNAN CAD. NO:108/AB GEBZE/KOCAELİ
0040000808,AHMET TOK,null,00880,40.729725,30.041119,TOK GIDA,0,SARIMEŞE HÜRRİYET MAH. ATATÜRK CAD. NO:130 İZMİT/KOCAELİ
0040000826,ALİ DERECİ,null,00901,40.780181,29.944387,ESRA MİNİ MARKET,0,28 HAZİRAN MAH. SEMT ESKİ İSTANBUL CAD. 109/1 İZMİT/KOCAELİ
0040000612,AYŞE ŞAHİN,null,00675,40.808214,29.431425,ŞAHİN BÜFE,0,GÜZELLER MAH.İBRAHİM AĞA CAD. NO:96/B GEBZE /İSTANBUL
0040000616,YASİN ESMEZ,null,00679,40.767257,29.954091,ESMEZ BÜFE,0,M.ALİ PAŞA MAH. G.MUSTAFA KEMAL BUL. NO:53 İZMİT/KOCAELİ
0040000626,SERHAN AKARSU,null,00689,40.766186,29.809118,KEREM MARKET,0,İBNİ SİNA MAH.FATİH CAD.NO:80/A DERİNCE/KOCAELİ
0040000632,ANATESCİL BİLİŞİM,null,00696,40.821632,29.371579,null,0,YENİ MAHALLE FATİH CAD. NO:73/B ÇAYIROVA/KOCAELİ
0040000633,MUHLİS BİTİMLİ,null,00697,40.732913,30.015583,SERHAT MARKET,0,Hacı Mustafa- Nazım Demirci Cd. No:52- 41250 Kartepe/Kocaeli
0040000643,AYŞEGÜL KAYSERİLİ,null,00710,40.763188,30.051595,YILMAZ MARKET,0,UZUNBEY MAH. TAN SOK. NO:67/A KARTEPE/KOCAELİ
0040000649,DOĞANLI GIDA İNŞ. TURİZM SAN. TİC. LTD. ŞTİ.,null,00716,40.79766,29.435698,DOĞANLI GIDA,0,SULTAN ORHAN MAH. HÜKÜMET CAD.NO:121 GEBZE/KOCAELİ
0040000651,ZÜLFÜ LAÇİN,null,00718,40.773576,29.811022,MUNZUR BÜFE,0,YENİKENT MAH.VENÜS İŞ MERKEZİ NO:1/65 DERİNCE/KOCAELİ
0040000654,DOĞANLI GIDA İNŞ. TURİZM SAN. TİC. LTD. ŞTİ.,null,00721,40.812049,29.445416,DOĞANLI GIDA,0,SULTAN ORHAN MAH. HÜKÜMET CAD. NO:121 GEBZE/KOCAELİ
0040000656,SELDA AKARYAKIT TAŞ. GIDA İNŞ. SAN. TİC. LTD. ŞTİ,null,00723,40.774153,29.401706,SELDA AKARYAKIT,0,F.ÇAKMAK MAH. İSTASYON CAD. NO:408 GEBZE/KOCAELİ
0040000658,DAVUT CİVELEK,null,00725,40.723187,29.992294,FD GROSS MARKET,0,MEHMET AĞA MAH. KARAMÜRSEL CAD. NO:112 BAŞİSKELE/KOCAELİ
0040000674,YUSUF PAY,null,00741,40.712973,30.014103,KİPAY MARKET,0,ARSLANBEY RAHMİYE İZMİT CAD. NO:207/B  KARTEPE/KOCAELİ
0040000676,BÜNYAMİN TEMEL,null,00743,40.801061,29.645224,TEMEL İLETİŞİM ,0,YUKARI HEREKE AHMET YASEVİ NO:53  KÖRFEZ/KOCAELİ
0040000679,GÖGERCİN GIDA İNŞ. TURİZM TAAH. TİC. LTD. ŞTİ.,null,00746,40.770923,29.909229,GÖGERCİN GIDA İNŞ. TURİZM TAAH. TİC. LTD. ŞTİ.,0,GÜLTEPE MAH. KOÇAL SOK. NO:36/A  İZMİT/KOCAELİ
0040000685,HURİYE YOLCU,null,00753,40.775528,29.984556,DOĞUKAN BÜFE,0,YUVAM AKARCA CUMHURİYET MAH. KOŞAR SOK. NO:1 İZMİT/KOCAELİ
0040000686,MUSTAFA KAPLAN,null,00754,40.765463,29.879075,BEYALİ GIDA,0,KURUÇEŞME  ATATÜRK CAD. NO:4 İZMİT/KOCAELİ
0040000687,HÜSEYİN ŞAHİN,null,00755,40.773507,29.759757,AİLE BAKKALİYESİ,0,H.OSMAN MAH. BAĞDAT CAD. ESENTEPE KOOP. BİNASI ALTI NO:255 KÖRFEZ/KOCAELİ
0040000693,AZMİ KUŞKU,null,00761,40.762757,29.922607,DURAK ŞARKÜTERİ,0,KEMALPAŞA MAH. HÜRRÜYET CAD. GAKKO İŞHANI 1/D İZMİT/KOCAELİ 
0040000696,RAMAZAN BAYRAK,null,00764,40.710952,29.841945,BAYRAK MARKET,0,İHSANİYE ÇİFTLİK MAH. ATATÜRK BULVARI NO:302 GÖLCÜK/KOCAELİ
0040000701,ERDEM ÇOLAK,null,01969,40.792268,29.973262,ÇOLAKOĞLU MARKET,0,TEPEKÖY MAH. MURADİYE CAD. NO:45  İZMİT/KOCAELİ
0040000701,ERDEM ÇOLAK,null,00769,40.794369,29.972113,ÇOLAKOĞLU MARKET,0,TEPEKÖY MAH. MURADİYE CAD. NO:45  İZMİT/KOCAELİ
0040000450,MEHMET AYLUÇTARHAN,null,00508,40.781709,29.374611,null,0,OSMANGAZİ MAH. AŞIROĞLU CAD. NO:20 DARICA/KOCAELİ
0040000456,KEZİBAN ŞAHİN ,null,00516,40.773044,29.99434,YAVUZ GIDA,0,ALİKAHYA FATİH MAH. BAĞDAT CAD. NO:97/1 İZMİT
0040000463,SERKAN METE,null,00523,40.79112,29.943411,METE BÜFE,0,MALTA MAH. AŞIK VEYSEL CAD. 8.ADA YAN NO:14/1 İZMİT/KOCAELİ
0040000470,SARAY OTOGAZ AKARYAKIT NAK. SAN. TİC,null,00530,40.716084,29.752464,SARAY OTOGAZ AKARYAKIT NAK. SAN. TİC,0,D.YOLU ALTI BP YAN KAYTAZDERE ALTINOVA/KOCAELİ
0040000477,HATİCE ŞİRİN,null,00537,40.721012,29.820603,ŞİRİN KIRTASİYE,0,MERKEZ MAH. M.F.ÇAKMAK CAD. NO:26 GÖLCÜK/KOCAELİ
0040000487,HAKAN YETİM,null,00547,40.710099,29.903746,BİMA MARKET,0,SEYMEN MAH. BAHÇECİK HÜRRİYET CAD. NO:1/A BAŞİSKELE/KOCAELİ
0040000495,AHMET KARAASLAN,null,00555,40.76374,29.929219,KARAASLAN BÜFE,0,HÜRRİYET CAD. AYDOĞAN İŞ MRKZ. NO:131 İZMİT/KOCAELİ
0040000498,ÇAVDAR OTOMOTİV İNŞ. TURİZM NAK. SAN. TİC LTD. ŞTİ,null,00558,40.718591,29.821523,ÇAVDAR OTOMOTİV İNŞ. TURİZM NAK. SAN. TİC LTD. ŞTİ,0,MERKEZ MAH CUMHURİYET CAD NO:32/A GÖLCÜK/KOCAELİ
0040000508,HASAN AVŞAR,null,00568,40.824285,29.38491,AVŞAR GIDA,0,İNÖNÜ MAH. MUAMMER AKSOY CAD. NO:192/A GEBZE
0040000512,NİZAMETTİN KORKMAZ,null,00572,40.803027,29.96961,KORKMAZ MARKET,0,GÜNDOĞDU MAH. 2 BÖLGE BARIŞ BÜFE KAR. İZMİT/KOCAELİ
0040000513,ESA PETROL NAK. TAH. TİC. LTD. ŞTİ,null,00573,40.75663,29.806983,ESA PETROL NAK. TAH. TİC. LTD. ŞTİ,0,YAVUZ SULTAN MAH. KAŞKALDERE POET İST. NO:4 DERİNCE/KOCAELİ
0040000516,HAKAN İNAN,null,00576,40.765101,29.84257,BEDESTAN MARKET,0,ÖMER AĞA MAH. FETHİYE CAD GÖKSELLER İŞHANI NO:85 İZMİT/KOCAELİ
0040000518,MUHERREM ERDİNÇ YÜKSEL,null,00578,40.763683,29.917291,YÜKSEL MARKET,0,KOZLUK MAH DUT SOK NO:10 İZMİT/KOCAELİ
0040000519,GENDEM TEKSTİL ÜRÜNLERİ TİC. LTD. ŞTİ,null,00579,40.717462,29.822599,GENDEM TEKSTİL ÜRÜNLERİ TİC. LTD. ŞTİ,0,MERKEZ MAH PREVEZE CAD 14.SOK NO:6 GÖLCÜK / KOCAELİ
0040000530,ÖZBEY URALKAYA,null,01599,40.764234,29.875482,DALLAS BÜFE 3,0,KURUÇEŞME DOĞAN MAH. ŞİRİNTEPE YOLU GİRİŞ NO:4 İZMİT/KOCAELİ
0040000530,ÖZBEY URALKAYA,null,00931,40.762257,29.877251,DALLAS BÜFE 3,0,KURUÇEŞME DOĞAN MAH. ŞİRİNTEPE YOLU GİRİŞ NO:4 İZMİT/KOCAELİ
0040000530,ÖZBEY URALKAYA,null,00590,40.764289,29.875561,DALLAS BÜFE 3,0,KURUÇEŞME DOĞAN MAH. ŞİRİNTEPE YOLU GİRİŞ NO:4 İZMİT/KOCAELİ
0040000539,OKAN KILIÇ,null,00599,40.774486,29.399083,EKO MİNİ MARKET,0,K.KARABEKİR MAH. A.VEYSEL CAD.NO:84/A GEBZE/KOCAELİ
0040000540,MUHAMMET ASLAN,null,00600,40.758885,29.804086,ERSİN MARKET,0,İBNİ SİNA MAH. DEĞİRMEN SOK. NO:14  DERİNCE/KOCAELİ
0040000837,SELİM ÖRNEK,null,01714,40.807343,29.431484,ÖRNEK İLETİŞİM,0,FEVZİ ÇAKMAK MAH. SEMT İSTASYON CAD. NO:534/A DARICA/KOCAELİ
0040000837,SELİM ÖRNEK,null,00912,40.784426,29.616063,ÖRNEK İLETİŞİM,0,FEVZİ ÇAKMAK MAH. SEMT İSTASYON CAD. NO:534/A DARICA/KOCAELİ
0040000851,FATİH ÖZTÜRK,null,00927,40.790449,29.541632,SERKAN İLETİŞİM-2,0,MİMAR SİNAN MAH. SEMT İSTİKBAL CAD. 63 B DİLOVASI/KOCAELİ
0040000870,MERYEM KAVŞUT,null,00947,40.770448,29.89217,EMEK BÜFE,0,SERDAR MAH. SEMT ARIZLI CAD. NO:7 İZMİT/KOCAELİ
0040000896,ERKAN SAROĞLU,null,00978,40.76448,29.935761,GÜNEŞLİ BAŞAK MARKET,0,CUMHURİYET MAH. DENİZ SK. BALABAN DOĞAR SİT. NO:1 İZMİT/KOCAELİ
0040000945,ÖNDER SÖZEN,null,01032,40.787288,29.969458,CANPA MARKET,0,YEŞİLOVA MAH. SERÇE SOK 23 A İZMİT/KOCAELİ
0040000955,GÜNKAY GIDA INŞAAT NAK.TURIZM PAZ.SAN,null,01043,40.765029,29.873855,GÜNKAY GIDA INŞAAT NAK.TURIZM PAZ.SAN,0,FATİH MAH. BARIŞ CAD. KURUÇEŞME 24 İZMİT/KOCAELİ
0040000982,ALİ KAMER GÖKSU,null,01072,40.772951,29.909486,KISMET BAKKALİYESİ,0,GÜLTEPE MAH. KEREM SOK. 3 İZMİT/KOCAELİ
0040000999,ANIL ÇOLAK,null,01089,40.713986,29.927065,ÇOLAK MARKET,0,SAHİL MAH. D130 K.Y CAD. NO:43A BAŞİSKELE/KOCAELİ
0040001011,METİN KAVŞUT,null,01104,40.754451,29.780676,GÜNEY GIDA,0,GÜNEY MAH. GÜVERCİN SOK. 28 A KÖRFEZ/KOCAELİ
0040001039,SADREDDİN ASLAN,null,01153,40.715481,29.829729,GÖÇMEN BÖREKÇİSİ,0,ŞEHİTLER MAH ATATÜRK BLV. 220 GÖLCÜK/KOCAELİ
0040001077,KEMAL ÖZSOY,null,01197,40.75919,29.943218,VALİ MARKET,0,KAYMAZ MAH. OMURCALI MEVKİİ KM. EVL. CAMİ LOJMANI 18 KANDIRA/KOCAELİ
0040001079,CEZMİ DURSUN,null,01199,40.759246,29.801962,UFUK GIDA,0,İBNİ SİNA MAH. GÜLAY SOK. 19 A DERİNCE/KOCAELİ
0040001085,ALAATTİN OKAN ,null,01205,41.169897,30.227333,OKAN MARKET,0,KEFKEN MAH. CUMHURİYET CAD. 165 A KANDIRA/KOCAELİ
0040000867,ERDAL MENGÜNOĞUL,null,00944,40.759521,29.836517,YAĞMUR MARKET,0,ÇENEDAĞ MAH. SEMT ESENTEPE CAD. 28 DERİNCE/KOCAELİ
0040000879,MUSTAFA ARSLAN,null,00956,40.772593,29.960722,DENİZ MARKET,0,YENİŞEHİR MAH. SEMT BADE SOK. 47 1 İZMİT/KOCAELİ
0040000899,MERYEM GÖZÜTOK,null,00981,40.765105,29.808667,GÖZÜTOK KARDEŞLER MARKET,0,İBNİSİNA MAH. NATO CAD. 377 A DERİNCE/KOCAELİ
0040000911,SELİM ALİŞAN,null,00995,40.753399,29.812299,SELMAR MARKET,0,YAVUZ SULTAN MAH. YENİLİK SOK. 31 1 DERİNCE/KOCAELİ
0040000913,KAZIM İŞTENYILMAZ,null,00997,40.767438,29.841905,ÇENESUYU KURUYEMİŞ,0,ÇINARLI MAH. ÇENESUYU CAD. 18 DERİNCE/KOCAELİ
0040000942,ŞENGÜL SAĞLAM,null,01029,40.758316,29.833051,YAPRAK BÜFE,0,ÇENEDAĞ MAH. GÜNDOĞDU SOK. 20 B DERİNCE/KOCAELİ
0040000988,AZMİ KUŞKU,null,01078,40.76335,29.930407,null,0,KEMALPAŞA MAH. HÜRRÜYET CAD. GAKKO İŞHANI 1/D İZMİT/KOCAELİ 
0040001300,MURAT KUŞKU,null,01456,40.756561,29.949519,BIYIKLI TOBACCO SHOP,0,SANAYİ MAH ÖMER TÜRKÇAKAL BULVARI NO:7 41 BURDA ALIŞVERİŞ MERKEZİ 
0040001302,NİZAMETTİN BÜLBÜL,null,01458,40.78465,29.410139,GARANTİ ONLINE FATURA ,0,İSTASYON MAH. 1414. SOK 28 A 
0040001303,HMR İLETİŞİM TİC.TAH.TİC.LTD.ŞTİ.,null,01459,40.772741,29.954368,HMR İLETİŞİM TİC.TAH.TİC.LTD.ŞTİ.,0,BEKİRDERE MAH TURAN GÜNEŞ CAD 327/A 
0040001304,BURAK DEŞAT,null,01460,40.773718,29.949138,ELMALIK MARKET,0,28 HAZİRAN MAH DERE SOK 37/A 
0040001093,ŞÜKRAN AKBAŞ,null,01214,40.765597,29.944167,SEMT MARKET,0,KADIKÖY ATATÜRK BULVARI 51 B 
0040001105,FİKRİYE KANDEMİR,null,01229,40.767618,29.937083,MURAT BÜFE,0,CEDİT MAH. TURAN GÜNEŞ CAD. 28 
0040001113,HURİYE ÜÇGEN,null,01237,40.778133,29.709334,ÜÇGEN MARKET,0,KİRAZLIYALI MAH. ATATÜRK CAD. NO:199 
0040001170,EBRU TUNCEL,null,01304,40.772877,29.810539,MERKEZ BÜFE,0,YENİKENT MAH GAZİ MUSTAFA KEMAL CAD 21 
0040001215,RAHMİYE PETR.ÜRN.İNŞ.SAN.VE TİC.LTD.ŞTİ,null,01361,40.712422,30.016093,RAHMİYE PETR.ÜRN.İNŞ.SAN.VE TİC.LTD.ŞTİ,0,RAHMİYE MAH İZMİT CAD 194 
0040001234,ADEM BİLGİÇ,null,01382,40.754678,30.030965,BİLGİÇLER MARKET,0,ESENTEPE MAH. ÇENEDAĞ CAD. NO:76 
0040001244,SÜLEYMAN MAMAY,null,01392,40.775842,29.920894,DALAS BÜFE-5,0,TURGUT MAH İSMAİL GASPIRALI CAD KENTKONUT MERCAN KONUTLARI 8 C J 
0040001253,DURSUN YANÇAR,null,01410,40.802895,29.993379,ULAŞ MARKET,0,ÇAYIRKÖY MAH GÖLKENT 1.ETAP SOK GÖLKENT 1.ETAP DÜKKAN 1 1-1 
0040001265,FEYSEL BEYAZ,null,01421,40.794836,29.459256,BEYAZLAR KOZMATİK GIDA İNŞ.MAK.PAZ.SAN.TİC.LTD.ŞTİ.,0,BARIŞ MAH KOŞU YOLU CAD GEBZE TERMİNALİ B BLOK 20 B 27 
0040001290,NİHAT GÜNGÖR,BAĞÇEŞME,01446,40.779467,29.927161,İSKELE MARKET 2,0,ORHAN MAH TOLGA SOK 1/1 
0040001301,GÖKSEL KARAKOÇ,null,01879,40.805508,29.647689,KARAKOÇ TİCARET,0,YUKARI HEREKE MAH ÇARŞI CAD. 23 1 
0040001301,GÖKSEL KARAKOÇ,null,01457,40.799965,29.643947,KARAKOÇ TİCARET,0,YUKARI HEREKE MAH ÇARŞI CAD. 23 1 
0040001307,ŞENOL ACAR,null,01463,40.774058,29.958529,ACAR MARKET,0,TAVŞANTEPE MAH ZENGİN SOK 44 
0040001096,VEDAT ATAŞ,null,01217,40.773714,29.999544,ATAŞ MARKET,0,ALİKAHYA FATİH MAH. FATMA SEHER HANIM CAD. 14 A 
0040001118,ÜMİT TÜRKER,null,01242,40.791367,29.979991,ES-MA MARKET,0,ÇAYIRKÖY MERKEZ MEV. KANDIRA YOLU UZ. OPET 153 
0040001129,OSMAN AKÇAY,null,01262,40.767281,29.958536,AKÇAY MARKET,0,YENİŞEHİR MAH. GAZİ MUSTAFA KEMAL BLV. 92 B 
0040001131,MEHMET KÖSE,null,01264,40.803221,29.966121,KARADENİZ MİNİ MARKET,0,TEPEKÖY MAH. 17 AĞUSTOS BULVARI 68 
0040001146,EMEL ALGAN,null,01280,40.754972,29.809461,ZZ BÜFE,0,YAVUZ SULTAN MAH KÖRFEZ CAD D PLAZA C BLOK 6/F 
0040001147,SÜLEYMAN TURAN,null,01281,40.753505,29.808238,CANAN BÜFE,0,DUMLUPINAR MAH. SAKIP SABANCI CAD. 120 A 
0040001175,GÜRKAN KAR,null,01310,40.764728,29.965421,KONAK BÜFE,0,YENİŞEHİR MAH DÖNMEZ SOK 32 A 
0040001273,FARUK DAŞDEMİR,null,01429,40.775246,29.52563,DAŞDEMİR MARKET,0,DİLİSKELESİ MAH CUMHURİYET CAD 76/A 
0040001279,ŞAHADET RÜMEYSA MİNTEMUR,null,01435,40.763636,29.971649,YAVUZ BÜFE,0,YAHYAKAPTAN MAH AKKAVAKLAR CAD 9 D 
0040001281,ALİ AKBAL,null,01437,40.772041,29.838731,AKBAL MARKET,0,ÇINARLI MAH YASEMİN SOK 2 
0040001345,İHSAN SAYAR,null,01505,40.770178,29.822845,FATİH BÜFE,0,FATİHSULTAN MAH.SEMT HAVVA SOK.NO:2
0040001324,NECATİ KULA,null,01482,40.770887,29.958004,KULA GIDA,0,YENİ ŞEHİR MAH. ŞEHİT KAZIM CAD. NO:13 İZMİT/KOCAELİ
0040001326,ÖMER BURAK BAŞKAN,null,01484,40.711054,29.932507,BAŞAR MARKET,0,BARBAROS MAH PINAR CAD 60/A 
0040001342,MS BETON İNŞ.MADEN TAŞ.SAN.LTD.ŞTİ.,null,01502,40.799595,29.430529,MS BETON İNŞ.MADEN TAŞ.SAN.LTD.ŞTİ.,0,YENİ MAH FATİH CAD 87 ÇAYIROVA/KOCAELİ 
0040001347,GÖKHAN AKA,null,01507,40.786742,29.960532,AKA MARKET,0,YEŞİLOVA MAH.ŞEHİT FATİH DUMAN SOK.NO:40/A
0040001321,İBRAHİM ÖZDEMİR,null,01479,40.785433,29.550843,ÖZDEMİR MARKET,0,ORHANGAZİ MAH. 237. SOK 3 A 
0040001351,MUSTAFA SİNAN BİLGİNOĞLU,null,01511,40.716622,29.823431,ALİYAR BÜFE,0,ŞEHİTLER MAH.ATATÜRK BULVARI NO:154
0040001014,CEVAT UNGAN,null,01108,40.696056,29.64973,EGEMEN MARKET,0,EREĞLİ MAH. BARBAROS HAYRETTİN BULVARI 139 A KARAMÜRSEL/KOCAELİ
0040000865,TUNCAY KARAKURT,null,00942,40.806563,29.403265,ZİRVE MARKET,0,HÜRRİYET MAH. SEMT 2026. SOK 1 A A GEBZE/KOCAELİ
0040000875,CİHAD AKIN,null,00952,40.763332,29.928508,FLASH BÜFE,0,ÖMERAĞA MAH. ALEMDAR CAD. 21 1 İZMİT/KOCAELİ
0040000880,ÜLKÜ ERTATLI,null,02251,40.761041,29.8659051,ERTATLI MARKET,0,YENİ MAH. SEMT ZÜLBİYE SOK. 16 A İZMİT/KOCAELİ
0040000880,ÜLKÜ ERTATLI,null,00957,40.767255,29.883109,ERTATLI MARKET,0,YENİ MAH. SEMT ZÜLBİYE SOK. 16 A İZMİT/KOCAELİ
0040000917,FETTAH GÜLBİÇEN,null,01002,40.793386,29.644537,GÜL MARKET,0,17 AĞUSTOS KALICI KON. İŞ MERKEZİ YUKARI HEREKE KÖRFEZ/KOCAELİ
0040000928,FEVZİYE UZUN,null,01013,40.783167,29.969034,UZUN MARKET,0,YENİŞEHİR MAH. TURAN GÜNEŞ CAD. NO:380 İZMİT/KOCAELİ
0040000941,UMUT DOĞAN KAYA,null,01028,40.764892,29.913383,ASO,0,KOZLUK MAH. NUMAN KAHYA SOK 2 2 İZMİT/KOCAELİ
0040000985,ESMA ALYÜZ,null,01075,40.849087,30.199213,ALYÜZ BÜFE,0,AKMEŞE ATATÜRK MAH. NİZAMOĞLU İSMAİL CAD. NO:1 İZMİT/KOCAELİ
0040000995,SEMA UZUNER,null,01085,40.762582,29.860268,YILDIRIM BÜFE,0,ŞİRİNTEPE MAH. BORA SOK. 34 1 
0040001015,HAYRİYE RAMAZAN,null,01109,40.785206,29.978371,RAMAZAN GIDA,0,KARADENİZLİLER MAH. ÇARŞIBAŞI CAD. 3 A 
0040001025,ULAŞIMPARK A.Ş.,null,01124,40.8242689,29.9208859,ULAŞIMPARK A.Ş.,0,YAHYAKAPTAN MAH ELZEM SOK 68/5 İZMİT/KOCAELİ
0040001025,ULAŞIMPARK A.Ş.,null,01121,40.7618189,29.9248663,ULAŞIMPARK A.Ş.,0,YAHYAKAPTAN MAH ELZEM SOK 68/5 İZMİT/KOCAELİ
0040001025,ULAŞIMPARK A.Ş.,null,01133,40.7754413,29.9725291,ULAŞIMPARK A.Ş.,0,YAHYAKAPTAN MAH ELZEM SOK 68/5 İZMİT/KOCAELİ
0040001025,ULAŞIMPARK A.Ş.,null,01129,40.765888,29.927983,ULAŞIMPARK A.Ş.,0,YAHYAKAPTAN MAH ELZEM SOK 68/5 İZMİT/KOCAELİ
0040001025,ULAŞIMPARK A.Ş.,null,01125,40.8242689,29.9208805,ULAŞIMPARK A.Ş.,0,YAHYAKAPTAN MAH ELZEM SOK 68/5 İZMİT/KOCAELİ
0040001025,ULAŞIMPARK A.Ş.,null,01132,40.7718988,29.7653929,ULAŞIMPARK A.Ş.,0,YAHYAKAPTAN MAH ELZEM SOK 68/5 İZMİT/KOCAELİ
0040001025,ULAŞIMPARK A.Ş.,null,01212,40.75919,29.943218,ULAŞIMPARK A.Ş.,0,YAHYAKAPTAN MAH ELZEM SOK 68/5 İZMİT/KOCAELİ
0040001025,ULAŞIMPARK A.Ş.,null,01120,40.7618047,29.9248287,ULAŞIMPARK A.Ş.,0,YAHYAKAPTAN MAH ELZEM SOK 68/5 İZMİT/KOCAELİ
0040001029,SONGÜL ALTUN,null,01142,40.793313,29.373173,TURANLAR KURUYEMİŞ MARKET,0,OSMANGAZİ MAH. ATATÜRK CAD. 339 A 
0040001031,NUMAN TURNA,null,01144,40.768189,29.854377,TURNAM GIDA,0,MERSİNCİK MAH. HAYAT CAD. 7A  
0040000866,İSMAİL SERT,null,00943,41.06721,30.153717,BİLGİ KIRTASİYE,0,KONAK MAH. BELEDİYE PASAJI KANDIRA CAD.  
0040000922,MUHAMMET AKKURT,null,01007,40.757076,29.821717,HİCRET MARKET,0,MİMAR SİNAN MAH. MEHMET AKİF ERSOY CAD. 88 /4G 
0040000952,DURSUN DEMİRCİ,null,01040,40.785023,29.406513,BURAK BÜFE,0,ABDİ İPEKÇİ MAH. SEMT ETHEM BEY CAD. 59 A 
0040000958,ŞEMSİ ÇUVALCI,null,01046,40.744418,30.011914,41 BÜFE,0,FATİH SULTAN MEHMET MAH. ORHAN GAZİ CAD. 22 B 
0040000986,MURAT TALAYMAN,null,01076,40.739138,30.052791,NİDA İLETİŞİM,0,EMEKEVLER MAH. PAŞADAĞ CAD. 6 A 
0040000998,CEMAL GÜREŞEN,null,01088,40.802058,29.9788,ŞANLI BÜFE,0,TEPEKÖY MAH. ŞANLI SOK. 47 
0040001006,BURÇİN GÜNDÜZ,null,01098,40.764868,29.92305,GÜNDÜZ MARKET,0,HACI HASAN MAH. İNÖNÜ CAD. 55 A 
0040001047,MUHARREM BAYRAKTAR,null,01162,40.78129,29.410123,KONAK BÜFE,0,ABDİ İPEKÇİ MAH.İSTASYON CAD.NO:560/C 
0040000892,SAİM OKLU,null,00974,40.773464,29.734373,BİLAL BÜFE,0,ATALAR MAH. MEHMET AKİF ERSOY CAD. 10 A 
0040000914,ERKAN TÜLEK,null,00998,40.75117,30.041925,POYRAZ MARKET,0,ERTUĞRUL GAZİ MAH. ŞEHİTLER CAD. 1 A 
0040001034,ŞERİF YETİM,null,01147,40.822775,29.353174,MEYDAN KURUYEMİŞ,0,YENİ MAH. 5122. SK. 2 B ÇAYIROVA/ KOCAELİ 
0040001052,SALİH CEBE,null,01169,40.786908,29.383081,CEBELER MARKET,0,NENEHATUN MAH. ATATÜRK CAD. 219 1 
0040001053,MEHMET ÖZDEMİR,null,01170,40.838296,29.382979,EMKA GIDA,0,ATATÜRK MAH.MUHAMMER AKSOY CAD.NO:15 
0040001054,MUHAMMET HAMİDULLAH SONUKSUN,null,01171,40.770017,29.94731,ÇAĞRI İLETİŞİM KIRTASİYE,0,KADIKÖY MAH. TURAN GÜNEŞ CAD. 204 A 
0040001065,YASEMİN ALEMİN,null,01182,40.841084,29.361704,ALEMİN AVM,0,MİMAR SİNAN MAH. TAŞKAN SOK. NO:35/B 
0040000881,KAYA YÜKSEL,null,00963,40.773349,29.575154,YÜKSEL GIDA,0,TAVŞANCIL MAH. DEFNE SOK. 2 1 
0040000908,YUSUF ŞAHİN,null,00992,40.738776,30.003728,ŞAHİN MARKET,0,KÖSEKÖY MAH. ATATÜRK CAD. 80 B 
0040000919,İSMAİL KÜÇÜK,null,01004,40.762115,29.924399,null,0,KEMALPAŞA MAH. ŞAHABETTİN BİLGİSU CAD. 142 A 
0040000937,RUKİYE SALMAN BAKAN,null,01023,40.805414,29.383698,FURKAN KURUYEMİŞ,0,B.BAĞI MAH. ANKARA CAD. NO:6/C 
0040000943,HAVVA SERT,null,01030,40.795027,29.551754,DURAK BÜFE,0,MİMAR SİNAN MAH. İSTİKLAL CAD. 175 1 
0040001022,ZEKAİ DEMİRCİ,null,01117,40.824368,29.924195,BAYDEM MARKET,0,KABAOĞLU MAH. SEMT PROF BAKİ KOMŞUOĞLU BLV 534 1 
0040001024,HALİL ÖZTÜRK,null,01119,40.7546,29.810314,BEREKET KURUYEMİŞ,0,YAVUZ SULTAN MAH. CUMHURİYET CAD. 2 B 
0040001035,MÜNEVVER AYAZ,null,01149,40.770317,29.916402,AYAZ MARKET,0,TURGUT MAH. İSMAİL KOLAYLI CAD. 103 B 
0040001038,GAMZE DÜZGÜN,null,01152,40.763724,29.97226,BARAN MARKET,0,YAHYA KAPTAN MAH. AKKAVAKLAR CAD. 9 Z 01 
0040001009,ALADDİN KURT,null,01101,40.829562,29.378344,MERKEZ BÜFE,0,ÇAYIROVA MAH. FATİH CAD. 182 B 
0040001027,ULAŞIMPARK TVM BAYİLİĞİ,null,02291,40.75919,29.943218,ULAŞIMPARK TVM BAYİLİĞİ,5,YAHYAKAPTAN MAH ELZEM SOK 68/5 İZMİT/KOCAELİ
0040001027,ULAŞIMPARK TVM BAYİLİĞİ,null,02279,40.75919,29.943218,ULAŞIMPARK TVM BAYİLİĞİ,5,YAHYAKAPTAN MAH ELZEM SOK 68/5 İZMİT/KOCAELİ
0040001027,ULAŞIMPARK TVM BAYİLİĞİ,null,02299,40.75919,29.943218,ULAŞIMPARK TVM BAYİLİĞİ,5,YAHYAKAPTAN MAH ELZEM SOK 68/5 İZMİT/KOCAELİ
0040001027,ULAŞIMPARK TVM BAYİLİĞİ,null,02296,40.75919,29.943218,ULAŞIMPARK TVM BAYİLİĞİ,5,YAHYAKAPTAN MAH ELZEM SOK 68/5 İZMİT/KOCAELİ
0040001027,ULAŞIMPARK TVM BAYİLİĞİ,null,02280,40.75919,29.943218,ULAŞIMPARK TVM BAYİLİĞİ,5,YAHYAKAPTAN MAH ELZEM SOK 68/5 İZMİT/KOCAELİ
0040001027,ULAŞIMPARK TVM BAYİLİĞİ,null,02278,40.75919,29.943218,ULAŞIMPARK TVM BAYİLİĞİ,5,YAHYAKAPTAN MAH ELZEM SOK 68/5 İZMİT/KOCAELİ
0040001027,ULAŞIMPARK TVM BAYİLİĞİ,null,02303,40.75919,29.943218,ULAŞIMPARK TVM BAYİLİĞİ,5,YAHYAKAPTAN MAH ELZEM SOK 68/5 İZMİT/KOCAELİ
0040001027,ULAŞIMPARK TVM BAYİLİĞİ,null,02283,40.75919,29.943218,ULAŞIMPARK TVM BAYİLİĞİ,5,YAHYAKAPTAN MAH ELZEM SOK 68/5 İZMİT/KOCAELİ
0040001027,ULAŞIMPARK TVM BAYİLİĞİ,null,02293,40.75919,29.943218,ULAŞIMPARK TVM BAYİLİĞİ,5,YAHYAKAPTAN MAH ELZEM SOK 68/5 İZMİT/KOCAELİ
0040001027,ULAŞIMPARK TVM BAYİLİĞİ,null,02292,40.75919,29.943218,ULAŞIMPARK TVM BAYİLİĞİ,5,YAHYAKAPTAN MAH ELZEM SOK 68/5 İZMİT/KOCAELİ
0040001027,ULAŞIMPARK TVM BAYİLİĞİ,null,02282,40.75919,29.943218,ULAŞIMPARK TVM BAYİLİĞİ,5,YAHYAKAPTAN MAH ELZEM SOK 68/5 İZMİT/KOCAELİ
0040001027,ULAŞIMPARK TVM BAYİLİĞİ,null,02284,40.75919,29.943218,ULAŞIMPARK TVM BAYİLİĞİ,5,YAHYAKAPTAN MAH ELZEM SOK 68/5 İZMİT/KOCAELİ
0040001027,ULAŞIMPARK TVM BAYİLİĞİ,null,02285,40.75919,29.943218,ULAŞIMPARK TVM BAYİLİĞİ,5,YAHYAKAPTAN MAH ELZEM SOK 68/5 İZMİT/KOCAELİ
0040001027,ULAŞIMPARK TVM BAYİLİĞİ,null,02302,40.75919,29.943218,ULAŞIMPARK TVM BAYİLİĞİ,5,YAHYAKAPTAN MAH ELZEM SOK 68/5 İZMİT/KOCAELİ
0040001027,ULAŞIMPARK TVM BAYİLİĞİ,null,02298,40.75919,29.943218,ULAŞIMPARK TVM BAYİLİĞİ,5,YAHYAKAPTAN MAH ELZEM SOK 68/5 İZMİT/KOCAELİ
0040001027,ULAŞIMPARK TVM BAYİLİĞİ,null,02281,40.75919,29.943218,BAŞARAN TRAMVAY TVM,5,YAHYAKAPTAN MAH ELZEM SOK 68/5 İZMİT/KOCAELİ
0040001027,ULAŞIMPARK TVM BAYİLİĞİ,null,02304,40.75919,29.943218,ULAŞIMPARK TVM BAYİLİĞİ,5,YAHYAKAPTAN MAH ELZEM SOK 68/5 İZMİT/KOCAELİ
0040001027,ULAŞIMPARK TVM BAYİLİĞİ,null,02301,40.75919,29.943218,ULAŞIMPARK TVM BAYİLİĞİ,5,YAHYAKAPTAN MAH ELZEM SOK 68/5 İZMİT/KOCAELİ
0040001027,ULAŞIMPARK TVM BAYİLİĞİ,null,02300,40.75919,29.943218,ULAŞIMPARK TVM BAYİLİĞİ,5,YAHYAKAPTAN MAH ELZEM SOK 68/5 İZMİT/KOCAELİ
0040001027,ULAŞIMPARK TVM BAYİLİĞİ,null,02297,40.75919,29.943218,ULAŞIMPARK TVM BAYİLİĞİ,5,YAHYAKAPTAN MAH ELZEM SOK 68/5 İZMİT/KOCAELİ
0040001027,ULAŞIMPARK TVM BAYİLİĞİ,null,02295,40.75919,29.943218,ULAŞIMPARK TVM BAYİLİĞİ,5,YAHYAKAPTAN MAH ELZEM SOK 68/5 İZMİT/KOCAELİ
0040001027,ULAŞIMPARK TVM BAYİLİĞİ,null,02294,40.75919,29.943218,ULAŞIMPARK TVM BAYİLİĞİ,5,YAHYAKAPTAN MAH ELZEM SOK 68/5 İZMİT/KOCAELİ
0040001027,ULAŞIMPARK TVM BAYİLİĞİ,null,02290,40.75919,29.943218,ULAŞIMPARK TVM BAYİLİĞİ,5,YAHYAKAPTAN MAH ELZEM SOK 68/5 İZMİT/KOCAELİ
0040001027,ULAŞIMPARK TVM BAYİLİĞİ,null,02289,40.75919,29.943218,ULAŞIMPARK TVM BAYİLİĞİ,5,YAHYAKAPTAN MAH ELZEM SOK 68/5 İZMİT/KOCAELİ
0040001027,ULAŞIMPARK TVM BAYİLİĞİ,null,02288,40.75919,29.943218,ULAŞIMPARK TVM BAYİLİĞİ,5,YAHYAKAPTAN MAH ELZEM SOK 68/5 İZMİT/KOCAELİ
0040001027,ULAŞIMPARK TVM BAYİLİĞİ,null,02287,40.75919,29.943218,ULAŞIMPARK TVM BAYİLİĞİ,5,YAHYAKAPTAN MAH ELZEM SOK 68/5 İZMİT/KOCAELİ
0040001027,ULAŞIMPARK TVM BAYİLİĞİ,null,02286,40.75919,29.943218,ULAŞIMPARK TVM BAYİLİĞİ,5,YAHYAKAPTAN MAH ELZEM SOK 68/5 İZMİT/KOCAELİ
0040001027,ULAŞIMPARK TVM BAYİLİĞİ,null,02232,40.75919,29.943218,FİZİK TEDAVİ TRAMVAY AVM,5,YAHYAKAPTAN MAH ELZEM SOK 68/5 İZMİT/KOCAELİ
0040001027,ULAŞIMPARK TVM BAYİLİĞİ,null,02228,40.75919,29.943218,KÖRFEZ BARBAROS MH. MUHTARLIK AVM,5,YAHYAKAPTAN MAH ELZEM SOK 68/5 İZMİT/KOCAELİ
0040001027,ULAŞIMPARK TVM BAYİLİĞİ,null,02222,40.75919,29.943218,KÖRFEZ KİRAZLIYALI MUHTARLIK ÖNÜ AVM,5,YAHYAKAPTAN MAH ELZEM SOK 68/5 İZMİT/KOCAELİ
0040001027,ULAŞIMPARK TVM BAYİLİĞİ,null,02153,40.773758,29.520699,DİLOVASI OKSİJEN ÖNÜ AVM,5,YAHYAKAPTAN MAH ELZEM SOK 68/5 İZMİT/KOCAELİ
0040001027,ULAŞIMPARK TVM BAYİLİĞİ,null,02148,41.188598,30.254216,KANDIRA CEBECİ AVM,5,YAHYAKAPTAN MAH ELZEM SOK 68/5 İZMİT/KOCAELİ
0040001027,ULAŞIMPARK TVM BAYİLİĞİ,null,02142,40.80937,29.365232,GEBZE TEKNİK ÜNİVERSİTESİ-AVM,5,YAHYAKAPTAN MAH ELZEM SOK 68/5 İZMİT/KOCAELİ
0040001027,ULAŞIMPARK TVM BAYİLİĞİ,null,02129,40.690254,30.03079,ARSLANBEY MERKEZ SAĞLIK OCAĞI ÖNÜ AVM,5,YAHYAKAPTAN MAH ELZEM SOK 68/5 İZMİT/KOCAELİ
0040001027,ULAŞIMPARK TVM BAYİLİĞİ,null,02127,41.068261,30.147596,KANDIRA OTOGAR AVM,5,YAHYAKAPTAN MAH ELZEM SOK 68/5 İZMİT/KOCAELİ
0040001027,ULAŞIMPARK TVM BAYİLİĞİ,null,02085,40.755077,30.030907,ERTUĞRUL GAZİ MAHALLESİ MUHTARLIK AVM,5,YAHYAKAPTAN MAH ELZEM SOK 68/5 İZMİT/KOCAELİ
0040001027,ULAŞIMPARK TVM BAYİLİĞİ,null,02078,40.727559,29.961729,BAŞİSKELE PEKDEMİR EVİMİZ SİTESİ AVM,5,YAHYAKAPTAN MAH ELZEM SOK 68/5 İZMİT/KOCAELİ
0040001027,ULAŞIMPARK TVM BAYİLİĞİ,null,02077,40.76125,29.910768,SEKAPARK TRAMVAY AVM,5,YAHYAKAPTAN MAH ELZEM SOK 68/5 İZMİT/KOCAELİ
0040001027,ULAŞIMPARK TVM BAYİLİĞİ,null,02075,40.795838,29.413926,GEBZE KÖŞKLÜ ÇEŞME MUHTARLIK ÖNÜ AVM,5,YAHYAKAPTAN MAH ELZEM SOK 68/5 İZMİT/KOCAELİ
0040001027,ULAŞIMPARK TVM BAYİLİĞİ,null,02069,40.75919,29.943218,KÖRFEZ CENTER AVM,5,YAHYAKAPTAN MAH ELZEM SOK 68/5 İZMİT/KOCAELİ
0040001027,ULAŞIMPARK TVM BAYİLİĞİ,null,02067,40.849022,30.19582,AKMEŞE MERKEZ CAMİİ AVM,5,YAHYAKAPTAN MAH ELZEM SOK 68/5 İZMİT/KOCAELİ
0040001027,ULAŞIMPARK TVM BAYİLİĞİ,null,02066,40.799345,29.431766,GEBZE MUSTAFA PAŞA CAMİİ 3 AVM,5,YAHYAKAPTAN MAH ELZEM SOK 68/5 İZMİT/KOCAELİ
0040001027,ULAŞIMPARK TVM BAYİLİĞİ,null,02052,40.705844,30.137185,ULAŞIMPARK TVM BAYİLİĞİ,5,YAHYAKAPTAN MAH ELZEM SOK 68/5 İZMİT/KOCAELİ
0040001027,ULAŞIMPARK TVM BAYİLİĞİ,null,02051,40.7058449,30.1371857,KARTEPE MAŞUKİYE MUHTARLIK ÖNÜ AVM,5,YAHYAKAPTAN MAH ELZEM SOK 68/5 İZMİT/KOCAELİ
0040001027,ULAŞIMPARK TVM BAYİLİĞİ,null,01996,40.802358,29.960595,BAYINDIRLIK KONUTLARI,5,YAHYAKAPTAN MAH ELZEM SOK 68/5 İZMİT/KOCAELİ
0040001027,ULAŞIMPARK TVM BAYİLİĞİ,null,02277,40.75919,29.943218,ULAŞIMPARK TVM BAYİLİĞİ,5,YAHYAKAPTAN MAH ELZEM SOK 68/5 İZMİT/KOCAELİ
0040001027,ULAŞIMPARK TVM BAYİLİĞİ,null,02276,40.75919,29.943218,ULAŞIMPARK TVM BAYİLİĞİ,5,YAHYAKAPTAN MAH ELZEM SOK 68/5 İZMİT/KOCAELİ
0040001027,ULAŞIMPARK TVM BAYİLİĞİ,null,02275,40.75919,29.943218,TURAN GÜNEŞ TRAMVAY TVM,5,YAHYAKAPTAN MAH ELZEM SOK 68/5 İZMİT/KOCAELİ
0040001027,ULAŞIMPARK TVM BAYİLİĞİ,null,02268,40.75919,29.943218,ULAŞIMPARK TVM BAYİLİĞİ,5,YAHYAKAPTAN MAH ELZEM SOK 68/5 İZMİT/KOCAELİ
0040001027,ULAŞIMPARK TVM BAYİLİĞİ,null,02267,40.75919,29.943218,ULAŞIMPARK TVM BAYİLİĞİ,5,YAHYAKAPTAN MAH ELZEM SOK 68/5 İZMİT/KOCAELİ
0040001027,ULAŞIMPARK TVM BAYİLİĞİ,null,02266,40.75919,29.943218,DERİNCE MERKEZ AVM,5,YAHYAKAPTAN MAH ELZEM SOK 68/5 İZMİT/KOCAELİ
0040001027,ULAŞIMPARK TVM BAYİLİĞİ,null,02265,40.75919,29.943218,İZMİT LİSE DURAĞI AVM,5,YAHYAKAPTAN MAH ELZEM SOK 68/5 İZMİT/KOCAELİ
0040001027,ULAŞIMPARK TVM BAYİLİĞİ,null,02264,40.75919,29.943218,KÖSEKÖY ASKERİYE SAPAĞI DURAĞI AVM,5,YAHYAKAPTAN MAH ELZEM SOK 68/5 İZMİT/KOCAELİ
0040001027,ULAŞIMPARK TVM BAYİLİĞİ,null,02263,40.75919,29.943218,ORMANYA AVM,5,YAHYAKAPTAN MAH ELZEM SOK 68/5 İZMİT/KOCAELİ
0040001027,ULAŞIMPARK TVM BAYİLİĞİ,null,02262,40.75919,29.943218,ULAŞIMPARK TVM BAYİLİĞİ,5,YAHYAKAPTAN MAH ELZEM SOK 68/5 İZMİT/KOCAELİ
0040001027,ULAŞIMPARK TVM BAYİLİĞİ,null,02261,40.75919,29.943218,BAŞİSKELE ALPARSLAN TÜRKEŞ ÜST GEÇİDİ AVM,5,YAHYAKAPTAN MAH ELZEM SOK 68/5 İZMİT/KOCAELİ
0040001027,ULAŞIMPARK TVM BAYİLİĞİ,null,02259,40.75919,29.943218,GÖLCÜK ŞİRİNKÖY MUHTARLIK YANI AVM,5,YAHYAKAPTAN MAH ELZEM SOK 68/5 İZMİT/KOCAELİ
0040001027,ULAŞIMPARK TVM BAYİLİĞİ,null,02258,40.75919,29.943218,KARAKÖRÜ MUHTARLIK ÖNÜ AVM,5,YAHYAKAPTAN MAH ELZEM SOK 68/5 İZMİT/KOCAELİ
0040001027,ULAŞIMPARK TVM BAYİLİĞİ,null,02257,40.75919,29.943218,GÖLCÜK KAVAKLI SANAYİ PARKI AVM,5,YAHYAKAPTAN MAH ELZEM SOK 68/5 İZMİT/KOCAELİ
0040001027,ULAŞIMPARK TVM BAYİLİĞİ,null,02256,40.75919,29.943218,ULAŞIMPARK TVM BAYİLİĞİ,5,YAHYAKAPTAN MAH ELZEM SOK 68/5 İZMİT/KOCAELİ
0040001027,ULAŞIMPARK TVM BAYİLİĞİ,null,02255,40.75919,29.943218,KÖRFEZ ÇAMLITEPE AVM,5,YAHYAKAPTAN MAH ELZEM SOK 68/5 İZMİT/KOCAELİ
0040001027,ULAŞIMPARK TVM BAYİLİĞİ,null,02254,40.75919,29.943218,ULAŞIMPARK TVM BAYİLİĞİ,5,YAHYAKAPTAN MAH ELZEM SOK 68/5 İZMİT/KOCAELİ
0040001027,ULAŞIMPARK TVM BAYİLİĞİ,null,02150,40.72273,29.950821,YUVACIK SAPAĞI TAKSİ DURAĞI YANI AVM,5,YAHYAKAPTAN MAH ELZEM SOK 68/5 İZMİT/KOCAELİ
0040001027,ULAŞIMPARK TVM BAYİLİĞİ,null,02089,40.791037,29.373723,DARICA OSMANGAZİ MAHALLESİ MUHTARLIK ÖNÜ AVM,5,YAHYAKAPTAN MAH ELZEM SOK 68/5 İZMİT/KOCAELİ
0040001027,ULAŞIMPARK TVM BAYİLİĞİ,null,01997,40.736424,30.126854,KARTEPE UZUNTARLA ATALAR MAHALLESİ AVM,5,YAHYAKAPTAN MAH ELZEM SOK 68/5 İZMİT/KOCAELİ
0040001027,ULAŞIMPARK TVM BAYİLİĞİ,null,02239,40.7513879,30.0366017,KÖSEKÖY HAT41 DURAĞI,5,YAHYAKAPTAN MAH ELZEM SOK 68/5 İZMİT/KOCAELİ
0040001027,ULAŞIMPARK TVM BAYİLİĞİ,null,02238,40.75919,29.943218,DERİNCE HAT 41 DURAĞI AVM,5,YAHYAKAPTAN MAH ELZEM SOK 68/5 İZMİT/KOCAELİ
0040001027,ULAŞIMPARK TVM BAYİLİĞİ,null,02235,40.75919,29.943218,ORDUEVİ HAT41 DURAĞI AVM,5,YAHYAKAPTAN MAH ELZEM SOK 68/5 İZMİT/KOCAELİ
0040001027,ULAŞIMPARK TVM BAYİLİĞİ,null,02234,40.75919,29.943218,GEBZE İBRAHİM AĞA CADDESİ AVM,5,YAHYAKAPTAN MAH ELZEM SOK 68/5 İZMİT/KOCAELİ
0040001027,ULAŞIMPARK TVM BAYİLİĞİ,null,02233,40.75919,29.943218,KANDIRA SAPAĞI ANKARA YÖNÜ AVM,5,YAHYAKAPTAN MAH ELZEM SOK 68/5 İZMİT/KOCAELİ
0040001027,ULAŞIMPARK TVM BAYİLİĞİ,null,02229,40.75919,29.943218,DARICA TURGUT PARK ÖNÜ AVM,5,YAHYAKAPTAN MAH ELZEM SOK 68/5 İZMİT/KOCAELİ
0040001027,ULAŞIMPARK TVM BAYİLİĞİ,null,02208,41.065952,30.132622,KANDIRA TOKİ AVM,5,YAHYAKAPTAN MAH ELZEM SOK 68/5 İZMİT/KOCAELİ
0040001027,ULAŞIMPARK TVM BAYİLİĞİ,null,02154,40.75919,29.943218,ULAŞIMPARK TVM BAYİLİĞİ,5,YAHYAKAPTAN MAH ELZEM SOK 68/5 İZMİT/KOCAELİ
0040001027,ULAŞIMPARK TVM BAYİLİĞİ,null,02151,40.827976,29.382223,ÇAYIROVA ÖZGÜRLÜK CADDESİ AVM,5,YAHYAKAPTAN MAH ELZEM SOK 68/5 İZMİT/KOCAELİ
0040001027,ULAŞIMPARK TVM BAYİLİĞİ,null,02144,40.75919,29.943218,GEBZE TATLIKUYU KÖPRÜSÜ AVM,5,YAHYAKAPTAN MAH ELZEM SOK 68/5 İZMİT/KOCAELİ
0040001027,ULAŞIMPARK TVM BAYİLİĞİ,null,02141,40.716652,29.823071,GÖLCÜK BELEDİYE KARŞISI AVM,5,YAHYAKAPTAN MAH ELZEM SOK 68/5 İZMİT/KOCAELİ
0040001027,ULAŞIMPARK TVM BAYİLİĞİ,null,02131,40.686287,29.852421,GÖLCÜK HİSAREYN MERKEZ KAHVE ÖNÜ AVM,5,YAHYAKAPTAN MAH ELZEM SOK 68/5 İZMİT/KOCAELİ
0040001027,ULAŞIMPARK TVM BAYİLİĞİ,null,02128,40.75919,29.943218,İHSANİYE MERKEZ AVM,5,YAHYAKAPTAN MAH ELZEM SOK 68/5 İZMİT/KOCAELİ
0040001027,ULAŞIMPARK TVM BAYİLİĞİ,null,02091,40.754719,29.810114,DERİNCE 60 EVLER MERKEZ AVM,5,YAHYAKAPTAN MAH ELZEM SOK 68/5 İZMİT/KOCAELİ
0040001027,ULAŞIMPARK TVM BAYİLİĞİ,null,02088,40.756103,29.946324,41 BURDA AVM,5,YAHYAKAPTAN MAH ELZEM SOK 68/5 İZMİT/KOCAELİ
0040001027,ULAŞIMPARK TVM BAYİLİĞİ,null,02083,40.738914,29.957993, VEZİRÇİFTLİĞİ MUHTARLIK ÖNÜ AVM,5,YAHYAKAPTAN MAH ELZEM SOK 68/5 İZMİT/KOCAELİ
0040001027,ULAŞIMPARK TVM BAYİLİĞİ,null,02082,40.684534,29.589046,KARAMÜRSEL DEVLET HASTANESİ AVM,5,YAHYAKAPTAN MAH ELZEM SOK 68/5 İZMİT/KOCAELİ
0040001027,ULAŞIMPARK TVM BAYİLİĞİ,null,02080,40.776197,29.791721,KÖRFEZ YAVUZ SULTAN SELİM MAHALLESİ AVM,5,YAHYAKAPTAN MAH ELZEM SOK 68/5 İZMİT/KOCAELİ
0040001027,ULAŞIMPARK TVM BAYİLİĞİ,null,02076,40.723158,29.795405,DEĞİRMENDERE YÜZBAŞILAR SAHİL MEVKİİ AVM,5,YAHYAKAPTAN MAH ELZEM SOK 68/5 İZMİT/KOCAELİ
0040001027,ULAŞIMPARK TVM BAYİLİĞİ,null,02068,40.735508,30.033039,KARTEPE KAYMAKAMLIK MİN. KOOP. ÖNÜ AVM,5,YAHYAKAPTAN MAH ELZEM SOK 68/5 İZMİT/KOCAELİ
0040001027,ULAŞIMPARK TVM BAYİLİĞİ,null,02240,40.75919,29.943218,KANDIRA SAPAĞI İSTANBUL YÖNÜ,5,YAHYAKAPTAN MAH ELZEM SOK 68/5 İZMİT/KOCAELİ
0040001027,ULAŞIMPARK TVM BAYİLİĞİ,null,02231,40.75919,29.943218,BAŞİSKELE SERDAR MAHALLESİ MUHTARLIK AVM,5,YAHYAKAPTAN MAH ELZEM SOK 68/5 İZMİT/KOCAELİ
0040001027,ULAŞIMPARK TVM BAYİLİĞİ,null,02230,40.75919,29.943218,DEĞİRMENDERE 4 YOL AVM,5,YAHYAKAPTAN MAH ELZEM SOK 68/5 İZMİT/KOCAELİ
0040001027,ULAŞIMPARK TVM BAYİLİĞİ,null,02155,40.75919,29.943218,ULAŞIMPARK TVM BAYİLİĞİ,5,YAHYAKAPTAN MAH ELZEM SOK 68/5 İZMİT/KOCAELİ
0040001027,ULAŞIMPARK TVM BAYİLİĞİ,null,02149,40.812553,29.419628,GEBZE MEVLANA KAPALI PAZARYERİ AVM,5,YAHYAKAPTAN MAH ELZEM SOK 68/5 İZMİT/KOCAELİ
0040001027,ULAŞIMPARK TVM BAYİLİĞİ,null,02073,40.784248,29.61529,HEREKE MERKEZ AVM,5,YAHYAKAPTAN MAH ELZEM SOK 68/5 İZMİT/KOCAELİ
0040001027,ULAŞIMPARK TVM BAYİLİĞİ,null,02011,41.144991,30.310647,KANDIRA KARAAĞAÇ MUHTARLIK ÖNÜ AVM,5,YAHYAKAPTAN MAH ELZEM SOK 68/5 İZMİT/KOCAELİ
0040001027,ULAŞIMPARK TVM BAYİLİĞİ,null,02152,40.795109,29.42313,GEBZE AYŞECİK PARKI ÖNÜ AVM,5,YAHYAKAPTAN MAH ELZEM SOK 68/5 İZMİT/KOCAELİ
0040001027,ULAŞIMPARK TVM BAYİLİĞİ,null,02147,40.767335,29.790376,KÖRFEZ N. ERBAKAN KÜLTÜR MERKEZİ K. PAZARYERİ AVM,5,YAHYAKAPTAN MAH ELZEM SOK 68/5 İZMİT/KOCAELİ
0040001027,ULAŞIMPARK TVM BAYİLİĞİ,null,02143,40.75919,29.943218,GÜLTEPE KÜLTÜR MERKEZİ AVM,5,YAHYAKAPTAN MAH ELZEM SOK 68/5 İZMİT/KOCAELİ
0040001027,ULAŞIMPARK TVM BAYİLİĞİ,null,02140,40.782081,29.432964,GEBZE BARIŞ MAHALLESİ AVM,5,YAHYAKAPTAN MAH ELZEM SOK 68/5 İZMİT/KOCAELİ
0040001027,ULAŞIMPARK TVM BAYİLİĞİ,null,02130,40.769868,29.42803,GEBZE ESKİHİSAR MAHALLE MUHTARLIK ÖNÜ AVM,5,YAHYAKAPTAN MAH ELZEM SOK 68/5 İZMİT/KOCAELİ
0040001027,ULAŞIMPARK TVM BAYİLİĞİ,null,02093,40.702152,29.661304,KARAMÜRSEL EREĞLİ MERKEZ AVM,5,YAHYAKAPTAN MAH ELZEM SOK 68/5 İZMİT/KOCAELİ
0040001027,ULAŞIMPARK TVM BAYİLİĞİ,null,02086,40.702659,29.825635,GÖLCÜK ŞİRİNKÖY AVM,5,YAHYAKAPTAN MAH ELZEM SOK 68/5 İZMİT/KOCAELİ
0040001027,ULAŞIMPARK TVM BAYİLİĞİ,null,02081,40.86461,29.588394,DİLOVASI KÖSELER MAH. TOKİ CAMİİ AVM,5,YAHYAKAPTAN MAH ELZEM SOK 68/5 İZMİT/KOCAELİ
0040001027,ULAŞIMPARK TVM BAYİLİĞİ,null,02079,40.699807,29.951457,BAŞİSKELE AYDINKENT CAMİİ AVM,5,YAHYAKAPTAN MAH ELZEM SOK 68/5 İZMİT/KOCAELİ
0040001027,ULAŞIMPARK TVM BAYİLİĞİ,null,02074,40.78638,29.97086,İZMİT YEŞİLOVA MEVKİİ AVM,5,YAHYAKAPTAN MAH ELZEM SOK 68/5 İZMİT/KOCAELİ
0040001027,ULAŞIMPARK TVM BAYİLİĞİ,null,02071,40.778358,29.37624,DARICA TUZLA CADDESİ NENEHATUN STADI YANI AVM,5,YAHYAKAPTAN MAH ELZEM SOK 68/5 İZMİT/KOCAELİ
0040001027,ULAŞIMPARK TVM BAYİLİĞİ,null,02003,41.169651,30.227158,KANDIRA KEFKEN MERKEZ AVM,5,YAHYAKAPTAN MAH ELZEM SOK 68/5 İZMİT/KOCAELİ
0040001027,ULAŞIMPARK TVM BAYİLİĞİ,null,01999,40.775561,29.747121,KÖRFEZ HACI OSMAN MAH.  BAĞDAT CAD. BAĞDAT CAMİİ YANI AVM,5,YAHYAKAPTAN MAH ELZEM SOK 68/5 İZMİT/KOCAELİ
0040001027,ULAŞIMPARK TVM BAYİLİĞİ,null,01994,40.69837,29.884733,BAŞİSKELE KOSTÜ MEVKİİ AVM,5,YAHYAKAPTAN MAH ELZEM SOK 68/5 İZMİT/KOCAELİ
0040001027,ULAŞIMPARK TVM BAYİLİĞİ,null,02260,40.75919,29.943218,ULAŞIMPARK TVM BAYİLİĞİ,5,YAHYAKAPTAN MAH ELZEM SOK 68/5 İZMİT/KOCAELİ
0040001027,ULAŞIMPARK TVM BAYİLİĞİ,null,02250,40.8205286,29.4592134,KİRAZPINAR HZ. OSMAN CAMİİ ÖNÜ AVM,5,YAHYAKAPTAN MAH ELZEM SOK 68/5 İZMİT/KOCAELİ
0040001027,ULAŞIMPARK TVM BAYİLİĞİ,null,02243,40.75919,29.943218,KARTEPE UZUNTARLA KOOP. ÖNÜ,5,YAHYAKAPTAN MAH ELZEM SOK 68/5 İZMİT/KOCAELİ
0040001027,ULAŞIMPARK TVM BAYİLİĞİ,null,02242,40.75919,29.943218,DARICA EMEK MH. MUHTARLIK ÖNÜ AVM,5,YAHYAKAPTAN MAH ELZEM SOK 68/5 İZMİT/KOCAELİ
0040001027,ULAŞIMPARK TVM BAYİLİĞİ,null,02241,40.7037945,29.8020783,GÖLCÜK YUNUS EMRE MAH. MUHTARLIK ÖNÜ AVM,5,YAHYAKAPTAN MAH ELZEM SOK 68/5 İZMİT/KOCAELİ
0040001027,ULAŞIMPARK TVM BAYİLİĞİ,null,02236,40.8041964,29.3898246,GEBZE BEYLİKBAĞI SARI CAMİİ AVM,5,YAHYAKAPTAN MAH ELZEM SOK 68/5 İZMİT/KOCAELİ
0040001027,ULAŞIMPARK TVM BAYİLİĞİ,null,02146,40.807618,29.745763,KÖRFEZ İLİMTEPE AVM,5,YAHYAKAPTAN MAH ELZEM SOK 68/5 İZMİT/KOCAELİ
0040001027,ULAŞIMPARK TVM BAYİLİĞİ,null,02145,41.157196,30.197023,KANDIRA KERPE MİÇO CADDESİ AVM,5,YAHYAKAPTAN MAH ELZEM SOK 68/5 İZMİT/KOCAELİ
0040001027,ULAŞIMPARK TVM BAYİLİĞİ,null,02139,40.761165,29.78731,KÖRFEZ BELLONA AVM,5,YAHYAKAPTAN MAH ELZEM SOK 68/5 İZMİT/KOCAELİ
0040001027,ULAŞIMPARK TVM BAYİLİĞİ,null,02070,40.775833,29.941417,İZMİT ERENLER CEDİT ALT MEVKİİ AVM,5,YAHYAKAPTAN MAH ELZEM SOK 68/5 İZMİT/KOCAELİ
0040001027,ULAŞIMPARK TVM BAYİLİĞİ,null,02050,40.692548,30.055063,KARTEPE SUADİYE MERKEZ CAMİ ÖNÜ AVM,5,YAHYAKAPTAN MAH ELZEM SOK 68/5 İZMİT/KOCAELİ
0040001027,ULAŞIMPARK TVM BAYİLİĞİ,null,02013,40.71422,29.93533,BAŞİSKELE BELEDİYE ÖNÜ AVM,5,YAHYAKAPTAN MAH ELZEM SOK 68/5 İZMİT/KOCAELİ
0040001027,ULAŞIMPARK TVM BAYİLİĞİ,null,02012,40.76138,29.936822,FUAR SAHİL TVM,5,YAHYAKAPTAN MAH ELZEM SOK 68/5 İZMİT/KOCAELİ
0040001027,ULAŞIMPARK TVM BAYİLİĞİ,null,01998,40.772276,29.810715,YENİKENT MUHTARLIK ÖNÜ AVM,5,YAHYAKAPTAN MAH ELZEM SOK 68/5 İZMİT/KOCAELİ
0040001027,ULAŞIMPARK TVM BAYİLİĞİ,null,02092,40.90428,29.85277,DERİNCE İSHAKÇILAR AVM,5,YAHYAKAPTAN MAH ELZEM SOK 68/5 İZMİT/KOCAELİ
0040001027,ULAŞIMPARK TVM BAYİLİĞİ,null,02090,40.761304,29.930209,MİMAR SİNAN KÖPRÜSÜ AVM,5,YAHYAKAPTAN MAH ELZEM SOK 68/5 İZMİT/KOCAELİ
0040001027,ULAŞIMPARK TVM BAYİLİĞİ,null,02087,40.752402,30.010661,KARTEPE TEPECİK MAHALLESİ AVM,5,YAHYAKAPTAN MAH ELZEM SOK 68/5 İZMİT/KOCAELİ
0040001027,ULAŞIMPARK TVM BAYİLİĞİ,null,02072,40.74393,30.04866,KARTEPE ATAEVLER MUHTARLIK AVM,5,YAHYAKAPTAN MAH ELZEM SOK 68/5 İZMİT/KOCAELİ
0040001027,ULAŞIMPARK TVM BAYİLİĞİ,null,02047,40.693478,30.086726,KARTEPE BALABAN KÖYÜ MERKEZ CAMİİ ÖNÜ AVM,5,YAHYAKAPTAN MAH ELZEM SOK 68/5 İZMİT/KOCAELİ
0040001027,ULAŞIMPARK TVM BAYİLİĞİ,null,02002,40.825572,29.475394,GEBZE KİRAZPINAR EMLAK KONUT 1. ETAP AVM,5,YAHYAKAPTAN MAH ELZEM SOK 68/5 İZMİT/KOCAELİ
0040001027,ULAŞIMPARK TVM BAYİLİĞİ,null,02001,40.758746,29.383795,GEBZE DARICA MERKEZ ZİRAAT BANK DURAĞI YANI AVM,5,YAHYAKAPTAN MAH ELZEM SOK 68/5 İZMİT/KOCAELİ
0040001027,ULAŞIMPARK TVM BAYİLİĞİ,null,02000,40.783984,29.411305,GEBZE MARMARAY DURAĞI YANI AVM,5,YAHYAKAPTAN MAH ELZEM SOK 68/5 İZMİT/KOCAELİ
0040001027,ULAŞIMPARK TVM BAYİLİĞİ,null,01995,40.696792,29.870233,GÖLCÜK YAZLIK MERKEZ MAH. AVM,5,YAHYAKAPTAN MAH ELZEM SOK 68/5 İZMİT/KOCAELİ
0040001027,ULAŞIMPARK TVM BAYİLİĞİ,null,01993,40.750729,30.042895,KARTEPE ÇELİK HALAT DURAĞI AVM,5,YAHYAKAPTAN MAH ELZEM SOK 68/5 İZMİT/KOCAELİ
0040001027,ULAŞIMPARK TVM BAYİLİĞİ,null,01976,40.7142752,29.9352362,BAŞİSKELE BELEDİYESİ AVM,5,YAHYAKAPTAN MAH ELZEM SOK 68/5 İZMİT/KOCAELİ
0040001027,ULAŞIMPARK TVM BAYİLİĞİ,null,01911,40.772734,29.800926,KÖRFEZ KENT 3. ETAP,5,YAHYAKAPTAN MAH ELZEM SOK 68/5 İZMİT/KOCAELİ
0040001027,ULAŞIMPARK TVM BAYİLİĞİ,null,01917,40.685119,29.922727,BAHÇECİK YEŞİLKENT AVM,5,YAHYAKAPTAN MAH ELZEM SOK 68/5 İZMİT/KOCAELİ
0040001027,ULAŞIMPARK TVM BAYİLİĞİ,null,01902,40.824272,29.465217,KİRAZPINAR 3. ETAP AVM,5,YAHYAKAPTAN MAH ELZEM SOK 68/5 İZMİT/KOCAELİ
0040001027,ULAŞIMPARK TVM BAYİLİĞİ,null,01930,40.795485,29.418861,BEYLİKBAĞI KÜLTÜR MERKEZİ AVM,5,YAHYAKAPTAN MAH ELZEM SOK 68/5 İZMİT/KOCAELİ
0040001027,ULAŞIMPARK TVM BAYİLİĞİ,null,01863,40.788112,29.556785,DİLOVASI DEVLET HASTANESİ AVM,5,YAHYAKAPTAN MAH ELZEM SOK 68/5 İZMİT/KOCAELİ
0040001027,ULAŞIMPARK TVM BAYİLİĞİ,null,01856,40.776653,29.973187,OTOGAR HAT250 PERON TVM,5,YAHYAKAPTAN MAH ELZEM SOK 68/5 İZMİT/KOCAELİ
0040001027,ULAŞIMPARK TVM BAYİLİĞİ,null,01925,40.790778,29.871472,AKPINAR TOKİ AVM,5,YAHYAKAPTAN MAH ELZEM SOK 68/5 İZMİT/KOCAELİ
0040001027,ULAŞIMPARK TVM BAYİLİĞİ,null,01929,40.778239,29.405533,DARICA ADNAN MENDERES KÜLTÜR M. AVM,5,YAHYAKAPTAN MAH ELZEM SOK 68/5 İZMİT/KOCAELİ
0040001027,ULAŞIMPARK TVM BAYİLİĞİ,null,01927,40.760904,29.931603,SABANCI KÜLTÜR MERKEZİ TVM,5,YAHYAKAPTAN MAH ELZEM SOK 68/5 İZMİT/KOCAELİ
0040001027,ULAŞIMPARK TVM BAYİLİĞİ,null,01805,40.766345,29.899251,SEKA KAVŞAK AVM,5,YAHYAKAPTAN MAH ELZEM SOK 68/5 İZMİT/KOCAELİ
0040001027,ULAŞIMPARK TVM BAYİLİĞİ,null,01802,40.799319,29.431844,MUSTAFA PAŞA AVM,5,YAHYAKAPTAN MAH ELZEM SOK 68/5 İZMİT/KOCAELİ
0040001027,ULAŞIMPARK TVM BAYİLİĞİ,null,01888,40.788911,29.389891,DARICA SIRASÖĞÜTLER AVM,5,YAHYAKAPTAN MAH ELZEM SOK 68/5 İZMİT/KOCAELİ
0040001027,ULAŞIMPARK TVM BAYİLİĞİ,null,01757,40.767035,29.902912,YENİDOĞAN AVM,5,YAHYAKAPTAN MAH ELZEM SOK 68/5 İZMİT/KOCAELİ
0040001027,ULAŞIMPARK TVM BAYİLİĞİ,null,01751,40.781129,29.946286,KENTKONUT 3-4 ETAP AVM,5,YAHYAKAPTAN MAH ELZEM SOK 68/5 İZMİT/KOCAELİ
0040001027,ULAŞIMPARK TVM BAYİLİĞİ,null,01729,40.709757,30.11077,DERBENT MERKEZ AVM,5,YAHYAKAPTAN MAH ELZEM SOK 68/5 İZMİT/KOCAELİ
0040001027,ULAŞIMPARK TVM BAYİLİĞİ,null,01723,40.701259,29.887366,YENİKÖY AVM,5,YAHYAKAPTAN MAH ELZEM SOK 68/5 İZMİT/KOCAELİ
0040001027,ULAŞIMPARK TVM BAYİLİĞİ,null,01783,40.760698,29.925054,HALKEVİ SAHİL AVM,5,YAHYAKAPTAN MAH ELZEM SOK 68/5 İZMİT/KOCAELİ
0040001027,ULAŞIMPARK TVM BAYİLİĞİ,null,01727,40.762266,29.784709,GEBZE DARICA MERKEZ ZİRAAT BANK DURAĞI YANI AVM,5,YAHYAKAPTAN MAH ELZEM SOK 68/5 İZMİT/KOCAELİ
0040001027,ULAŞIMPARK TVM BAYİLİĞİ,null,01721,40.705882,29.838987,GÖLCÜK DEVLET HASTANESİ AVM,5,YAHYAKAPTAN MAH ELZEM SOK 68/5 İZMİT/KOCAELİ
0040001027,ULAŞIMPARK TVM BAYİLİĞİ,null,01699,40.795132,29.459127,GEBZE OTOGAR AVM,5,YAHYAKAPTAN MAH ELZEM SOK 68/5 İZMİT/KOCAELİ
0040001027,ULAŞIMPARK TVM BAYİLİĞİ,null,01697,40.836997,29.393628,ÇAĞDAŞKENT TAKSİ DURAĞI AVM,5,YAHYAKAPTAN MAH ELZEM SOK 68/5 İZMİT/KOCAELİ
0040001027,ULAŞIMPARK TVM BAYİLİĞİ,null,01614,40.762767,29.887204,PLAJYOLU TRAMVAY TVM,5,YAHYAKAPTAN MAH ELZEM SOK 68/5 İZMİT/KOCAELİ
0040001027,ULAŞIMPARK TVM BAYİLİĞİ,null,01601,40.906606,29.208185,KARTAL TVM,5,YAHYAKAPTAN MAH ELZEM SOK 68/5 İZMİT/KOCAELİ
0040001027,ULAŞIMPARK TVM BAYİLİĞİ,null,01784,40.77096,30.00558,ALİKAHYA MERKEZ AVM,5,YAHYAKAPTAN MAH ELZEM SOK 68/5 İZMİT/KOCAELİ
0040001027,ULAŞIMPARK TVM BAYİLİĞİ,null,01781,40.792203,29.367588,DARICA HOSPITALPARK ÖNÜ AVM,5,YAHYAKAPTAN MAH ELZEM SOK 68/5 İZMİT/KOCAELİ
0040001027,ULAŞIMPARK TVM BAYİLİĞİ,null,01779,40.804933,29.440754,GEBZE BELEDİYE ÖNÜ AVM,5,YAHYAKAPTAN MAH ELZEM SOK 68/5 İZMİT/KOCAELİ
0040001027,ULAŞIMPARK TVM BAYİLİĞİ,null,01770,40.745979,30.062359,ÖZDİLEK AVM,5,YAHYAKAPTAN MAH ELZEM SOK 68/5 İZMİT/KOCAELİ
0040001027,ULAŞIMPARK TVM BAYİLİĞİ,null,01750,40.759479,29.979424,SEMBOL AVM,5,YAHYAKAPTAN MAH ELZEM SOK 68/5 İZMİT/KOCAELİ
0040001027,ULAŞIMPARK TVM BAYİLİĞİ,null,01749,40.707414,29.847444,GÖLCÜK ÇİFTLİK AVM,5,YAHYAKAPTAN MAH ELZEM SOK 68/5 İZMİT/KOCAELİ
0040001027,ULAŞIMPARK TVM BAYİLİĞİ,null,01709,40.76179,29.896861,KONGRE MERKEZİ TRAMVAY AVM,5,YAHYAKAPTAN MAH ELZEM SOK 68/5 İZMİT/KOCAELİ
0040001027,ULAŞIMPARK TVM BAYİLİĞİ,null,01691,40.906573,29.208228,KARTAL-2 TVM,5,YAHYAKAPTAN MAH ELZEM SOK 68/5 İZMİT/KOCAELİ
0040001027,ULAŞIMPARK TVM BAYİLİĞİ,null,01627,40.775436,29.971725,KIRSAL TERMİNAL - TVM,5,YAHYAKAPTAN MAH ELZEM SOK 68/5 İZMİT/KOCAELİ
0040001027,ULAŞIMPARK TVM BAYİLİĞİ,null,01778,40.77237,29.57499,TAVŞANCIL MERKEZ AVM,5,YAHYAKAPTAN MAH ELZEM SOK 68/5 İZMİT/KOCAELİ
0040001027,ULAŞIMPARK TVM BAYİLİĞİ,null,01772,41.069583,30.152572,KANDIRA MERKEZ AVM,5,YAHYAKAPTAN MAH ELZEM SOK 68/5 İZMİT/KOCAELİ
0040001027,ULAŞIMPARK TVM BAYİLİĞİ,null,01762,40.782303,29.630843,HEREKE KIŞLADÜZÜ MUHTARLIK ÖNÜ AVM,5,YAHYAKAPTAN MAH ELZEM SOK 68/5 İZMİT/KOCAELİ
0040001027,ULAŞIMPARK TVM BAYİLİĞİ,null,01761,40.718029,29.793707,DEĞİRMENDERE KAVŞAĞI AVM,5,YAHYAKAPTAN MAH ELZEM SOK 68/5 İZMİT/KOCAELİ
0040001027,ULAŞIMPARK TVM BAYİLİĞİ,null,01726,40.7684188,29.939693,SANTRAL AVM,5,YAHYAKAPTAN MAH ELZEM SOK 68/5 İZMİT/KOCAELİ
0040001027,ULAŞIMPARK TVM BAYİLİĞİ,null,01700,40.791718,29.490217,MUALLİMKÖY YURTKUR AVM,5,YAHYAKAPTAN MAH ELZEM SOK 68/5 İZMİT/KOCAELİ
0040001027,ULAŞIMPARK TVM BAYİLİĞİ,null,01698,40.775961,29.38873,NENEHATUN MUHTARLIK AVM,5,YAHYAKAPTAN MAH ELZEM SOK 68/5 İZMİT/KOCAELİ
0040001027,ULAŞIMPARK TVM BAYİLİĞİ,null,01694,40.826753,29.418631,MUTLU KENT AVM,5,YAHYAKAPTAN MAH ELZEM SOK 68/5 İZMİT/KOCAELİ
0040001027,ULAŞIMPARK TVM BAYİLİĞİ,null,01693,40.78558,29.541229,DİLOVASI BELEDİYE AVM,5,YAHYAKAPTAN MAH ELZEM SOK 68/5 İZMİT/KOCAELİ
0040001027,ULAŞIMPARK TVM BAYİLİĞİ,null,01563,40.783857,29.960787,ŞEHİR HASTANESİ TVM,5,YAHYAKAPTAN MAH ELZEM SOK 68/5 İZMİT/KOCAELİ
0040001027,ULAŞIMPARK TVM BAYİLİĞİ,null,01797,40.768337,29.939476,-,5,YAHYAKAPTAN MAH ELZEM SOK 68/5 İZMİT/KOCAELİ
0040001027,ULAŞIMPARK TVM BAYİLİĞİ,null,01769,40.770602,29.751802,KÖRFEZ MİMAR SİNAN CADDESİ AVM,5,YAHYAKAPTAN MAH ELZEM SOK 68/5 İZMİT/KOCAELİ
0040001027,ULAŞIMPARK TVM BAYİLİĞİ,null,01759,40.719942,29.82115,GÖLCÜK ANITPARK AVM,5,YAHYAKAPTAN MAH ELZEM SOK 68/5 İZMİT/KOCAELİ
0040001027,ULAŞIMPARK TVM BAYİLİĞİ,null,01730,40.705192,30.026666,ARSLANBEY YERLEŞKESİ AVM,5,YAHYAKAPTAN MAH ELZEM SOK 68/5 İZMİT/KOCAELİ
0040001027,ULAŞIMPARK TVM BAYİLİĞİ,null,01708,40.760555,29.906298,SEKA DEVLET HASTANESİ AVM,5,YAHYAKAPTAN MAH ELZEM SOK 68/5 İZMİT/KOCAELİ
0040001027,ULAŞIMPARK TVM BAYİLİĞİ,null,01796,40.789487,29.945758,DÜNYA BANKASI MUHTARLIK AVM,5,YAHYAKAPTAN MAH ELZEM SOK 68/5 İZMİT/KOCAELİ
0040001027,ULAŞIMPARK TVM BAYİLİĞİ,null,01795,40.848074,29.424714,GEBZE GOSB AVM,5,YAHYAKAPTAN MAH ELZEM SOK 68/5 İZMİT/KOCAELİ
0040001027,ULAŞIMPARK TVM BAYİLİĞİ,null,01789,40.775232,29.782546,KÖRFEZ DEVLET HASTANESİ AVM,5,YAHYAKAPTAN MAH ELZEM SOK 68/5 İZMİT/KOCAELİ
0040001027,ULAŞIMPARK TVM BAYİLİĞİ,null,01773,40.776289,29.733908,KÖRFEZ KAMPÜS AVM,5,YAHYAKAPTAN MAH ELZEM SOK 68/5 İZMİT/KOCAELİ
0040001027,ULAŞIMPARK TVM BAYİLİĞİ,null,01748,40.688125,29.966631,YUKARI YUVACIK AVM,5,YAHYAKAPTAN MAH ELZEM SOK 68/5 İZMİT/KOCAELİ
0040001027,ULAŞIMPARK TVM BAYİLİĞİ,null,01733,40.741455,30.043967,KÖSEKÖY BAHÇELİEVLER AVM,5,YAHYAKAPTAN MAH ELZEM SOK 68/5 İZMİT/KOCAELİ
0040001027,ULAŞIMPARK TVM BAYİLİĞİ,null,01717,40.76203,29.92497,HALKEVİ-1 AVM,5,YAHYAKAPTAN MAH ELZEM SOK 68/5 İZMİT/KOCAELİ
0040001027,ULAŞIMPARK TVM BAYİLİĞİ,null,01653,40.722393,29.833481,GÖLCÜK İSKELE TVM,5,YAHYAKAPTAN MAH ELZEM SOK 68/5 İZMİT/KOCAELİ
0040001027,ULAŞIMPARK TVM BAYİLİĞİ,null,01771,40.745755,29.789472,TÜTÜNÇİFTLİK SAHİL AVM,5,YAHYAKAPTAN MAH ELZEM SOK 68/5 İZMİT/KOCAELİ
0040001027,ULAŞIMPARK TVM BAYİLİĞİ,null,01764,40.801722,29.645694,YUKARI HEREKE AVM,5,YAHYAKAPTAN MAH ELZEM SOK 68/5 İZMİT/KOCAELİ
0040001027,ULAŞIMPARK TVM BAYİLİĞİ,null,01731,40.695148,29.939818,DÖNGEL MUHTARLIK AVM,5,YAHYAKAPTAN MAH ELZEM SOK 68/5 İZMİT/KOCAELİ
0040001027,ULAŞIMPARK TVM BAYİLİĞİ,null,01720,40.705288,29.930576,BAŞİSKELE AVM,5,YAHYAKAPTAN MAH ELZEM SOK 68/5 İZMİT/KOCAELİ
0040001027,ULAŞIMPARK TVM BAYİLİĞİ,null,01696,40.812506,29.368812,ÇAYIROVA KÖPRÜSÜ AVM,5,YAHYAKAPTAN MAH ELZEM SOK 68/5 İZMİT/KOCAELİ
0040001027,ULAŞIMPARK TVM BAYİLİĞİ,null,01562,40.811091,29.347054,GEBZE ÇAYIROVA METRO HATTI 1 TVM,5,YAHYAKAPTAN MAH ELZEM SOK 68/5 İZMİT/KOCAELİ
0040001027,ULAŞIMPARK TVM BAYİLİĞİ,null,01525,40.762199,29.892433,EĞİTİM KAMPÜSÜ TRAMVAY AVM,5,YAHYAKAPTAN MAH ELZEM SOK 68/5 İZMİT/KOCAELİ
0040001027,ULAŞIMPARK TVM BAYİLİĞİ,null,01346,40.762325,29.936268,FUAR TRAMVAY TVM,5,YAHYAKAPTAN MAH ELZEM SOK 68/5 İZMİT/KOCAELİ
0040001027,ULAŞIMPARK TVM BAYİLİĞİ,null,01348,40.762139,29.926069,HALKEVİ TRAMVAY TVM,5,YAHYAKAPTAN MAH ELZEM SOK 68/5 İZMİT/KOCAELİ
0040001027,ULAŞIMPARK TVM BAYİLİĞİ,null,01349,40.764099,29.876799,KURUÇEŞME TRAMVAY TVM,5,YAHYAKAPTAN MAH ELZEM SOK 68/5 İZMİT/KOCAELİ
0040001027,ULAŞIMPARK TVM BAYİLİĞİ,null,01523,40.759739,29.386569,DARICA KENTÖNÜ TVM,5,YAHYAKAPTAN MAH ELZEM SOK 68/5 İZMİT/KOCAELİ
0040001027,ULAŞIMPARK TVM BAYİLİĞİ,null,01312,40.766683,29.951109,DOĞUKIŞLA TRAMVAY TVM,5,YAHYAKAPTAN MAH ELZEM SOK 68/5 İZMİT/KOCAELİ
0040001027,ULAŞIMPARK TVM BAYİLİĞİ,null,01524,40.90857,29.314646,SABİHA GÖKÇEN HAVAALANI TVM,5,YAHYAKAPTAN MAH ELZEM SOK 68/5 İZMİT/KOCAELİ
0040001027,ULAŞIMPARK TVM BAYİLİĞİ,null,01341,40.767693,29.966605,YENİŞEHİR TRAMVAY TVM,5,YAHYAKAPTAN MAH ELZEM SOK 68/5 İZMİT/KOCAELİ
0040001027,ULAŞIMPARK TVM BAYİLİĞİ,null,01339,40.77566,29.975603,TRAMVAY OTOGAR TVM,5,YAHYAKAPTAN MAH ELZEM SOK 68/5 İZMİT/KOCAELİ
0040001027,ULAŞIMPARK TVM BAYİLİĞİ,null,01347,40.762218,29.931799,YENİ CUMA TRAMVAY TVM,5,YAHYAKAPTAN MAH ELZEM SOK 68/5 İZMİT/KOCAELİ
0040001027,ULAŞIMPARK TVM BAYİLİĞİ,null,01340,40.767396,29.974334,YAHYAKAPTAN TRAMVAY TVM,5,YAHYAKAPTAN MAH ELZEM SOK 68/5 İZMİT/KOCAELİ
0040001027,ULAŞIMPARK TVM BAYİLİĞİ,null,01311,40.694144,29.614932,KARAMÜRSEL İSKELE TVM,5,YAHYAKAPTAN MAH ELZEM SOK 68/5 İZMİT/KOCAELİ
0040001027,ULAŞIMPARK TVM BAYİLİĞİ,null,01255,40.82412,29.920885,UMUTEPE PERON TVM,5,YAHYAKAPTAN MAH ELZEM SOK 68/5 İZMİT/KOCAELİ
0040001027,ULAŞIMPARK TVM BAYİLİĞİ,null,01248,40.691271,29.617281,KARAMÜRSEL TERMİNAL - TVM,5,YAHYAKAPTAN MAH ELZEM SOK 68/5 İZMİT/KOCAELİ
0040001027,ULAŞIMPARK TVM BAYİLİĞİ,null,01246,40.722077,29.784336,DEĞİRMENDERE İSKELE TVM,5,YAHYAKAPTAN MAH ELZEM SOK 68/5 İZMİT/KOCAELİ
0040001027,ULAŞIMPARK TVM BAYİLİĞİ,null,01245,40.764171,29.91352,ORDUEVİ-TVM,5,YAHYAKAPTAN MAH ELZEM SOK 68/5 İZMİT/KOCAELİ
0040001027,ULAŞIMPARK TVM BAYİLİĞİ,null,01251,41.068316,30.147539,KANDIRA-OTOGAR-TVM,5,YAHYAKAPTAN MAH ELZEM SOK 68/5 İZMİT/KOCAELİ
0040001027,ULAŞIMPARK TVM BAYİLİĞİ,null,01253,40.760599,29.387349,DARICA BELEDİYE TVM,5,YAHYAKAPTAN MAH ELZEM SOK 68/5 İZMİT/KOCAELİ
0040001027,ULAŞIMPARK TVM BAYİLİĞİ,null,01250,40.799791,29.430615,GEBZE ÇOBAN MUSTAFA PAŞA CAMİ-TVM,5,YAHYAKAPTAN MAH ELZEM SOK 68/5 İZMİT/KOCAELİ
0040001027,ULAŞIMPARK TVM BAYİLİĞİ,null,01249,40.762195,29.918037,TREN GARI TRAMVAY TVM,5,YAHYAKAPTAN MAH ELZEM SOK 68/5 İZMİT/KOCAELİ
0040001027,ULAŞIMPARK TVM BAYİLİĞİ,null,01247,40.765361,29.941089,MİLLİ İRADE TRAMVAY TVM,5,YAHYAKAPTAN MAH ELZEM SOK 68/5 İZMİT/KOCAELİ
0040001027,ULAŞIMPARK TVM BAYİLİĞİ,null,01220,40.757294,29.830856,DERİNCE-AVM,5,YAHYAKAPTAN MAH ELZEM SOK 68/5 İZMİT/KOCAELİ
0040001027,ULAŞIMPARK TVM BAYİLİĞİ,null,01155,40.796176,29.442412,GEBZE CENTER-TVM,5,YAHYAKAPTAN MAH ELZEM SOK 68/5 İZMİT/KOCAELİ
0040001027,ULAŞIMPARK TVM BAYİLİĞİ,null,01145,40.823359,29.925402,UMUTTEPE B KAPISI - AVM,5,YAHYAKAPTAN MAH ELZEM SOK 68/5 İZMİT/KOCAELİ
0040001027,ULAŞIMPARK TVM BAYİLİĞİ,null,01140,40.817815,29.511233,TAVŞANLI MERKEZ AVM,5,YAHYAKAPTAN MAH ELZEM SOK 68/5 İZMİT/KOCAELİ
0040001027,ULAŞIMPARK TVM BAYİLİĞİ,null,01139,40.772647,29.407703,DARICA FARABİ AVM,5,YAHYAKAPTAN MAH ELZEM SOK 68/5 İZMİT/KOCAELİ
0040001027,ULAŞIMPARK TVM BAYİLİĞİ,null,01183,40.76604,29.928476,CUMHURİYET PARKI-AVM,5,YAHYAKAPTAN MAH ELZEM SOK 68/5 İZMİT/KOCAELİ
0040001027,ULAŞIMPARK TVM BAYİLİĞİ,null,01166,40.681636,29.898611,KİRAZLIKENT YENİKÖY AVM,5,YAHYAKAPTAN MAH ELZEM SOK 68/5 İZMİT/KOCAELİ
0040001027,ULAŞIMPARK TVM BAYİLİĞİ,null,01148,40.82428,29.920934,UMUTTEPE PERON AVM,5,YAHYAKAPTAN MAH ELZEM SOK 68/5 İZMİT/KOCAELİ
0040001027,ULAŞIMPARK TVM BAYİLİĞİ,null,01195,40.810035,29.366553,GEBZE TEKNİK ÜNİVERSİTESİ-AVM,5,YAHYAKAPTAN MAH ELZEM SOK 68/5 İZMİT/KOCAELİ
0040001027,ULAŞIMPARK TVM BAYİLİĞİ,null,01137,40.761705,29.924989,01137 - HALKEVİ 3 - TVM,5,YAHYAKAPTAN MAH ELZEM SOK 68/5 İZMİT/KOCAELİ
0040001027,ULAŞIMPARK TVM BAYİLİĞİ,null,01188,40.824177,29.920826,UMUTTEPE PERON AVM,5,YAHYAKAPTAN MAH ELZEM SOK 68/5 İZMİT/KOCAELİ
0040001027,ULAŞIMPARK TVM BAYİLİĞİ,null,01138,40.7678,29.96264,MEHMET ALİ PAŞA TRAMVAY TVM,5,YAHYAKAPTAN MAH ELZEM SOK 68/5 İZMİT/KOCAELİ
0040001032,ŞERİF YETİM,null,01146,40.825113,29.371156,MEYDAN KURUYEMİŞ,0,YENİ MAH. 5122. SK. 2 B ÇAYIROVA/ KOCAELİ 
0040001071,ZAFER AYDIN,null,01190,40.771628,29.810287,EFE BÜFE,0,YENİKENT MAH. GAZİ MUSTAFA KEMAL CAD. 15 Z 15 
0040001074,FERDA ATABAY,null,01193,40.692745,30.052528,ATABAY MARKET,0,ÇEPNİ MAH. MESUDİYE CAD. 106 B 
0040001076,İZZET YILMAZ,null,01196,40.7764,29.966107,İZ BÜFE   AK BÜFE ,0,TAVŞANTEPE MAH. TURAN GÜNEŞ CAD. 495/1B 
0040001083,AYŞE DURMUŞ,null,01203,40.765487,29.876996,KÖŞEM MARKET,0,DOĞAN MAH. SEMT LOZAN CAD. 36 
0040001168,SİNAN YALÇIN,null,01302,40.757603,29.835857,YALÇIN MARKET,0,ÇENEDAĞ MAH ESENTEPE CAD 19 A 
0040001187,MEHMET NOGAY,null,01326,40.772254,29.950409,NOGAY KURUYEMİŞ,0,28 HAZİRAN MAH T.GÜNEŞ CAD 269 F 
0040001196,İSA HOROZ,null,01336,40.766022,29.928172,HOROZ PARK KURUYEMİŞ,0,VELİ AHMET MAH H.KASIM SOK 60 A 
0040001221,KATİPOĞULLARI ISI CİHAZLARI ÜRETİM PAZ. SAN.TİC.LTD.ŞTİ.,null,01367,40.80003,29.430674,KATİBİM BÜFE ,0,M.PAŞA MAH Y.BAĞDAT CAD 565 B 
0040001239,MUSTAFA KARAKOÇ,null,01387,40.710007,29.830803,ALFA BİLİŞİM,0,ŞEHİTLER MAH BARBAROS HAYRETTİN CAD 74 B B 
0040001114,EMİNE ŞENGÜL,null,01238,40.703645,30.023794,ATA KIRTASİYE,0,ATAŞEHİR MAH. ŞEHİT VOLKAN SABAZ SOK. 10 C 
0040001120,BETÜL KURHAN,null,01244,40.771626,29.81058,ÇITIR KURUYEMİŞ,0,YENİKENT MAH. G.MUSTAFA KEMAL CAD. ESKİ İŞ MERKEZ 22 
0040001134,ÜMİT ŞENSOY,null,01268,40.779296,29.406009,ŞENSOY BÜFE,0,FEVZİ ÇAKMAK MAH. İSTASYON CAD. NO:505/C 
0040001144,MUSTAFA GÜNDOĞDU,null,01278,40.773538,29.962409,GÜNDOĞDU MARKET,0,YENİŞEHİR MAH. AHMET ZİYA SOK. 67 A 
0040001167,SELMA YILDIZ,null,01301,40.691928,30.040405,YILDIZ TİCARET,0,ŞEVKATİYE MAH ANAYURT CAD 11 B 
0040001183,SADIK BEKİL,null,01328,40.702372,30.101009,TARMAR MARKET,0,DERBENT MAH AHMET LÜTFÜ ARAT BLV 23 B 
0040001183,SADIK BEKİL,null,01322,40.69571,30.091619,TARMAR MARKET,0,DERBENT MAH AHMET LÜTFÜ ARAT BLV 23 B 
0040001229,EMEL BAYRAM,İZMİT,01376,40.777907,29.702221,ATMACA MARKET,0,KİRAZLIYALI MAH GAZİ MUSTAFA KEMAL CAD 99 A 
0040001230,HASAN ALİ KÖSALI,null,01377,40.777216,29.404737,SEZER TİCARET,0,K.KARABEKİR MAH ISTASYON CAD 473B 
0040001243,GÜLCAN GÖKÇEN,null,01391,40.702765,29.858861,TAÇMAR MARKET,0,KARAKÖPRÜ MAH ORHANGAZİ CAD 54 A 
0040001248,EMİNE KILIÇ,null,01396,40.778788,29.388322,BERA BİLİŞİM,0,KAZIMKARABEKİR MAH BATTAL GAZİ CAD 64 
0040001258,ZEYNEP AKABİLGİN,null,01415,40.762535,29.81333,ÇINAR BÜFE,0,İBNİSİNA MAH LOJMAN SOK NO:14A 
0040001264,GÖKHAN BAĞCI,null,01420,40.771967,29.948975,BAĞCI MARKET,0,ERENLER MAH ESKİ İSTANBUL CAD 13 D 
0040001266,GÜLCAN KÖSEM,null,01422,40.766089,29.874434,BEREKET MİNİ MARKET,0,KOCATEPE MAH İSMAİL ÖZEN CAD 23/1 
0040001276,ÖMER APAYDIN,null,01432,40.770414,29.957955,ÖMER APAYDIN,0,YENİ MAH LOZAN CAD 25/38 
0040001278,MUSTAFA BALYEMEZ,null,01434,40.762328,29.930344,ELİT BÜFE,0,ÖMERAĞA MAH TAHSİN MARMARA SOK RIZABEY APT P D 
0040001280,ZÜLEYHA YILMAZTÜRK,null,01436,40.705556,29.844286,ENES MARKET,0,ÇİFTLİK MAH. BARIŞ CAD. 56 D 
0040001115,MUSTAFA DOĞAN,null,01239,40.760849,29.951369,BUĞRAM BÜFE,0,KÖRFEZ MAH.ALİ DİKMEN SOK.NO:8/A 
0040001126,AYŞE MENGÜNOĞUL,null,01259,40.759582,29.836543,YAĞMUR MARKET,0,ÇENEDAĞ MAH. ESENTEPE CAD. 28 A 
0040001139,MEHMET KAYA,null,01273,40.777756,29.70507,KAYA MARKET,0,KİRAZLIYALI MAH. GAZİ MUSTAFA KEMAL CAD. NO:2 
0040001141,EMBİYE KURTULDU,null,01275,40.813626,29.438018,BEYMAR MARKET,0,İNÖNÜ MAH. HAMDİ PEKÇALIŞKAN CAD. 64 
0040001209,MURAT GÜROL,null,01402,40.819572,29.370721,GÜROL İLETİŞİM,0,YENİ MAH FATİH CAD 29 B 
0040001222,GÜLPERİ YÜCESOY,null,01369,40.762901,29.821765,YAĞMUR MARKET,0,SIRRIPAŞA MAH ÖĞRETMENLER CAD 49 
0040001240,AYSUN SIRMA ,null,01388,40.762558,29.805741,GÖZDE MARKET,0,İBNİ SİNA MAH PİRİ REİS C 131 
0040001295,NURULLAH MURAT,null,02039,40.790807,29.871293,AHİ MARKETLER ZİNCİRİ,0,GÜLTEPE MAH MİRALAY MUMTAZ CAD. 6 A 
0040001295,NURULLAH MURAT,null,01451,40.766493,29.909985,AHİ MARKETLER ZİNCİRİ,0,GÜLTEPE MAH MİRALAY MUMTAZ CAD. 6 A 
0040001133,AKYILDIZLAR GIDA İHTİYAÇ ÜR VE MOB.PAZ.S,null,01267,40.761493,29.786703,AKYILDIZLAR GIDA İHTİYAÇ ÜR VE MOB.PAZ.S,0,KUZEY MAH. CAHİT ZARİFOĞLU CAD. 3  
0040001152,ALİ UZUN,null,01286,40.760333,29.814863,KARADENİZ BÜFE,0,SIRRIPAŞA MAH. ÇAVDAR CAD. 30 /1B 
0040001210,MEHMET KANCA,İZMİT,01404,40.763188,29.93151,KANCA BÜFE,0,KARABAŞ MAH MİMAR SİNAN SOK MİMAR SİNAN APT 11 B 
0040001225,ERMAN ISSILAR,null,01372,40.781105,29.986329,KADİROĞULLARI MARKET,0,FEVZİ ÇAKMAK MAH KARANFİL SK 12/1 
0040001231,YAYLA ÖZTÜRK,null,01378,40.783062,29.92034,ÖZTÜRK MARKET,0,TÜYSÜZLER MAH FATİH CAD 34 A 
0040001263,EMİN SİNER,null,01419,40.832443,29.379578,HEDEF BÜFE,0,ÖZGÜRLÜK MAH. ADNAN KAHVECİ CAD. 84 B 
0040001267,NURAY DURSUN,null,01423,40.754333,29.81342,CEYDA KIRTASİYE,0,YAVUZ SULTAN MAH BİLGE SOK. SIRMA APT. NO:4/B 
0040001275,MEHMET GÜNER,null,01431,40.800494,29.964108,GÜNER BÜFE,0,TEPEKÖY MAH.BAYINDIRLIK KALICI KONUTLARI NO:5 
0040001098,HASAN KARAHAN,null,01221,40.813697,29.395382,KARAHAN GIDA,0,YAVUZ SELİM MAH. SELİMPAŞA CAD. 409 SOK. 2 
0040001135,RAİF MEHMETOĞLU,null,01269,40.767925,29.94672,PRİN BÜFE,0,KADIKÖY MAH. BAĞDAT CAD. 125 
0040001163,EMİNE ERÖZ,null,01297,40.823049,29.926835,ERDAL BAKKAL,0,KABAOĞLU MAH PROF BAKİ KOMSUOĞLU BLV ÖZEL ATA KIZ ÖĞRENCİ YURDU 501 A 
0040001169,MEHMET OLCAY,null,01303,40.753236,29.819562,OLCAY MARKET,0,DUMLUPINAR MAH URAL SOK 44 A 
0040001177,ELİF ÜLKER,null,01314,40.809483,29.454219,MARKETİM GIDA,0,SULTAN ORHAN MAH YENİ BAĞDAT CAD 534 B 
0040001220,ZİVER ATAK,null,01366,40.7622533,29.7804879,ATAK GİROS MARKET,0,BARBAROS MAH ATATÜRK BLV 111 A 
0040000018,ÖMER ÖZER - ÖZER BÜFE,İZMİT,00018,40.763516,29.927624,ÖZER BÜFE,0,ÖMERAĞA MAH. İSTİKLAL GEÇİDİ NO:1 İZMİT
0040000010,MEHMET CEVHER - CAN PİŞMANİYE,İZMİT,00651,40.761802,29.923903,CAN PİŞMANİYE,0,HALKEVİ BELEDİYE DÜKKANLARI NO:2 İZMİT/HALKEVİ
0040000010,MEHMET CEVHER - CAN PİŞMANİYE,İZMİT,00010,40.761766,29.924157,CAN PİŞMANİYE,0,HALKEVİ BELEDİYE DÜKKANLARI NO:2 İZMİT/HALKEVİ
0040000029,AKİF KOMUT - KOMUTOĞLULLARI GIDA LTD. ŞTİ.,İZMİT,00029,40.746629,29.948718,KOMUTOĞULLARI GIDA LTD. ŞTİ.,0,KÖRFEZ SAN. SİTESİ. 407 BLK 3 NL BÜFE İZMİT
0040000032,HASAN SARIKAYA - SARIKAYA KURUYEMİŞ BÜFE,İZMİT,00099,40.766113,29.934624,SARIKAYA KURUYEMİŞ,0,KARABAŞ MAH. AKÇA CAMİİ CAD. NO:125/A                     İZMİT
0040000045,YASİN KILIÇ - KILIÇ BİLGİSAYAR,DİLOVASI,00045,40.788333,29.532785,KILIÇ BİLGİSAYAR,0,MİMAR SİNAN MAH. BAĞDAT CAD. DİLOVASI/KOCAELİ
0040000054,CİHAN BARAN - BARAN MARKET,İZMİT,00064,40.776382,29.944684,BARAN MARKET,0,AKÇAKOCA EVLERİ KARŞISI NO:5 İZMİT İZMİT
0040000359,MEHMET ATAMIŞ,null,00411,40.766044,29.83358,DOĞU MARKET,0,ÇENEDAĞ MAH. TURGAY SK. NO:4 
0040000362,MUSTAFA DİRİCAN,null,00414,40.822811,29.928149,MISTIK BÜFE,0,PRF.DR.BAKİ KOMŞUOĞLU BULV. RMA İŞ MRKZ. NO:495
0040000363,HAFİZE KILIÇ,null,00415,40.723563,29.98969,GÖZDE KIRTASİYE VE İLETİŞİM,0,MEHMET AĞA MAH. KARAMÜRSEL CAD.  NO:133 BAŞİSKELE
0040000364,PİRALİ GÜL,null,00416,40.717068,30.116834,GÜLMAR,0,F.SULTAN MEHMET MAH. CENGİZ TOPEL CAD. NO:32/C KARTEPE
0040000369,YEŞİL KAPLAN,null,00421,40.765353,29.912418,2002 KÖRFEZ MARKET,0,KOZLUK MAH. İ.KOLAYLI C. SAADET A NO:1 
0040000368,NURDOĞAN ÖZDEMİR(ESKİ ÜNVANI ÖZGÜVEN GIDA),null,00460,40.6997,30.096972,BEKİROĞLU ŞAK.GIDA TUR.İNŞ.TAH.SAN.TİC.LTD.ŞTİ.,0,DERBENT MAH. BAŞAKLI SOK 23 A KARTEPE - KOCAELİ
0040000368,NURDOĞAN ÖZDEMİR(ESKİ ÜNVANI ÖZGÜVEN GIDA),null,00420,40.695633,30.0912,BEKİROĞLU ŞAK.GIDA TUR.İNŞ.TAH.SAN.TİC.LTD.ŞTİ.,0,DERBENT MAH. BAŞAKLI SOK 23 A KARTEPE - KOCAELİ
0040000367,MEHMET YILMAZ,null,00419,40.705666,30.137688,MOLLAALİOĞLU MARKET,0,ÇINARLI MAH. ÇINARLI CAD. NO:2  MAŞUKİYE-KARTEPE
0040000377,ADEM BİLGİÇ,null,02114,40.75919,29.943218,ORUÇLAR AVM,0,ESENTEPE MAH. ÇENEDAĞ CAD. NO:76 
0040000377,ADEM BİLGİÇ,null,00431,40.766253,29.794435,ORUÇLAR AVM,0,ESENTEPE MAH. ÇENEDAĞ CAD. NO:76 
0040000385,SUBAŞIOĞLU KARDEŞLER,null,00439,40.692424,30.054899,SUBAŞIOĞLU KARDEŞLER,0,SUADİYE ORTA MAH. CUMHURİYET CAD.  NO:144 KARTEPE
0040000386,ADEM BAYRAKTAR,null,00440,40.700042,30.137538,MERKEZ GIDA,0,MAŞUKİYE ÇINARLI MAH. CAMİ SK. NO:1 KARTEPE
0040000356,FATMA ALTAY,null,00408,40.76448,29.928814,ALTAYLAR BÜFE,0,ÖMERAĞA MAH. BELSA PLAZA ZEMİN KAT NO:25
0040000396,RAHMETULLAH ERDOĞAN,null,00450,40.728618,30.010798,YEŞİLKENT PAZARI MARKETİ,0,RAHMİYE MAH. ÜZÜM SK. NO:73 KARTEPE
0040000400,OĞUZ KALENDER,null,00852,40.777261,29.980854,İNDİRİM MARKET,0,DENİZ MAH. İSTASYON CAD. ZEMİNKAT NO:29/A DERİNCE/KOCAELİ
0040000403,VİLDAN YAŞAR,null,00457,40.698813,30.130296,YAŞAR MARKET,0,ÇINARLI MAH. KARTEPE CAD. NO:1 KARTEPE
0040000404,KENTKART KOCAELİ,null,00458,40.765946,29.927478,KENTKART TVM DOLUM BAYİLİĞİ -  YÜKLEMATİK,5,KOCAELİ 
0040000408,SELDA BAYTAK,null,01913,40.755459,29.82837,KIZLAR MARKET,0,DENİZCİLER CAD. NO. 210 DERİNCE/KOCAELİ
0040000408,SELDA BAYTAK,null,00464,40.75693,29.817229,KIZLAR MARKET,0,DENİZCİLER CAD. NO. 210 DERİNCE/KOCAELİ
0040000409,AYDIN YETKİNCAN,null,00465,40.691468,29.616331,DUYGU BÜFE,0,CUMHURİYET CAD. ÖZÇINAR PSJ. NO. 4 KARAMÜRSEL
0040000411,ABDULLAH ALPSAN,null,01496,40.69145,29.616436,KARAMÜRSEL GIDA,0,CAMİATİK CUM.CAD. BELEDİYE DÜ. KARAMÜRSEL/KOCAELİ
0040000411,ABDULLAH ALPSAN,null,00467,40.691741,29.618327,KARAMÜRSEL GIDA,0,CAMİATİK CUM.CAD. BELEDİYE DÜ. KARAMÜRSEL/KOCAELİ
0040000415,ALİ KARAYEL,null,00472,40.704767,29.886998,KARAYEL BİLGİSAYAR,0,YENİKÖY KAL KON. 325. ADA NO:14 BAŞİSKELE/KOCAELİ
0040000417,AHMET GÜNCÜ,null,00474,40.754842,29.794001,İHLAS BÜFE,0,FATİH MAH. İSTİKLAL CAD. NO:30 KÖRFEZ/KOCAELİ
0040000421,ENGİN ŞAHİN,null,00478,40.920284,30.077028,ŞAHİN MARKET,0,KOCAKAYMAS KÖYÜ ÇAL DURAĞI KANDIRA/KOCAELİ
0040000424,ARTI İHTİYAÇ MAD. VE AL. ME.GI. İPA.SAN TİC,null,00481,40.764529,29.846325,ARTI İHTİYAÇ MAD. VE AL. ME.GI. İPA.SAN TİC,0,ÇINARLI M. ÇENESUYU C. NO:81 DERİNCE/KOCAELİ
0040000428,ERTUĞ SEVİMLİ,null,00485,40.763939,29.932585,SEVİMLİ BÜFE,0,KARABAŞ MAH. CUMHURİYET CAD. NO:172/B İZMİT/KOCAELİ
0040000433,NECATİ CENK ANIL,null,00490,40.763241,29.852242,STAD BÜFE,0,ÇINARLI MAH. NİHAT ERİM CAD. NO:17/A DERİNCE/KOCAELİ
0040000441,HASAN BAYBURT,null,00499,40.717015,29.828333,BAYBURT KURUYEMİŞ,0,D.PINAR MAH. 19 MAYIS CAD. NO:106 GÖLCÜK/KOCAELİ
0040000441,HASAN BAYBURT,null,00498,40.717251,29.824878,BAYBURT KURUYEMİŞ,0,D.PINAR MAH. 19 MAYIS CAD. NO:106 GÖLCÜK/KOCAELİ
0040000447,İHSAN GÖNCE,null,00505,40.719292,29.820539,CADDE KURUYEMİŞ,0,MERKEZ MAH. AMİRAL SAĞLAM CAD. NO:18 GÖLCÜK/KOCAELİ
0040000448,HAKAN KILIÇ,null,00506,40.786554,29.536734,null,0,MİMARSİNAN MAH. BAĞDAT CAD. NO:55 DİLOVASI/KOCAELİ
0040000066,ERDİNÇ YILMAZ - YILMAZ SÜPERMARKET,GEBZE,00077,40.81758,29.369648,YILMAZ SÜPERMARKET,0,ÇAYIROVA MAH. FATİH CAD. NO:80  KOCAELİ--GEBZE
0040000105,SECAATTİN AYDIN - MERKEZ HİPERMARKET,GEBZE,00121,40.820375,29.419713,MERKEZ HİPERMARKET,0,YENİKENT MAH. DİCLE CAD. YEŞİLKENT SİT. M BLOK  NO:1 GEBZE
0040000136,HAYDAR KOÇ-KOÇ BÜFE,ÇAYIROVA,00154,40.827626,29.38126,KOÇ BÜFE,0,ÖZGÜRLÜK MAH. UĞUR MUMCU CAD. GÜZELTEPE NO:35 
0040000140,İBRAHİM HALİL KARDAŞ -,GEBZE,01658,40.830016,29.42038,KARDEŞLER GIDA,0,İNÖNÜ MAH. MUTLUKENT GÜNEŞ 2. BLK NO:15 GEBZE
0040000140,İBRAHİM HALİL KARDAŞ -,GEBZE,00252,40.82988,29.41924,KARDEŞLER GIDA,0,İNÖNÜ MAH. MUTLUKENT GÜNEŞ 2. BLK NO:15 GEBZE
0040000140,İBRAHİM HALİL KARDAŞ -,GEBZE,00161,40.829338,29.420325,KARDEŞLER GIDA,0,İNÖNÜ MAH. MUTLUKENT GÜNEŞ 2. BLK NO:15 GEBZE
0040000144,SAFYA DAŞDEMİR - GÜNER MARKET ,DARICA,00167,40.78741,29.373116,GÜNER MARKET,0,O. GAZİ MAH. A.OĞLU CAD. NO:84 GEBZE 
0040000155,ALİ KEMAL YILMAZ,YEŞİLOVA,01501,40.787338,29.97191,YILMAZ MARKET,0,YEŞİLOVA MAH. TURAN GÜNEŞ CAD. NO:446 İZMİT
0040000155,ALİ KEMAL YILMAZ,YEŞİLOVA,00179,40.787504,29.971614,YILMAZ MARKET,0,YEŞİLOVA MAH. TURAN GÜNEŞ CAD. NO:446 İZMİT
0040000150,VEYSEL AKINCI,İZMİT,00173,40.772475,29.951043,AKIN KURUYEMİŞ,0,TURAN GÜNEŞ CAD. 28 HAZ. MAH. ÜSTÜN SOK.   NO:1            BEKİRPAŞA-İZMİT
0040000107,SERDAR GÜMÜŞ - GÜMÜŞ KURUYEMİŞ,DERİNCE,00123,40.756267,29.831054,GÜMÜŞ KURUYEMİŞ,0,ÇENEDAĞ MAH. HAFIZ HASAN YILMAZ CAD. NO:58/A DERİNCE
0040000139,BİLAL KOÇAL- KOÇALLAR ELEKTRONİK ,DARICA,00157,40.776885,29.404469,KOÇALLAR ELEKTRONİK,0,FEVZİ ÇAKMAK MAH. İSTASYON CAD. NO: 460/A  DARICA
0040000142,YAŞAR VURDU - VURDU BÜFE,ÇAYIROVA,01368,40.817067,29.368334,VURDU BÜFE,0,FATİH CAD. NO:10 GEBZE  
0040000142,YAŞAR VURDU - VURDU BÜFE,ÇAYIROVA,00165,40.812653,29.368722,VURDU BÜFE,0,FATİH CAD. NO:10 GEBZE  
0040000167,ŞAKİR ÖZSOY,DÜN. BAN. KAL. KON,00191,40.788983,29.944401,STAR MARKET,0,MALTA MAH. DÜNYA BANKASI KALICI KONUTLARI 555.ADA B1 BLOK NO:7
0040000171,BEDRİYE ŞENER,GÜNDOĞDU,00198,40.793943,29.955357,FUNDA GIDA VE TUHAFİYE,0,GÜNDOĞDU MAH. ZÜBEYDE HANIM CAD. NO:228  İZMİT-KOCAELİ
0040000108,ORHAN AKBULAK - ATAMERT MARKET,DARICA,00124,40.784566,29.378657,ATAMERT MARKET,0,OSMAN GAZİ MAH. LOKMAN HEKİM CAD. NO:77 GEBZE
0040000165,ORHAN YAĞCI,KOCAELI,00290,40.765581,29.876642,GÖNÜL KURUYEMİŞ,0,TURAN GÜNEŞ CAD. DEVLET HASTANESİ  İZMİT- KOCAELİ
0040000173,KADİR BAYRAK,DERİNCE,00200,40.763115,29.83703,ÇAVUŞOĞLU SÜPERMARKET,0,ESENTEPE CAD. N0:84 DERİNCE İZMİT-KOCAELİ
0040000176,VEHBİ KONUR,KURUÇEŞME,00203,40.764018,29.888026,HANIMELİ BÖREKÇİSİ,0,YENİ MAH. INKILAP CAD. IŞIK APT. NO:2 İZMİT-KOCAELİ
0040000186,YAŞAR GÜNEŞ,ŞEKERPINAR,00214,40.861481,29.376259,GÖÇMAR GIDA,0,CUMHURİYET MAH. 172. ADA ZEMİN KAT NO:1 ŞEKERPINAR-GEBZE
0040000201,MAHİR ŞENGÜL,BEKİRPAŞA,00230,40.770714,29.947883,ŞENGÜL TİCARET,0,ERENLER MAH. TURAN GÜEŞ CAD. NO:235 BEKİRPAŞA-İZMİT
0040000203,NURCAN TOKATLI,YARIMCA,00232,40.775682,29.74598,ERKA KIRTASİYE,0,HACI OSMAN MAH. BAĞDAT CAD. NO:204  YARIMCA-KÖRFEZ
0040000207,GÖKHAN ŞEVİK,DARICA,00236,40.777512,29.412784,TUNA ELEKTRONİK,0,ABDİ İPEKÇİ MAH. REŞAT NURİ GÜNTEKİN CAD. NO:59 DARICA-KOCAELİ 
0040000228,HATİP YAZIR,null,00674,40.776404,29.737986,ENGİN GIDA ,0,ATALAR MAH. İSTASYON YANI NO:2 KÖRFEZ
0040000228,HATİP YAZIR,null,00259,40.773243,29.730568,ENGİN GIDA ,0,ATALAR MAH. İSTASYON YANI NO:2 KÖRFEZ
0040000266,YILMAZ AKIN,null,00316,40.758076,29.793084,OFLULAR MARKET,0,FATİH MAH. 4.SOKAK  NO:34 KÖRFEZ/KOCAELİ
0040000245,NURTEN KARABULUT,null,01418,40.742967,30.018775,KÖSEKÖY,0,BAHÇELİEVLER MAH. KUL SK.NO:2 KARTEPE/KOCAELİ
0040000245,NURTEN KARABULUT,null,01026,40.743582,30.046676,KÖSEKÖY,0,BAHÇELİEVLER MAH. KUL SK.NO:2 KARTEPE/KOCAELİ
0040000245,NURTEN KARABULUT,null,00289,40.742323,30.036584,KÖSEKÖY,0,BAHÇELİEVLER MAH. KUL SK.NO:2 KARTEPE/KOCAELİ
0040000251,KADRİYE YAZMAN ,null,00298,40.800614,29.43065,YAZMAN BÜFE,0,MUSTAFA PAŞA MAH. MİNİBÜS DURAKLARI NO:17 GEBZE/KOCAELİ
0040000279,RECEP ŞIK,null,00329,40.750534,29.788701,ESER GIDA PAZARI,0,KÖRFEZ GÜNEY MAH. TUĞRUL ACD. NO:137 KÖRFEZ/KOCAELİ
0040000305,ERAY KELEŞ,null,01091,40.764364,29.956291,SUARE MÜZİK EVİ,0,GÜLTEPE MAH.İSTANBUL CAD. MEHTAP APT. NO:66/1 İZMİT/KOCAELİ
0040000305,ERAY KELEŞ,null,00355,40.76632,29.908526,SUARE MÜZİK EVİ,0,GÜLTEPE MAH.İSTANBUL CAD. MEHTAP APT. NO:66/1 İZMİT/KOCAELİ
0040000312,MEHPARE BUDAK,null,01001,40.773385,29.801938,ÖZLEM BÜFE,0,YENİKENT MAH. SERPİL SK. NO:4 11.NOLU KOOP.KARŞISI Derince/KOCAELİ
0040000312,MEHPARE BUDAK,null,00363,40.773418,29.815459,ÖZLEM BÜFE,0,YENİKENT MAH. SERPİL SK. NO:4 11.NOLU KOOP.KARŞISI Derince/KOCAELİ
0040000316,DİLEK UYMAZ,null,00367,40.764914,29.857065,DİLEK BAKKALİYESİ,0,ŞİRİNTEP MAH. KOCAMIŞOĞLU SK. YENİ BİRLİK A BLOK APT.ALTI. NO:22/11 İzmit/KOCAELİ
0040000317,BÜLBÜLOĞULLARI YEMEK VE TOPTAN GIDA LTD. ŞTİ,null,00369,40.746791,29.951082,BÜLBÜLOĞULLARI,0,KÖRFEZ SAN.SİT. 418-406 BLOK ARASI 2NL.BÜFE İzmit/KOCAELİ
0040000264,ALİ HİKMET AKKAYA,null,00314,40.760575,29.953906,AKKAYA MARKET,0,KÖRFEZ MAH. Ş.BASRİ SK. NO:56 42 EVLER İZMİT/KOCAELİ
0040000219,ZEYNEL ERDOĞAN,YENİKENT,00249,40.771972,29.808779,MEHTAP BÜFE,0,YENİKENT MAH. TURGUT ÖZAL CAD. BAŞAK SOK. NO:8 
0040000268,YUSUF ALTUNTAŞ,null,00318,40.784641,29.373538,ALTUNTAŞ BAKKAL,0,OSMAN GAZİ MAH. AŞIROĞLU CAD. NO:56 DARICA/KOCAELİ
0040000256,HACER ÖZCAN,KÖSEKÖY,00308,40.742698,30.057388,BARAN BİLİŞİM,0,KÖSEKÖY ULUS MAH. CAMİ SK. NO:30 KARTEPE/KOCAELİ
0040000274,ADNAN KILIÇ,KOSEKOY,00324,40.75535,30.018464,KÖŞEM MARKET,0,DUMLUPINAR MAH. SAKIP SABANCI CAD. NO:119/A KARTEPE/KOCAELİ
0040000314,NİMET KUZU,null,00365,40.772548,29.95231,ÇITIR KURUYEMİŞ,0,M.ALİ PAŞA MAH. T.GÜNEŞ CAD. NO:242 İZMİT/KOCAELİ
0040000208,EMİN ÖZCAN,null,00237,40.764917,29.932743,ÖZ-EM PASTANELERİ,0,KARABAŞ MAH. İSTİKLAL CAD. NO:153 
0040000215,AHMET DEMİR,DERİNCE,00244,40.756756,29.809843,GEÇİT BÜFE,0,İBNİ SİNA MAH. D100 KARAYOLU ÜZERİ 60 EVLER ÜST GEÇİT YANI DERİNCE
0040000277,SÜLEYMAN YURTSEVER,null,00327,40.752269,30.022874,YURTSEVER İLETİŞİM,0,KÖSEKÖY İSTASYON MH. LEYLA ATAKAN CAD. NO:12/C KARTEPE/KOCAELİ
0040000270,FATİH KARADUMAN,null,00320,40.77007,29.753183,KARADUMAN KURUYEMİŞ,0,MİMAR SİNAN MAH. MEHMET AKİF ERSOY CAD. NO:122  Körfez
0040000157,CEMİL,KULLAR,00181,40.741737,29.957858,BİLMAR MARKET OKUL MALZEMELERİ,0,VEZİRÇİFTLÜĞÜ MAH. VEZİRÇİFTLİĞİ CAD. NO: 9 KULLAR İZMİT
0040000330,MUHAMMET ÇELİK,null,00382,40.76465,29.788561,MERVE KİTABEVİ,0,KUZEY MAH. AĞADERE CAD. NO:57 KÖRFEZ/KOCAELİ
0040000332,SATI TOKAT,null,00384,40.76404,29.918809,MURO MİNİ MARKET,0,KOZLUK MAH. İNÖNÜ CAD. NO:36/A İZMİT/KOCAELİ
0040000335,OSMAN NURİ ONSEKİZ,null,00387,40.773117,29.737728,DENİZ BİLGİSAYAR KIRTASİYE,0,ATALAR MAH. M.AKİF ERSOY CAD. FAZLIOĞLU PSJ.NO:42/C KÖRFEZ/KOCAELİ
0040000347,SEYFİ YILMAZ,null,00399,40.775985,29.968859,YILMAZ BÜFE,0,YENİŞEHİR MAH. SEYMEN CAD. NO:37 
0040000353,JEOPET PETROL ÜRÜNLERİ PAZARLAMA VE NAK. LTD ŞTİ,null,00405,40.766337,29.773198,TOTAL PETROL,0,BARBAROS MAH. BELDE GARAJI KARŞISI NO:8
0040000355,ŞAHBENDER ATAMIŞ,null,01536,40.771341,29.823061,ŞAHİN MARKET,0,F.SULTAN MAH. ÖĞRETMENLER CAD. NO:170/A DERİNCE
0040000355,ŞAHBENDER ATAMIŞ,null,00407,40.771358,29.82292,ŞAHİN MARKET,0,F.SULTAN MAH. ÖĞRETMENLER CAD. NO:170/A DERİNCE
0040001374,MEVLÜT ATAMAN,null,01539,40.774795,29.986948,ATAMAN GIDA,0,YUVAM AKARCA MAH.MUSTAFA KEMAL BULVARI NO:32/20
0040001382,ORHAN KARLI,null,01546,40.828604,29.394287,CANDOSTLAR MARKET,0,AKSE MAH. MUAMMER AKSOY CAD.  NO:205 CAYIROVA
0040001401,ULUSOY ALIŞVERİŞ GIDA TİC.LTD.ŞTİ.,DARICA,01567,40.770086,29.399437,MAVİ MARKET,0,FEVZİ ÇAKMAK MAH. DR. ZEKİ ACAR CAD. NO:19 DARICA-KOCAELİ
0040001416,ZESA PETROL TURİZM İNŞ. TİC. LTD. ŞTİ.,null,01582,40.887029,29.493556,ZESA PETROL TURİZM İNŞ. TİC. LTD. ŞTİ.,0,MOLLAFENARİ KÖYÜ İSTANBUL CAD. NO:1 GEBZE KOCAELİ
0040001456,KAMİL BALCI,null,01625,40.767131,29.786281,null,0,YENİ YALI MAH.KÖSTÜN SOK.NO:20 NO:A
0040001490,HASAN LAL,null,01663,40.813429,29.385168,ALUÇ MARKET,0,CUMHURİYET MAH.KÖROĞLU CAD.NO:89 GEBZE
0040001491,HASAN ARSLAN,GEBZE,01664,40.799948,29.396154,ARSLAN İLETİŞİM,0,HÜRRİYET MAH.YAŞAR DOĞU CAD.NO:43 GEBZE
0040001498,OSMAN ÇELİK,null,01672,40.80552,29.418631,MEDİNE GIDA,0,MEVLANA MAH.ERENLER CAD.NO:58
0040001499,HALİS KURT,null,01673,40.806754,29.385329,YUNUS BÜFE,0,MİMAR SİNAN MAH.PİRİ REİS CAD.NO:6
0040001512,SERKAN ÇİFTÇİ,DARICA,01686,40.800156,29.367937,MEN YAPI LTD ŞTİ,0,EMEK MAH. FSM. CAD. NO:46 DARICA
0040001516,GALİP KAYALI,null,01690,40.797707,29.401293,ÇARŞI MARKET,0,KÖŞKLÜ ÇEŞME MAH.TOPÇULAR CAD.NO:77
0040001527,FİLİZ BAŞAK,GEBZE,01711,40.794023,29.432917,ATAŞ BÜFE,0,TATLIKUYU MAH 1301 SOK NO:22 GEBZE
0040001531,ZEYNEP KEVSER ÇAKMAK,null,01718,40.70432,29.801165,AMİNİ UCUZLUK PAZARI,0,TOPÇULAR MAH. ÖRCÜN YOLU CAD.İŞ MERKEZİ F/2 BLOK NO:119 GÖLCÜK
0040001536,MUSTAFA SARIÇİÇEK,null,01728,40.718011,29.782567,SARIÇİÇEK MARKET,0,DEĞİRMENDERE YENİ YALI MAH.BAŞKOMUTAN CAD.26/A
0040001539,NAİPOĞLU AK.İNŞ.TAH.SAN.VE TİC.LTD.ŞTİ.,null,01735,40.788778,29.97733,NAİPOĞLU AK.İNŞ.TAH.SAN.VE TİC.LTD.ŞTİ.,0,YEŞİLOVA MAH.İZMİT KANDIRA YOLU CAD.NO:66
0040001541,YALÇIN BİLGİÇ,null,01737,40.766092,29.782779,CADDE 41 BÜFE,0,YENİ YALI MAH.BALI SOK.NO:39
0040001542,AYŞE YOLCU,null,01739,40.716876,29.816229,ARAS BÜFE,0,YENİ MAH.ATATÜRK BULVARI NO:58
0040001543,SELİM YEĞEN,DİLOVASI,01740,40.775821,29.526614,YEĞEN MARKET ,0,DİLİSKELESİ MAHALLESİ CUMHURUYET CAD. NO:59 DİLOVASI/KOCAELİ
0040001545,ŞENLİK KAYA,null,01742,40.778366,29.823117,TALHA MARKET,0,FATİH SULTAN MAH.GÜVEN SOK.NO:2
0040001546,SEVDA ÖZAYDIN,null,01743,40.794878,29.95339,ÖZAYDIN MARKET,0,GÜNDOĞDU MAH.KOCA ÇEŞME CAD.NO:81
0040001386,SELMA ÖZTÜRK,null,01550,40.765648,29.928334,PARK KURUYEMİŞ,0,ÖMERAĞA MAH.İNÖNÜ CAD.NO:176/1
0040001387,KADİR GÜLLÜ,null,01551,40.77487,29.943664,KEYFİM TEKEL SHOP,0,ERENLER MAH.DEVE BAĞIRTAN SOK.NO:49/A
0040001394,EKREM ÖZMEN,null,01558,40.75555,29.955547,ÖZMENLER MARKET,0,SANAYİ MAH.KÖPRÜ BAŞI CAD.NO:23/B
0040001448,ALİ ÇATALTEPE,null,01617,40.826607,29.383119,UMUT BÜFE,0,ÖZGÜRLÜK MAH.UĞUR MUMCU CAD.NO:63
0040001450,OĞUZ CEYHAN,null,01619,40.788065,29.390106,CEYHAN AVM,0,SIRASÖĞÜTLER MAH.AYDINLAR CAD.1669 SOK.NO:6
0040001469,BÜLENT KILIÇ,null,01640,40.818812,29.401883,GÜLER YÜZ MARKET,0,EMEK MAH.BOZAN CAD.NO:124
0040001474,MURAT AKBAŞ,null,01645,40.787091,29.406121,AKBAŞ SÜPER MARKET,0,İSTASYON MAH.1426 SOK.NO:38
0040001481,GÖRKEM KAYA,null,01652,40.738733,30.016004,BALAS TEKEL SHOP 6,0,FATİH SULTAN MEHMET MAH.DEMOKRASİ CAD.SAKİN SOK.NO:5/A
0040001510,EKOLİFE GIDA İNŞ.TURZ.NAK.SAN.TİC.LTD.ŞTİ.,null,01684,40.698964,29.944581,EKOLİFE GIDA İNŞ.TURZ.NAK.SAN.TİC.LTD.ŞTİ.,0,SERDAR MAH.PASİNLER CAD.İŞ MERKEZİ 18 1
0040001530,CAVAT ÇAMURLU,null,01716,40.759726,29.861791,-,0,ŞİRİNTEPE MAH ŞİRİN SOK DOSTLUK 7 A BLOK NO:22 İÇ İZMİT
0040001549,ANIL RIZA ÖCAL,null,01746,40.760975,29.850038,GEÇİT BÜFE,0,ÇENEDAĞ MAH.İSTİKLAL CAD.NO:190
0040001355,NAZİM YAHŞİ,null,01515,40.762574,29.82842,KARDEŞLER MARKET,0,SIRRI PAŞA MAH.ENGİN CAD.NO:69
0040001385,YUNUS ÇEKİÇ,null,01549,40.749768,29.991102,DAMLA SÜPER MARKET,0,KÖSEKÖY MAH.ÇUHANE CAD.NO:47/A
0040001390,FATİH ÜÇÜNCÜ,null,01554,40.788547,29.94833,ELİF MİNİ MARKET,0,MALTA MAH. MALTA CAD. NO:36 İZMİT KOCAELİ
0040001400,FAHRİ ÖZTÜRK,GEBZE,01566,40.815597,29.386412,MEYDAN MARKET,0,CUMHURİYET MAH. KUBİLAY CAD. NO:23/A GEBZE/KOCAELİ
0040001423,ZEYNEP ŞAL,null,01636,40.763292,29.934822,AÇIK BÜFE,0,KARABAŞ MAH.LEYLA ATAKAN CAD.NO:4/1
0040001432,VOLKAN CEYLAN,null,01598,40.794925,29.422359,CEYLAN BÜFE,0,OSMAN YILMAZ MAH.611 SOK.NO:6
0040001471,SÜLEYMAN AYBAKAN,null,01642,40.768315,29.423577,SÜLEYMAN USTANIN YERİ,0,ESKİHİSAR FERİBOT SAHASI YANI NO:17
0040001476,MEHMET DİLLİ,null,01647,40.85948,29.387528,ESLEM MARKET,0,ŞEKERPINAR MAH.HÜSEYİN DEMİR CAD.NO:11
0040001485,MEHMET YORGUN,null,01657,40.783931,29.376874,KARDEŞLER MARKET,0,OSMANGAZİ MAH.AŞIROĞUL CAD.ÇALIŞKAN SOK.NO:15
0040001501,ARZU ÇAM,null,01675,40.811356,29.423582,ÇAM GIDA,0,GAZİLER MAH.NESİL CAD.NO:4
0040001528,ALİ GÜRBÜZ,GEBZE,01712,40.81468,29.378264,GÜRBÜZ MARKET NAL.BYR İNŞ.TUR.SAN.TİC.,0,ADEM YAVUZ MAH. ÜMİT KAFTANCIOĞLU CAD. NO:37 GEBZE
0040001540,OĞUZ KALENDER,null,01736,40.754867,29.831155,İNDİRİM MARKET,0,DENİZ MAH. İSTASYON CAD. ZEMİNKAT NO:29/A DERİNCE/KOCAELİ
0040001547,SEFAİ BÜTÜNÖZ,null,01744,40.864521,29.584456,SİTE MARKET,0,KÖSELER MAH.GEBZE CAD.NO:158
0040001551,OLGUN ÖZTÜRK,null,01752,40.761275,29.803222,ÖZMAR GIDA,0,İBNİ SİNA MAH.GÜVENLİK CAD.NO:14/A
0040001554,RIFAT HANE,null,01755,40.750337,30.067359,HANDOĞLU MARKET ,0,UZUNÇİFTLİK MAH.MUSTAFA ÖZ CAD.NO:5
0040001556,ESER IŞIK,null,01758,40.743206,30.055674,IŞIK MARKET,0,ÇAMLIK KOCATEPE CAD.NO:19 KARTEPE
0040001375,BEREKET MAL.GIDA SAN.TİC.LTD.ŞTİ.,null,01540,40.765393,29.874663,BEREKET MAL.GIDA SAN.TİC.LTD.ŞTİ.,0,FATİH MAH.38.SOK.7A
0040001377,AHMET SERİM-HÜSEYİN YASİN SAMSA ADI ORTAKLIĞI,null,01542,40.765776,29.797835,KRS TOPTAN TÜKETİM,0,ESENTEPE MAH.ESENTEPE CAD.96/A
0040001405,FATİH ÖZCAN,null,01571,40.757487,29.816986,ÖZCAN MARKET,0,SIRRI PAŞA MAH.44 EVLER HASTANE YOLU SOK.NO:8
0040001409,İBRAHİM HORASAN,GEBZE,01575,40.806839,29.387126,ÇARŞI KURUYEMİŞ,0,BEYLİKBAĞI MAH. ANKARA CAD. NO 60 GEBZE KOCAELİ
0040001427,SÜLEYMAN TAŞYÜREK,null,01593,40.776107,29.790959,PİLOT MARKET TEKEL SHOP,0,YAVUZ SULTAN SELİM MAH.MEVLANA CAD.NO:83/D
0040001440,SÜLEYMAN FINDIK,DARICA,01608,40.794129,29.369461,FINDIK KIRTASİYE,0,OSMANGAZİ MAH. ATATÜRK CAD. NO:324 DARICA
0040001447,MAŞİDE KILIÇ,null,01616,40.795335,29.417108,KARDEŞLER GIDA,0,OSMAN YILMAZ MAH.YENİ BAĞDAT CAD.NO:264
0040001452,SERDAR ÇAKAR,KÖRFEZ,01621,40.775201,29.798114,EGE BÜFE,0,YAVUZ SULTAN MAH. MEVLANA CAD. TOKİ KONUT İŞ MERKEZİ NO:168/1
0040001457,KAMİL BALCI,null,01626,40.781091,29.946381,KAMİL BALCI,0,YENİ YALI MAH.KÖSTÜN SOK.NO:20 NO:A
0040001458,YALÇIN ÇINAR,null,01628,40.769979,29.428099,SARINOKTA GIDA TEKS.NAK.SAN.VE TİC.LTD.ŞTİ.,0,İSTASYON MAH.YENİ HİSAR CAD.NO:100
0040001461,NURSEL KÖSE,İZMİT,01631,40.782048,29.941279,1.ETAP MARKET,0,28 HAZİRAN MAH. ESKİ İSTANBUL YOLU CAD. NO:145 İZMİT
0040001462,KUTBETTİN YILDIRIM,null,01632,40.812731,29.386166,EYÜBOĞULLARI GIDA,0,MİMAR SİNAN MAH.MİMAR SİNAN CAD.NO:83
0040001467,GÜLENDAM SEZER,null,01638,40.786181,29.349478,EKO MİNİ MARKET,0,BAYRAMOĞLU MAH.FATİH SULTAN MEHMET CAD.NO:253/A
0040001470,AHMET YILDIRIMTEPE,null,01641,40.786006,29.351243,BEREKET MARKET,0,BAYRAMOĞLU MAH.F.S.M. CAD.NO:246
0040001475,ATİLLA ERÇETİN,null,01646,40.788959,29.353153,ERÇETİN MARKET,0,BAYRAMOĞLU MAH.YAVUZ SELİM CAD.NO:17
0040001484,NECAT ULUÇAY,null,01656,40.773621,29.523023,ULUÇAY GIDA,0,DİLİSKELESİ MAH.SAİD NURSİ CAD.NO:80
0040001503,CANAN KESİK,null,01677,40.773743,29.40471,EMRE MARKET,0,FEVZİ ÇAKMAK MAH.MEHMET AKİF CAD.NO:50
0040001353,KEMAL KIZILKAYA,null,01513,40.760952,29.928924,KK BÜFE,0,ÖMERAĞA MAH.SALİM DERVİŞOĞLU CAD.NO:76/2
0040001327,SEBAHATTİN ÖZKAN,null,01485,40.762946,29.848511,EYLÜL İLETİŞİM,0,ÇINARLI MAH ÇENESUYU CAD 28/C 
0040001410,ÖZGÜR DOĞU,GEBZE,01576,40.779438,29.429676,NEHİR MARKET,0,BARIŞ MAH. HAYRİ MACAR CAD. NO 1 GEBZE KOCAELİ
0040001438,TUNCAY KOÇ,ÇAYIROVA,01606,40.823351,29.38248,KOÇ TİCARET,0,ÖZGÜRLÜK MAH. YUNUS EMRE CAD. NO:6 ÇAYIROVA
0040001449,EFENDİ TAŞDEMİR,null,01618,40.811882,29.37313,TAŞDEMİRLER PETROL ÜRÜNLERİ OTOGAZ GIDA,0,CUMHURİYET MAH.YENİ BAĞDAT CAD.NO:60
0040001496,ERGİN ŞIVGIN,null,01669,40.681646,29.555831,BOMBA MARKET,0,DEREKÖY MAH.HASAN GÜNGÖR SOK.NO:1
0040001360,ÖZBEY YAYCI,null,01520,40.772849,29.991871,KARDEŞLER MİNİ MARKET,0,FATİH MAH.FATMA SEHER HANIM CAD.NO:123
0040001420,LATİF GÜLAY,null,01586,41.070633,30.151609,KANDIRA KURUYEMİŞ,0,AYDINLIK MAH.23 NİSAN CAD.NO:2/C
0040001436,NUR BANU ÖZKUL,null,01604,40.861292,29.371585,HAT-TAT BÜFE,0,CUMHURİYET MAH.TURAN CAD.NO:23
0040001443,MACİDE ERYILMAZ,GEBZE,01611,40.85719,29.466095,ERYILMAZ GIDA,0,PELİTLİ MAH. MERKEZ CAMİİ KARŞISI NO:1 GEBZE
0040001444,AHMET KERİM,null,01612,40.772451,29.406996,MAVİ MARKET,0,FEVZİ ÇAKMAK MAH.DR.ZEKİ ACAR CAD.NO:75
0040001446,YILMAZ ARTUT,null,01615,40.782485,29.433356,MİTAŞ GIDA,0,BARIŞ MAH.DR.ZEKİ ACAR CAD.1826/2 SOK.NO:26
0040001477,ÖZCAN UÇAR,null,01648,40.778849,29.524718,BİZİM MARKET,0,DİLİSKELESİ MAH.CUMHURİYET CAD.NO:64
0040001483,YAVUZ GÖNÜL,DİLOVASI,01655,40.771521,29.52107,GÖNÜL MARKET,0,DİLİSKELESİ MAH. 736 SOK. NO:2 DİLOVASI
0040001488,ÖZLEM DEMİRAL,null,01661,40.692272,29.824374,CEYLİN GIDA,0,ŞİRİNKÖY MAH.873 SOK.NO:1
0040001492,GÜNEŞ KARLIK,null,01665,40.87506,29.43047,KARLIK MARKET,0,BALCIK MAH.MUSTAFA KEMAL CAD.NO:47
0040001494,YASEMİN TAHMAZ,null,01667,40.83181,29.371531,TAHMAZ GIDA,0,ATATÜRK MAH. CUMHURİYET CAD. NO:130 
0040001515,MURAT ERZİNCAN,null,01689,40.755614,29.386276,RIHTIM BÜFE,0,YENİ MAH. ESKİ HÜKÜMET CAD. NO:4 DARICA
0040001522,NİLÜFER DOĞAN,GEBZE,01704,40.762946,29.390063,UFUK İLETİŞİM,0,Bağlarbaşı MH. İstasyon Cd. No:221 Darıca
0040001523,YEŞİM YILDIRIM ,null,01705,40.827802,29.363227,YILDIRIM GIDA,0,MİMARSİNAN MAH.SUZAN SOKAK NO:6 TUZLA/İSTANBUL 
0040001366,UMUT CEMAL ALIŞ,null,01529,40.76219,29.926957,UMUT BÜFE,0,ÖMER AĞA MAH.ŞAHBETTİN BİLGİSU CAD.NO:106
0040001370,BURCU DÜNDAR,null,01533,40.766124,29.945448,ELİF MARKET,0,KADIKÖY MAH.ZÜMRÜT SOK.NO:33/C
0040001395,RAMAZAN GÜÇLÜ,null,01559,40.766707,29.857491,ÜÇ-MAN SÜPER MARKET,0,KULAR YAKARCIK MAH.YAKARCIK CAD.NO:18 (ŞİRİNTEPE OTOBAN KÖPRÜSÜ)
0040001398,BRKT TEM.GIDA PAZARLAMA SAN.VE TİC.LTD.ŞTİ.,null,01564,40.790905,29.974043,BRKT TEM.GIDA PAZARLAMA SAN.VE TİC.LTD.ŞTİ.,0,YEŞİLOVA MAH.TURAN GÜNEŞ CAD.NO:500 İÇ KAPI NO:A
0040001363,SELÇUK AYDIN,null,01526,40.780575,29.386563,EFE KIRTASİYE,0,NENE HATUN MAH. İBNİ SİNA CAD. NO:3 DARICA 
0040001406,EKREM GÖDE,null,01572,40.765481,29.856432,MERVE MARKET,0,ŞİRİNTEPE MAH.BORA SOK.DİLEK APT.A1 6A
0040001414,GÜLİSTAN TOPRAK,null,01580,40.784554,29.621595,TOPRAK MARKET,0,AYHAN ATEŞ MAH.KINAY CAD.NO:3 HEREKE
0040001419,BAHTİYAR KURAL,null,01585,40.797484,29.973315,NEŞEM MARKET,0,TEPEKÖY MAH.TEPEKÖY CAD.NO:45/B
0040001426,OKAN KÖSE,null,01592,40.761599,29.885112,KÖSEOĞLU MİNİ MARKET,0,CUMHURİYET MAH. MİRAÇ SİT. SULUCAK SOK. NO:5 İZMİT/KOCAELİ
0040001439,NURETTİN DEMİR,DARICA,01607,40.795221,29.372186,TAHA KIRTASİYE,0,OSMANGAZİ MAH. İSTİKLAL CAD. NO:50 DARICA
0040001445,ŞAYİNAZ SEÇKİN,ÇAYIROVA,01613,40.8325,29.390597,EKOMİNİ MARKET,0,ÖZGÜRLÜK MAH. MUHAMMER AKSOY CAD. NO:200 ÇAYIROVA
0040001465,MEHMET GEÇAL,null,01635,40.800801,29.447221,GEÇAL BAKKAL,0,SULTAN ORHAN MAH.KIŞLA CAD.NO:56
0040001493,VAHAP KÖROĞLU,null,01666,40.7999,29.43278,MALATYA KURUYEMİŞ,0,HACI HALİL MAH.ZÜBEYDE HANIM CAD.NO:11
0040001565,GAMZE DÜZGÜN,null,01776,40.763877,29.971487,BARAN BÜFE,0,YAHYAKAPTAN MAH.AK KAVAKLAR CAD.NO:9
0040001566,DERYA BAYKAN,null,01777,40.721357,29.948963,null,0,YEŞİLYURT MAH.ÇUHADAR CAD.NO:326/1
0040001572,RAMAZAN YAĞAN,null,01788,40.744079,30.014051,YAĞAN MARKET,0,FATİH SULTAN MEHMET MAH.ULU IŞIK CAD.NO:16
0040001578,ENGİN MENEKŞE,null,01798,40.762109,29.92392,CAN PİŞMANİYE,0,KEMALPAŞA MAH.ANKARA KARAYOLU CAD.NO:9
0040001607,SALİH DEMİRKAN,EŞME,01833,40.733805,30.219163,EŞME MARKET,0,EŞME MAH. D100 KARAYLU CAD. NO:956 İÇ KAPI NO: KARTEPE
0040001608,EMİNE ELMALI,GEBZE,01834,40.802592,29.440743,ELMALI KURUYEMİŞ,0,SULTAN ORHAN MAH. YENİ BAĞDAT CAD. NO:482 
0040001616,SERKAN KIZILBUĞA,ÇAYIROVA,01843,40.836117,29.379122,SERKAN MARKET,0,ATATÜRK MAH. CUMHURİYET CAD. NO:23 
0040001628,ASIYA KILIÇ,null,01855,40.818516,29.402817,KILIÇ GIDA,0,EMEK MAH.BOSNA CAD.36 SOK.NO:2
0040001630,OYA  AĞTOPRAK,GEBZE,01859,40.820436,29.381756,HİLAL MARKET,0,ADEM YAVUZ MAH. 2322 SOKAK NO:9/3
0040001655,OLCAY TEKAYAK,null,01886,40.782962,29.803743,ZİRVE MARKET,0,YENİKENT MAH.ARAPTEPE SOK.NO:27
0040001658,SEYHARE ŞENTÜRK,null,01890,40.7635,29.934956,AÇIK BÜFE,0,KARABAŞ MAH.LEYLA ATAKAN CAD.NO:14/1 A
0040001575,YAVUZ KOÇ ADİ ORTAKLIĞI,null,01792,40.763043,29.956243,KAR MARKET,0,KÖRFEZ MAH.KÖRFEZ MAH.ANKARA KARAYOLU CAD.NO:171
0040001687,İBRAHİM CAN BAYTÜRK,null,01924,40.762669,29.935093,CAN BÜFE,0,KARABAŞ MAH.LEYLA ATAKAN CAD.ASLI APT.NO:4 İÇ KAPI NO:A
0040001689,ESRA CÜCE,null,01928,40.758018,30.017354,RUSTİK PAZAR,0,DUMLUPINAR MAH.DEĞİRMENLİ SOK.NO:24/A
0040001690,YUSUF BİLAL ÇELİKTEN,null,01931,40.690486,29.608699,ADIYAMAN BÜFE,0,KAYACIK MAHALLESİAMİRAL CADDESİ 208/2 KARAMÜRSEL KOCAELİ
0040001692,SONGÜL KORKMAZ,null,01933,40.703082,29.8629,ILICA MARKET,0,YAZLIK YENİ MAH.BAŞÖĞRETMEN CAD.NO:94 A
0040001694,MEHMET ŞERİF YILMAZ,null,01935,40.776523,29.974195,YILMAZLAR BÜFE,0,YAHYAKAPTAN OTOBÜS TERMİNALİ 
0040001695,FATİME DURSUN,null,01936,40.822007,29.371979,ETA İLETİŞİM,0,ÇAYIROVA MAH.FATİH CAD.NO:136/C
0040001697,ABDURRAHMAN BİNİCİ,null,01938,40.754378,29.7871,SEYMEN TOBAKASOP,0,GÜNEY MAH.TUĞLU CAD.NO:102/A
0040001700,ŞAHİN YÜZÜGÜLDÜK,null,01941,40.711091,29.841879,DORUK BÜFE GIDA,0,ÇİFTLİK MAH.ATATÜRK BULVARI NO:306/A
0040001701,YAVUZ BAĞLIKOL,null,01942,40.74134,30.047431,ESMA SÜPER MARKET,0,ATAEVLER MAH.İSMET PAŞA CAD.NO:27
0040001703,UĞUR SERHAT GIDA İNŞ.OTV.SAN.TİC.LTD.ŞTİ.,null,01944,40.795823,29.422815,UĞUR SERHAT GIDA,0,OSMAN YILMAZ MAH.YENİ BAĞDAT CAD.EGE YAPI KOOP.NO:324/D
0040001710,RECAİ KARA,null,01951,40.75919,29.943218,BAŞİSKELE MARKET,0,SAHİL MAH.MİLLET CAD.NO:3/A
0040001716,REMZİ BULUT,KÖRFEZ,01957,40.75919,29.943218,BULUT BAKKALİYESİ,0,ÇAMLITEPE MAH. ŞAMİL SOK.NO:38 KÖRFEZ
0040001718,ALİ SİVRİ,null,01959,40.75919,29.943218,AHİ KARDEŞLER MARKET,0,ULAŞLI YAVUZ SULTAN SELİM MAH.APTÜLHAMİTHAN CAD.NO:61/A
0040001721,ŞÜKRÜ KAYA DUMLU,null,01962,40.776231,29.974222,null,0,YENİŞEHİR MAHALLESİ SEMT ARDA SOKAK 6/B OTOGAR
0040001722,İSMAİL YİĞİT,GEBZE,01963,40.795756,29.407596,KARDENİZ MARKET,0,KÖŞLÜ ÇEŞME MAH. YENİ BAĞDAT CAD. NO:371B 
0040001723,MERVE YONAT TOPAL ,GEBZE,01964,40.797359,29.438348,ELMAS KURUYEMİŞ ,0,SULTAN ORHAN MAH. HÜKÜMET CAD. NO:117/A
0040001582,TAŞKIN KAZANKAYA,null,01803,40.814554,29.432938,KERVAN GIDA,0,İNÖNÜ MAH.ARİFOĞLU CAD.NO:1
0040001589,UFUK GÖKÇELİK,İZMİT,01812,40.755376,30.027915,DENİZ İLETİŞİM,0,DUMLUPINAR MAH. SAKIP SABANCI CAD. NO:30/C
0040001590,İMRAN BOZKUŞ,null,01814,40.766696,29.942874,MİRAZ MARKET,0,KADIKÖY MAH.ZÜMRÜT SOK.NO:84/1
0040001592,OĞUZ URALKAYA,null,01816,40.714501,29.922404,KAYA MARKET 2,0,KÖRFEZ MAH.NAMIK KEMAL CAD.NO:28/A
0040001600,MUHAMMET AYDIN,null,01826,40.828356,29.376113,DURAK BAKKAL,0,ATATÜRK MAH.ADNAN KAHVECİ CAD. NO:1/A
0040001602,AYSEL BULUT,null,01828,40.75408,29.791106,BULUT MARKET,0,FATİH MAH. MEHTAP CAD. NO:11/A KÖRFEZ/KOCAELİ
0040001604,YAKUP GERÇEK,İZMİT,01830,40.800892,29.952866,DENİZ BÜFE,0,AYAZMA MAH. 17 AĞUSTOS BULVARI NO:118 3KAPI NO B İZMİT
0040001613,MEHMET HAZAL,DİLOVASI,01839,40.788768,29.532174,HAZALOĞLU HİPERMARJET,0,MİMARSİNAN MAH.MİMARSİNAN CAD.NO:35 
0040001614,ADEM AYDIN,GEBZE,01840,40.812004,29.404142,AYDINLAR MARKET,0,YAVUZ SELİM MAH. GÜNDOĞAN CAD. NO:24/A
0040001617,MUHAMMED OĞUL,null,01844,40.767379,29.869538,OĞUL MARKET,0,KOCATEPE MAH.KAZIM ÖZALP CAD.NO:44/A
0040001626,AYŞE YILDIRIM,GEBZE,01853,40.779219,29.43334,ENES MARKET ,0,BARIŞ MAH.BARIŞ CAD. NO:75 
0040001644,ÖZGÜR GÖKBULAK,ÇAYIROVA,01874,40.858358,29.36996,TOKİ TEKEL,0,CUMHURİYET MAH.GEÇİT SOKAK NO:27 
0040001650,RASİM YALÇIN ,DARICA,01881,40.778211,29.373935,YALÇIN MARKET,0,Piri Reis- Bağdat Caddesi No:17- Darıca/Kocaeli
0040001656,EREN KAVŞUT,null,01887,40.790355,29.961754,MAGAZİN MARKET TEKEL,0,GÜNDOĞDU MAH.BOĞAZOVA CAD.NO:72/A
0040001665,BURAK GIDA BÜRO SAN. LTD. ŞTİ,KANDIRA,01898,41.127511,30.010809,BURAK GIDA BÜRO SAN. LTD. ŞTİ,0,BAĞIRGANLI MAH. SAHİL CAD. NO:4 KANDIRA
0040001698,SAMET MERCAN,null,01939,40.800247,29.955902,MERCAN BÜFE,0,AYAZMA MAH.GEDİKLİ SOK.NO:3
0040001731,AYHAN KILIÇ,null,01973,40.791093,29.947842,KILIÇ BÜFE,0,MALTA MAH.PORTAKAL HAFIZ RÜŞTÜ BEY CAD.NO:13
0040001567,ALİ AKÇİN,null,01780,40.772886,30.006386,AKÇİN GIDA ,0,ATATÜRK MAH.FATİH SULTAN MEHMET BUL.YENİÇE SOK.NO:1
0040001576,AHMET ADIYAMAN,null,01793,40.765306,29.940587,SABAH GIDA,0,KÖRFEZ MAH.GAZANFER BİLGE BULVARI GÖKBULUT APT.NO:9/D
0040001577,MUHAMMED SARI ,null,01794,40.705709,29.844403,YUVAMRA MARKET,0,ÇİFTLİK MAH.BARIŞ CAD.NO:56/D
0040001594,BEDRİYE YILMAZ,null,02211,40.761983,29.84693,YENİYOL GIDA PAZARI,0,ÇINARLI MAH.ONARAN SOK.NO:5/A
0040001594,BEDRİYE YILMAZ,null,01818,40.760284,29.845446,YENİYOL GIDA PAZARI,0,ÇINARLI MAH.ONARAN SOK.NO:5/A
0040001673,SONER KILIÇARSLAN,null,01907,40.786891,29.973486,SONER GIDA,0,YEŞİLOVA MAH.İRADE SOK.NO:1/C
0040001682,MELİHA YÜCE,null,01919,40.913671,30.189293,İBONUN YERİ,0,BAĞLICA MAH.ROÇKAN MEVKİ TÜMEN EVLERİ
0040001699,ALİMCAN ALMA,null,01940,40.818009,29.432139,İNADINA ALİŞİM BÜFE 2,0,İNÖNÜ MAH.İBRAHİM AĞA CAD.NO:250/A
0040001705,DOĞAN POLAT,null,01946,40.75919,29.943218,ÇİĞKÖFTECİ SAİT,0,KARABAŞ MAH.LEYLA ATAKAN CAD.NO:39 İÇ KAPI B
0040001715,KAMİL YÜCEL,DERİNCE,01956,40.75919,29.943218,DERİNCE GIDA VE SÜT MAMÜLLERİ,0,ÇENEDAĞ MAH. HAFIZ HASAN YILMAZ CAD. NO:76/A DERİNCE
0040001727,HASAN ALTINTAŞ,GEBZE,01968,40.797508,29.436932,ALTINTAŞ BÜFE,0,SULTAN ORHAN MAH. HÜKÜMET CAD. NO:107/A
0040001729,HATİCE BAYRAM ,GEBZE,01971,40.818035,29.386627,DEMİR TEKEL ,0,CUMHURİYET MAH.MİMAR SİNAN CAD. NO:157/A
0040001733,SERKAN TOPÇU,null,01975,40.76421,29.883737,SERT BAKKAL,0,YENİ MAH.İNKILAP CAD.NO:38/B
0040001734,NAİL CANDAN,null,01977,40.765402,29.930415,ÖYKÜ BÜFE,0,KARABAŞ MAH.ABDURRAHMAN YÜKSEL CAD.NO:26
0040001735,DİLEK CEYLAN,null,01978,40.75919,29.943218,DİLEK CEYLAN FATURAMATİK,0,AK DURAK MAH.KIŞLA CAD.NO:10/A
0040001736,FIRAT ÇELİK ,GEBZE,01979,40.825473,29.369692,TEKNOLOCİKS ,0,TATLIKUYU MAH. KÖRFEZ CAD. NO:63/A 
0040001744,BURAK OKUR,GEBZE,01987,40.804183,29.390598,SARICAMİ BÜFE,0,ULUS MAH. YAŞAR DOĞU CAD. NO:126/E
0040001745,GÜLER ÇİMEN ,GEBZE,01988,40.803619,29.419353,ÇİMEN MARKET,0,MEVLANA MAH. SARIKAMIŞ ŞEHİTLERİ CAD. NO:22/A
0040001756,AHMET ZORLU,null,02010,40.665367,29.822675,HAMİDİYE MARKET,0,HAMİDİYE MAH.HAMİDİYE MERKEZ MEVKİ KÜME EVLERİ NO:130/A
0040001774,MUHAMMET USTA,null,02031,40.776474,29.972817,SON YAZ KAFE,0,YAHYA KAPTAN MH. SEYMEN CD. NO 39/1 İÇ KAPI NO: P01 İZMİT
0040001558,FATIMA SAĞRA ÖZTÜRK,null,01763,40.68843,30.010445,DİRİLİŞ MARKET,0,DOĞAN TEPE MAH.DOĞANTEPE İZMİT CAD.NO:2/B BAŞİSKELE
0040001584,İBRAHİM ŞAHİN,null,01806,40.743192,30.018956,KMT MARKET,0,FATİH SULTAN MEHMET MAH.İLİM CAD.NO:44
0040001603,RAMAZAN KESKİN,DERİNCE,01829,40.756318,29.803647,KESKİN MARKET,0,YAVUZ SULTAN MAH. GÜNEŞ SOK. NO:3 DERİNCE
0040001621,ÜMMÜHAN SAĞLIK,null,01848,40.790739,29.966384,KAYALAR MARKET,0,YEŞİLOVA MAH.GÜNDOĞDU CAD.NO:75 
0040001623,MUSTAFA ŞİMŞİR,null,01850,40.776227,29.815779,BAM BÜFE,0,YENİKENT MAH.CENGİZ TOPEL CAD.NO:11
0040001636,AHMET AYAZ,null,01866,40.731125,30.046242,AYAZ MARKETÇİLİK GIDA  İNŞ.SAN.VE TİC.LTD.ŞTİ,0,SARIMEŞE MAH.NİAZMİ CEDİT CAD.NO:1/1A
0040001641,OSMAN ÖZKAN,null,01871,40.815029,29.582262,ÖZKAN MARKET,0,ÇERKEŞLİ MAH.GÜMÜŞ PALA CAD.NO:42 A İÇKAPI NO:A
0040001654,AKİF KAVŞUT,null,01885,40.800006,29.930145,NİKOMEDYA MARKET VE TEKEL,0,KABAOĞLU MAH.PROF.BAKİ KOMŞUOĞLU BULVARI NO:183/A
0040001657,ESRA NUR BÜYÜKBAŞOĞLU,null,01889,40.783796,29.966001,ERNEP MARKET BÜFE,0,TAVŞANTEPE MAH.DİLEK SOK.NO:30/1
0040001662,ÜGP GIDA TAR.ÜRN.KİMY.MAD. HAYV.NAK.İNŞ.TURZ.SAN.VE TİC,null,01894,41.037665,29.949515,ÜNAL MARKET,0,AKÇAOVA KÖYÜ NO:91 
0040001671,ERKAN AKTAŞ,null,01905,40.769611,29.920985,EYLÜL GIDA,0,ORHAN MAH.AYDINLIK SOK.NO:20/A 
0040001709,ABDULKADİR ÖZKAR,null,01950,40.75919,29.943218,ÖZKAR MARKET,0,YUVACIK KAYACIK MAH.HACI MAHMUT CAD.NO:105İÇ KAPI NO:A
0040001750,HACI KANDEMİR,GEBZE,02004,40.75919,29.943218,KANDEMİR BÜFE ,0,MİMARSİNAN MAH. 6. SOKAK NO:21 İÇKAPI A
0040001763,YUDUM CENGİZ,null,02020,40.75919,29.943218,CENGİZLER MARKET,0,SIRASÖĞÜTLER MAH.AYDINLAR CAD.NO:55
0040001593,SERDAR YAŞAYAN,null,01817,40.745927,30.058958,DENİZ MARKET,0,UZUN ÇİFTLİK EMEKEVLER MH. 100. YIL CAD. NO:34
0040001596,AHMET TANRIKULU,null,01822,40.690244,30.028554,KÖRFEZ GIDA,0,ASLANBEY MAH.KIŞLA CAD.NO:6/A
0040001670,ORHAN TARIM,null,01904,40.783565,29.410002,HAS BÜFE,0,ABDİ İPEKÇİ MAH. ETHEM BEY CAD.NO:41/A
0040001693,MURAT TEMEL,GEBZE,01934,40.78507,29.617281,4 YOL TEKSTİL GIDA,0,HACI AKİF MAH. SÜMER CAD. NO:2/A HEREKE
0040001711,MEHMET GÖKDUMAN,null,01952,40.75919,29.943218,CEYDA KIRTASİYE,0,YAVUZ SULTAN MAH.BİLE SOK.NO:4/B
0040001739,FATMA KARAMAN,null,01982,40.75919,29.943218,BAŞAK BÜFE,0,YENİKENT MAH.KAZIM KARABEKİR CAD.14 NOLU BÜFE
0040001764,MURAT SİSNELİOĞLU,null,02021,40.75919,29.943218,KENT BÜFE,0,YENİ MAH.FATİH CAD.NO:133 İÇ KAPI NO/B
0040001767,DENİZ GÜNDOĞAN,null,02024,40.772065,29.822973,UMUT MARKET,0,FATİH SULTAN MAH.ÖĞRETMENLER CAD.NO:155/A
0040001768,OSMAN SEZER,null,02025,40.78738,29.989337,SEZER MARKET,0,KARADENİZLİLER MAH.ÖMER MUHTAR CAD.NO:1A
0040001773,ENDER BULUT,null,02030,40.776351,29.803962,KÖRFEZİM 41 TEKEL,0,YAVUZ SULTAN SELİM MAH.YAŞAR DOĞU CAD.EMLAK KON.İŞ MER.NO:57/C
0040001777,EMİNE DURNA,null,02034,40.778216,29.99114,DRN BAKKAL,0,FEVZİ ÇAKMAK MAH.SEFA SİRMEN CAD.NO:25/1
0040001778,ADNAN BAYKAL,null,02035,40.778787,29.809676,null,0,YENİKENT MAH.GÖNÜL SOK.NO:4
0040001783,SERDAR ÇETİNKAYA,GEBZE,02041,40.75919,29.943218,DURAK BÜFE,0,MİMAR SİNAN MAH. 6.SOKAK PTT NO:21 
0040001784,ENES ERMİŞ,null,02042,40.75919,29.943218,ERMİŞLER ŞEN BAKKAL,0,FATİH SULTAN MEHMET MAH.MİNE SOK.NO:29 İÇ KAPI NO:A
0040001785,AKİFCAN ÇEVİK,DARICA,02043,40.777626,29.411489,ÇEVİK BAKLİYAT ,0,ABDİ İPEKCİ MAH. ŞEHİT GAFFAR OKTAM CAD. NO:40
0040001787,KARADAĞLAR TURİZM,GEBZE,02045,40.75919,29.943218,KARADAĞLAR YAMAN BÜFE,0,FEVZİ ÇAKMAK EĞİTİM CAD. NO:3/A
0040001788,BARIŞ ATAY,null,02046,40.788316,29.9731933,YAYLA KURUYEMİŞ,0,YEŞİLOVA MAH.TURAN GÜNEŞ CAD.NO:719/B
0040001790,MAZLUM GÜL,GEBZE,02049,40.75919,29.943218,MERKEZ BÜFE,0,MİMAR SİNAN MAH. İSTİKLAL CAD. NO:3/A
0040001792,GAMZE ÇALIŞKAN ,GEBZE,02054,40.825357,29.370714,İSTANBUL BÜFE,0,EMEK MAH. FİKRİ ALTIOKKA CAD. NO:78/A
0040001793,BEKİR AYBİRDİ,GEBZE,02055,40.788709,29.373563,ERGAZ BÜFE ,0,OSMANGAZİ MAH. AŞIROĞLU CAD. NO:141
0040001794,UMUT EŞME,null,02056,40.773749,29.81522,ÖZDEN BÜFE,0,YENİKENT MAH.SERPİL SOK.ÖZDEN BÜFE NO:4
0040001795,NEDİM UYSAL,null,02057,40.7743,29.808406,ARZUM İKRAM BÜFE,0,YENİKENT MAH.GÖRKEM SOK.NO:14
0040001557,NİMET NİHAT SÖNMEZ,İZMİT,01760,40.762053,29.923963,SÖNMEZ BÜFE,0,KEMALPAŞA MAH. YAVUZ SOK. NO:2/A
0040001599,MUZAFFER TUZCU,null,01825,40.803478,29.761269,TUZCU,0,İLİMTEPE MAH.18. SOK.İLİMTEPE KOOP.E BLOK NO:2 İÇ KAPI NO:1
0040001606,BURHAN SEVGİ,KOCAELİ,01832,40.79819,29.432989,MİLLENYUM 2000 ELEKTRONİK ,0,HACIHALİL MAH. 1220/1 NO:4 / H
0040001609,FATİH AYAR,GEBZE,01835,40.808122,29.444466,FATİH İLETİŞİM,0,ARAP ÇEŞME MAH.KAVAK CAD. NO:68/A
0040001611,MEHMET SEVER,İZMİT,01837,40.776225,29.962927,KÖRFEZ BAKKAL,0,TAVŞAN TEPE MAH. TURAN GÜNEŞ CAD. NO:465 İÇKAPI N:A 
0040001624,SAMİ KAHVECİ,null,01851,40.768698,29.965731,MİNİ DURU MARKET,0,YENİŞEHİR MAH.OVA SOK.NO:B/4
0040001625,NAZLI AKSU,null,01852,40.768093,29.968463,KAPTAN MİNİ MARKET,0,YAHYAKAPTAN MAH.Ş.ERGÜN KÖRCÜ SOK.NO:1/A
0040001631,ABDUL SEZER KARADAĞ,DARICA,01860,40.7906,29.378001,SEZER TEKEL,0,OSMANGAZİ MAH.ATATÜRK CAD.NO:258/1
0040001637,MUHAMMED EMİN KÜÇÜK,null,01867,40.732482,30.044406,YEDA MARKETÇİLİK GIDA.İNŞ.VE TİC.LTD.ŞTİ.,0,SARIMEŞE MAH.DEDE KORKUT CAD.NO:13/0
0040001651,TAHA BATUHAN KOCAGÖZ,null,01882,40.762552,29.935001,ŞIMARIK BÜFE,0,KARABAŞ MAH.ANKARA KARAYOLU CAD.NO:61/1 TURGUT ÖZAL ÜST GEÇİT ALTI
0040001708,HAMZA GÜR,null,01949,40.75919,29.943218,MEKAN MİNİ MARKET,0,28 HAZİRAN MAH.ESKİ İSTANBUL CAD.NO:110 1 BLOK/2
0040001737,HAKKI KARLI ,ÇAYIROVA,01980,40.833433,29.390516,DROGAN TEKEL ,0,AKSE MAH. MUHAMMER AKSOY CAD. NO:205/B
0040001738,TARKAN TEMEL ,GEBZE,01981,40.75919,29.943218,TEMPA MARKET ,0,GAZİLER MAH. 1788 SOKAK NO:28/1
0040001751,MUAZZEZ KAYA,null,02005,40.736522,30.031033,ELİBOL MARKET,0,FATİH SULTAN MEHMET MAH.AKŞEMSEDDİN CAD. ABLOK NO:36
0040001757,NEDİM GEÇMİŞ,null,02014,40.754099,29.954758,ÇARŞI KAFE,0,SANAYİ MAH. KOZALI SOK.NO:10/H İÇ KAPI NO:1
0040001759,AYŞENUR YAYLA,GEBZE,02016,40.809199,29.428591,YAYLA GIDA,0,GAZİLER MAH. ISSIKGÖL CAD. NO:28/A 
0040001760,SERPİL KARABULUT,null,02017,40.75919,29.943218,CADDE BÜFE,0,KUZEY MAH.CAHİT ZARİFOĞUL CAD.NO:17
0040001561,İLYAS YEŞİLDAL,null,01767,40.76359,29.938774,YEŞİLDAĞ BÜFE,0,KARABAŞ MAH. HAFIZ BİNBAŞI CAD.  NO:36-C İZMİT
0040001648,SEFA ŞAHİN,null,01878,40.773365,30.014682,ŞAHİN BÜFE,0,ALİKAHYA ATATÜRK MAH.A.MÜFİT BEY CAD.NO:83/1
0040001659,NİHAL MEŞE,null,01891,40.75934,29.787718,MÇ GIDA,0,GÜNEY MAH.ADNAN KAHVECİ CAD.NO:30
0040001663,ANNA BİNGÖL,KÖRFEZ,01896,40.770743,29.748788,ONUR BÜFE,0,MİMAR SİNAN MAH. MEHMET AKİF ERSOY CAD. NO:102 KÖRFEZ
0040001664,YUNUS DEMİRCİ,null,01897,40.784931,29.415492,DEMİRCİ AİLE BAKKALI,0,İSTASYON MAH. İSTASYON CAD. NO:58 GEBZE
0040001668,BİLAL AKYOL,null,01901,40.775378,29.773433,HAKYOL MARKET,0,ÇAMLITEPE MAH.YUNUS EMRE CAD.NO:103/A
0040001675,ŞEHRİ ÇİÇEK,null,01909,40.768979,29.872372,ÇİÇEK MİNİ MARKET,0,KOCATEPE MAH. STRADUM SOK.NO:32İÇ KAPI NO:A
0040001677,BÜLENT ERDAL,null,01912,40.765152,29.924149,YENİ TURAN BÜFE,0,TEPECİK MAH.İNÖNÜ CAD.ÖZAK NO:108 İÇ KAPI NO:E
0040001681,YUNUS ÇIRPAN,null,01918,40.779065,29.948682,YUSUF MARKET,0,28 HAZİRAN MAH.DERE SOK.NO:87/A
0040001712,ABDULLAH KOÇAK,null,01953,40.783492,29.399668,ÇEVRE KURUYEMİŞ,0,KAZIM KARABEKİR MAH.BALTA GAZİ CAD.NO:192/C
0040001752,ALİ KARADAĞ İNŞ.MAK.GIDA EML.D.GAZ TAAH.TİC.LTD.ŞTİ,null,02006,40.774997,29.791128,KARADAĞ MARKET,0,YAVUZ SULTAN SELİM MAH.SEMT SEDA CAD.NOI:43/A
0040001754,METİN ÖZDEMİR,null,02008,40.695792,30.091328,NUSRETİYE BAKKAL,0,NUSRETİYE MAH.NUSRETİYE İZMİT CAD.NO:105/A İÇ KAPI NO:A
0040001755,NURSİLE POLAT,null,02009,40.717568,29.782942,DÖRTYOL BÜFE,0,CUMHURİYET MAH.YALIYOLU CAD.NO:4/4
0040001761,YASEMİN ÇELİK,null,02018,40.75919,29.943218,DERİN BÜFE,0,KADIKÖY MAH.BAĞDAT CAD.NO:34/A
0040001769,HASAN GÜVEN,null,02026,40.752475,30.028286,MHMAR GIDA İNŞ.TİC.LTD.ŞTİ.,0,İSTASYON MAH.ANKARA CAD.LPG İSTASYON NO:81İÇKAPI A 
0040001776,OĞUZ KAAN DEMİR,GEBZE,02033,40.799415,29.43017,SÖĞÜTÖZÜ BÜFE,0,MUSTAFA PAŞA MAH. YENİ BAĞDAT CAD. NO:545
0040001779,ÜMİT TAĞGÜR,null,02036,40.775524,29.771693,ÜMİT MARKET,0,ÇAMLITEPE MAH.YUNUS EMRE CAD. NO:75/A
0040001780,RAŞİT SALMAN ,GEBZE,02037,40.75919,29.943218,RAŞİT İLETİŞİM ,0,YAVUZSELİM MAH. ANKARA CAD. 146/A
0040001781,HÜSNA AKSOY,null,02038,40.756492,29.795988,AKSOYLAR KURUYEMİŞ,0,FATİH MAH.AKŞEMSETTİN CAD.NO:49/A
0040001782,HASAN KARAKAŞ,null,02040,40.767313,29.936246,YADE BÜFE KURUYEMİŞ,0,CEDİT MAH.CEVDET BAĞDAT SOK.NO:2 İÇ KAPI 3
0040001809,SİNAN ÇELİK ,GEBZE,02099,40.75919,29.943218,TOKİ MARKET,0,CUMHURİYET MAH. GECİT SOKAK. NO:27/B 
0040001825,RAMAZAN YILDIRIM,null,02121,40.762264,29.878048,GİŞELER TEKEL SHOP,0,CUMHURİYET MAH.KARAYOLU SOK.NO:47/D
0040001836,ÖZKAN GÜLBAK ,GEBZE,02138,40.799196,29.429929,KURAŞ BÜFE,0,HACI HALİL MAH. YENİBAĞDAT CAD. NO:396 AKÇARŞI DURAĞI 
0040001843,RIFAT KOÇLARDAN ,null,02162,40.718379,29.819852,KOÇLARDAN BÜFE,0,MERKEZ MAH.36.SOK.NO:9/D
0040001844,ÖZGÜR TİLKİ,null,02163,40.761463,29.787847,CADDE BÜFE,0,KUZEY MAH.CAHİT ZARİFOĞLU CAD.NO:17/A
0040001849,MUAMMER OĞUL,null,02168,40.768343,29.854389,OĞUL MARKET,0,MERSİNCİK MAH.HAYAT CAD.NO:7/A
0040001857,MURAT AKPINAR,GEBZE,02177,40.75919,29.943218,AKPINAR BÜFE,0,MEVLANA MAH. MUHAMMER AKSOY CAD. NO:67
0040001860,ÜMİT DEMİR,KÖSEKÖY,02180,40.753355,30.01989,SİSTEM MARKET,0,İSTASYON MAH. HAMİT TURAN CAD. NO:3 KARTEPE/KOCAELİ
0040001871,GÜLÇİN TOPAL,null,02191,40.740205,30.051237,BAY BAKKAL,0,ATAEVLER MAH.SAPANCA YOLU CAD.NO:66
0040001873,MEHMET SIDDIK ZORLU,null,02193,40.772893,29.79501,HİSAR UNLU MAMÜLLERİ ,0,YAVUZ SULTAN SELİM MAH.OSMANGAZİ CAD.EMLAK KONUT KÖRFEZ KENT 4.ETAP A8 BLOK NO:49/C
0040001880,OSMAN FURUNCİ,GEBZE,02200,40.75919,29.943218,FURUNCİ BÜFE,0,EMEK MAH. FATİH SULTAN MEHMET CAD. MERKEZ CAMİ NO:29
0040001887,SİBEL BENGİ,GEBZE,02207,40.75919,29.943218,MASAL MARKET,0,OSMANGAZİ MAH. İSTİKLAL CAD. NO:172
0040001894,BELKIZ ERDOĞDU ,GEBZE,02216,40.75919,29.943218,ERDOĞDU BÜFE,0,ABDİ İPEKCİ MAH. İSTASYON CAD. NO:544 
0040001895,MUSTAFA DOYRAN,null,02217,40.772893,29.953789,ANKARA KURUYEMİŞ,0,BEKİRDERE MAH.BAŞARAN CAD.NO:2 İÇ KAPI NO:1
0040001900,LEYLA BAL,null,02224,40.75919,29.943218,SARAYBAHÇE ALIŞVERİŞ MERKEZLERİ TİC.A.Ş.,0,RÜZGARLI BAHÇE MAH.ÇAM PINARI SOK.NO:8/9 BEYKOZ ( 41 AVM )
0040001903,SALİH ÇOBAN,GEBZE,02227,40.75919,29.943218,DURAK BÜFE,0,MİMAR SİNAN MAH.6.SOKAK NO:21
0040001922,ARMAN İŞLEK,null,02309,40.7210514,29.7824008,İŞLEK BÜFE,0,DEĞİRMENDERE MERKEZ MAH.ÇINARLIK MEYDANI NO:3
0040001936,TÜLAY ÇIRAK,GÖLCÜK,02324,40.7161255,29.7528544,GEL MARKET GIDA TEKSTİL OTOMOTİV TİC. LTD. ŞİR.,0,HALIDERE YALI MAH. HALIDERE ATATÜRK BULVARI NO:69 C GÖLCÜK
0040001796,HALİL YOLSUZ,null,02058,40.736501,30.11757,DOĞA MARKET,0,İBRİKDERE MAH.İMAR CAD.NO:12 İÇ KAPI NO:A
0040001799,NURCAN DEMİR,GEBZE,02061,40.75919,29.943218,BAYRAMLAR GIDA,0,ULUS MAH. ŞEYİT MEHMET KARTAL CAD. NO:126/A
0040001800,İNCİ AYBALA CAMBAZ,null,02062,40.770678,29.881651,ADİL BAKKAL AYBALA,0,YENİ MAH.İNKILAP CAD.NO:222/A
0040001801,NADİR PEKER,null,02063,40.761972,29.81512,PEKER BÜFE,0,SIRRI PAŞA MAH.ÇAVDAR CAD.NO:54 İÇ KAPI NO:0
0040001806,ERDOĞAN MALKOÇ,GEBZE,02095,40.801905,29.435183,BALBADEM BÜFE,0,SIRASÖĞÜTLER MAH.OKUL CAD. NO:6 
0040001815,BÜMİN ARAFAT KELEŞ,null,02110,40.787489,29.946762,KÖŞEM MARKET,0,BALTA MAH.ÖZGÜRLÜK CAD.NO:11
0040001831,ÖMER ZÜMRE,GEBZE,02133,40.75919,29.943218,ZÜMRE MİNİ MARKET ,0,SULTAN ORHAN MAH. KIŞLA CAD. NO:56 
0040001841,EMİR TEBYEN,null,02160,40.699523,29.981244,NUR GIDA,0,PAŞADAĞ MAH.NEBİ SOK.NO:14 İÇ KAPI NO:1
0040001874,AHMET ERASLAN,null,02194,40.761122,29.952016,SELİN BÜFE,0,KÖRFEZ MAH.ALİ DİKMEN SOKAĞI NO:12 A/1
0040001879,ÇAĞRI HAMAMCI,null,02199,40.7657308,29.9640652,ÖMRÜM BÜFE,0,YENİŞEHİR MAH.ÖZDEN SOK.NO:31/B
0040001882,GÖKHAN KOÇBAY,null,02202,40.73997,30.04328,KÖŞEM MARKET,0,ATAEVLER MAH.AŞHANE SOK.NO:10/B
0040001897,SONER KOÇ,GEBZE,02219,40.75919,29.943218,ACİL BÜFE,0,FEVZİ ÇAKMAK MAH. ARSLAN SOKAK NO:1 
0040001898,HÜSEYİN GÖKHAN TAŞTEKİN,GEBZE,02220,40.75919,29.943218,MOR BÜFE,0,CUMHURİYET MAH. GÜMÜŞ SOKAK NO:4
0040001902,SABRİ SERİN,null,02226,40.75919,29.943218,SERİN KÖY ÜRÜNLERİ,0,BARBAROS MAH.YAVUZ SULTAN SELİM CAD.NO:58/3
0040001904,NURULLAH YAVUZ ,GEBZE,02237,40.75919,29.943218,YAVUZ BÜFE,0,HACI HALİL MAH. YENİ BAĞDAT CAD. NO:366
0040001909,LEVENT ÜNAL,KÖRFEZ,02248,40.75919,29.943218,DÖRT YOL BÜFE,0,HACİ AKİF MAH.SÜMER CAD. NO:10 
0040001910,MEHMET ALİ ÇELİK,null,02249,40.7720718,29.8134506,FATİH BÜFE,0,YENİKENT MAH.SÖNMEZ SOK.NO:10
0040001917,MUHAMMED ASLAN,GEBZE,02273,40.75919,29.943218,ENKA MARKET,0,ATATÜRK MAH. MUHAMMER AKSOY CAD. NO:15
0040001929,SALİH TOP,GEBZE,02317,40.75919,29.943218,BİZBİZE MARKET,0,ARAPÇEŞME MAH. EYÜPSULTAN CAD.NO:52
0040001930,NEDİM ÖZTÜRK,null,02318,40.7696488,29.9582452,ÖZTÜRK MARKET,0,YENİŞEHİR MAH.ŞEHİT KAZIM CAD.NO:88
0040001932,NAZLI KANDEMİR,null,02320,40.7697156,29.9514202,DENİZ BÜFE,0,MEHMET ALİ PAŞA MAH.ZİNCİRLİKUYU CAD.NO:46/B
0040001810,AYŞE GÜL KARATAŞ,null,02100,40.776296,29.80698,GÜVEN BÜFE,0,YENİKENT MAH.ÖZENLİ SOK.GÜVEN BÜFE NO:8/1
0040001813,ÖZCAN AYKUTALP,null,02108,40.758578,29.832986,AYKUTALP BÜFE,0,ÇENEDAĞ MAH.GÜNDOĞDU SOK.NO:20/B
0040001816,ESMA GÜNEŞ,GEBZE,02111,40.78929,29.373734,GÜNEŞ MARKET,0,OSMANGAZİ MAH.RECEP YAZICIOĞLU CAD.NO:44 DARICA
0040001823,HAMDİ ŞİMŞEK,null,02119,40.770847,29.826303,ŞİMŞEK BÜFE,0,FATİH SULTAN MEHMET MAH.ENGİN CAD.NO:169/B
0040001826,MUSTAFA KESKİN,GEBZE,02122,40.75919,29.943218,KESKİN MARKET,0,Tatlıkuyu mah. Ahmet Pembe Güllü Bulvarı Mavi Kent C Blok No:28  
0040055551,Test Gerçek,null,55535,40.75919,29.943218,Test Gerçek,0,İzmir
0040001848,OĞUZHAN BALABAN,İZMİT,02167,40.767649,29.951908,ÇINAR BÜFE,0,MEHMET ALİ PARAŞA MAH. ZİNCİRKUYU CAD. NO:107/A İZMİT/KOCAELİ
0040001851,ERDİ TEKİN ,GEBZE,02170,40.75919,29.943218,TEKİN BÜFE,0,HACI HALİL MAH.1218 SOKAK İŞ MERKEZİ NO:2
0040001856,RECEP BULUT,null,02176,40.75919,29.943218,BULUT BÜFE,0,ABDİL İPEKÇİ MAH.ETHEM BEY CAD.NO:83
0040001861,ENES KELEŞOĞLU,DERİNCE,02181,40.780968,29.813079,TATLI BÜFE,0,YENİKENT MAH.GAZİ MUSTAFA KEMAL CAD.NO:61 DERİNCE/KOCAELİ
0040001866,TEMEL EFE ÇOLAK,null,02186,40.767539,29.949117,MAÇKALI GIDA,0,KADIKÖY MAH.BAĞDAY CAD.NO:110/A
0040001867,ALİ ÖZKUL,null,02187,40.766808,29.827277,ÖZKUL GIDA,0,SIRRI PAŞA MAH.ENGİN CAD.NO:119/A
0040001868,YAPRAK ÇİÇEK ,GEBZE,02188,40.75919,29.943218,ÇİÇEK KIRTASİYE,0,OSMANGAZİ MAH. ATATÜRK CAD. NO:324
0040001877,HALİLCAN ÖZER,GEBZE,02197,40.75919,29.943218,ÖZER MARKET,0,ÇAYIROVA MAH. FATİH CAD. NO:100/B 
0040001881,CANAN KARACA,null,02201,40.810163,29.980656,KARMAN MARKET,0,SEPETÇİ MAH.BARAJİ MEVKİ KİME EVLERİ NO:75/A
0040001884,OKTAY UZUN,GEBZE,02204,40.75919,29.943218,UZUN BÜFE,0,KÖŞKLÜ ÇEŞME MAH.YENİ BAĞDAT CAD. NO:208 
0040001885,MUSTAFA BİTİK,null,02205,40.765733,29.959994,CLAASS MARKET,0,YENİŞEHİR MAH.ARDA SOK.NO:23/A
0040001886,BARIŞ ATAY,null,02206,40.766647,29.933353,YAYLA BAKKAL,0,ÇUKURBAĞ MAH.NO:177 
0040001906,HALİL İBRAHİM ÖZDURAK,null,02245,40.7754335,29.7717149,ÜMİT MARKET,0,ÇAMLITEPE MAH.YUNUS EMRE CAD.NO:75/A
0040001907,AKBAŞ SOSYAL HİZMETLER GIDA LTD.ŞTİ.,GEBZE,02246,40.75919,29.943218,AKBAŞ BÜFE,0,İSTASYON MAH. 1426 SOKAK  NO:28
0040001913,AHMET OĞUL,null,02269,40.7625106,29.8640526,OĞUL MARKET,0,ŞİRİNTEPE MAH. ASUMAN SOK.NO:34/A
0040001916,ERCAN BORAZAN,null,02272,40.754986,29.816652,UMUT MARKET,0,DUMLUPINAR MAH.CUMHURİYET CAD.NO:45
0040001919,MURAT ALAN ,GEBZE,02305,40.75919,29.943218,ALAN BÜFE,0,17 AĞUSTOS MAH.HEREKE KALICI KONUT İŞ MERKEZİ NO:4
0040001927,SONER UÇAR,null,02314,40.7629991,29.923448,ASYA BÜFE,0,TEPECİK MAH.İSTİKLAL CAD.NO:5/B
0040001935,RAMAZAN TUNCEL,null,02323,40.7502617,29.8026657,UMUT GIDA,0,YAVUZ SULTAN MAH.RIHTIM CAD.NO:48/A
0040001798,UĞUR SELİM ÜNAL,null,02060,40.776928,29.929021,TURAN MARKET,0,ORHAN MAH.KAMERLİ SOK.NO:1/1
0040001803,YÜCEL TURSUN,null,02065,40.77607,29.938028,TOPÇULAR MARKET,0,TOPÇULAR MAH.UYGAR SOK.NO:97/A
0040001811,ULAŞIM PARK AŞ ABONMAN KART BAYİLİĞİ,null,02104,40.75919,29.943218,ULAŞIM PARK AŞ ABONMAN KART BAYİLİĞİ,0,İZMİT
0040001811,ULAŞIM PARK AŞ ABONMAN KART BAYİLİĞİ,null,02103,40.75919,29.943218,ULAŞIM PARK AŞ ABONMAN KART BAYİLİĞİ,0,İZMİT
0040001811,ULAŞIM PARK AŞ ABONMAN KART BAYİLİĞİ,null,02101,40.75919,29.943218,ULAŞIM PARK AŞ ABONMAN KART BAYİLİĞİ,0,İZMİT
0040001811,ULAŞIM PARK AŞ ABONMAN KART BAYİLİĞİ,null,02102,40.75919,29.943218,ULAŞIM PARK AŞ ABONMAN KART BAYİLİĞİ,0,İZMİT
0040001814,SEVİM ÇAM ,GEBZE,02109,40.75919,29.943218,ÇAM BÜFE ,0,ABDİİPEKCİ MAH.1549.SOKAKNO:18/C
0040001827,MUSTAFA KAVARTKURT,null,02123,40.765045,29.911764,SALON BÜFE,0,KOZLUK MAH.İSTANBUL KARAYOLU CAD.İZMİT ATATÜRK KAPALI SAL.NO:11
0040001833,MUHAMMET ATA ERCAN,GEBZE,02135,40.75919,29.943218,PARK BÜFE,0,ABDİİPERKCİ MAH. OSMANHAMDİ BEY CAD. NO:2/B
0040001835,FEHMİ BEN,DERİNCE,02137,40.75502,29.831414,DENİZ BÜFE,0,DENİZ MAH. İSTASYON CAD. NO:36/A DERİNCE/KOCAELİ
0040001837,ALİ MERTTÜRK,null,02156,40.746314,30.03914,3A 1001 ÇEŞİT,0,ATAEVLER MAH.İSMET PAŞA CAD.NO:60/C
0040001842,SABAHATTİN ÖZPINAR,null,02161,40.717762,30.117058,ÖZPINAR BAKKAL,0,ACISU MAH.KINALITAŞ CAD.NO:1/D
0040001852,MUSTAFA SEZER,null,02171,40.78738,29.989337,SEZER MARKET,0,KARADENİZLİLER MAH.ÖMER MUHTAR CAD.NO:1/A
0040001854,ALİ RIZA ASLAN,null,02173,40.773408,29.956742,ELİF PASTA BÖREK CAFE,0,BEKİRDERE MAH. TURAN GÜNEŞ CAD. NO:365 İZMİT/KOCAELİ
0040001863,BEDİRCAN TUNCA,null,02183,40.75919,29.943218,CENGİZLER MARKET,0,SIRASÖĞÜTLER MAH.AYDINLAR CAD.NO:55
0040001869,YELİZ CİVELEK,null,02189,40.718237,29.82806,ŞIMARIK TAKSİM AVM,0,DUMLUPINAR MAH.50.SOKAK NO:9/A
0040001899,MELTEM TUNÇ,null,02223,40.776296,29.80698,GÜVEN BÜFE,0,FATİH SULTAN MAH.SEHER SOK.NO:18/3
0040001908,HÜSEYİN KAYA,null,02247,40.7668694,29.934227,HALİLOĞLU KURUYEMİŞ,0,CEDİT MAH.İNÖNÜ CAD.NO306 A İÇ KAPI NO A
0040001911,SAİM KARATAŞ,GEBZE,02252,40.75919,29.943218,KARATAŞ MARKET,0,DİLİSKELESİ MAH. 712.SOKAK NO:1
0040001931,DEMİR BUÇAK SÖĞÜTÖZÜ,GEBZE,02319,40.75919,29.943218,DEMİR BUÇAK SÖĞÜTÖZÜ LTD,0,MUSTAFA PAŞA MAH. YENİ BAĞDAT CAD. NO:547
0040001934,ÇAĞLAR AKBUDAK,null,02322,40.7677482,29.9618392,AÇIK MARKET,0,YENİŞEHİR MAH.GAZİ MUSTAFA LEMAL BULVARI NO:122/A
0040001937,KEREM ÇETİN,GEBZE,02325,40.75919,29.943218,BAHADIR BÜFE,0,KÖŞKLÜ ÇEŞME CAD. YENİ BAĞDAT CAD. NO:467/F
0040001802,YUNUS EMRE DEMİRCİ,null,02064,40.798453,29.439949,KÖŞEM MARKET,0,SULTAN ORHAN MAH.1113 SOK.NO:22/ C
0040001808,CEMAL TUNCER ,GEBZE,02098,40.79251,29.422522,KOMŞU MARKET ,0,OSMANYILMAZ MAH. İLYAS UZUNER CAD. ERÖN AP. NO:17/A
0040001830,MURAT BEŞİKTAŞ,GEBZE,02132,40.75919,29.943218,GÖZDE MARKET ,0,YAVUZ SELİM MAH. SELİM PAŞA CAD. NO:115
0040001840,GÜRSEL ÇELİK,null,02159,40.750871,30.02486,ÇELİK BAKKAL,0,İSTASYON MAH.EFE SADIK CAD.NO:34 İÇ KAPI A 
0040001853,MUSTAFA TURAN,null,02172,40.771198,29.965063,TURAN MARKET,0,YENİŞEHİR MAH.ASİL KENT SOK.NO:12/1/A
0040001855,YAVUZ SUBAŞI,null,02174,40.75919,29.943218,PARK MARKET,0,FATİH SULTAN MEHMET MAH.OSMANGAZİ CAD.NO:24/C
0040001864,ERCAN KARATAŞ,null,02184,40.759591,29.823015,ÜLFET GIDA,0,SIRRIPAŞA MAH.ÇENEDERE CAD.NO:28/A
0040001875,ADNAN ERÇİN,null,02195,40.749998,29.797979,EKOMİNİ,0,FATİH MAH.CEVHER DUDAYEV CAD.NO:118 İÇ KAPI NO:A
0040001893,HÜSEYİN YÜCEL,null,02215,40.802104,29.974477,GİZEMLİ HEDİYELİK,0,GÜNEY MAH.DEMİRKOL SOK.GÜREL APT.NO:61 İÇ KAPI 3
0040001901,BEKİR ERGÜL,null,02225,40.7595517,29.85886,ERGÜL MARKET,0,ŞİRİNTEPE MAH.KOCATEPE SOK.NO:19/1
0040001915,ERDOĞAN USLU,null,02271,40.77117,30.005807,NEŞE KURUYEMİŞ,0,ALİKAHYA ATATÜRK MAH.FATİH SULTAN MEHMET BULVARI NO:2/C
0040001918,TAYFUN SERT,null,02274,40.763941,29.811537,YÜCEL MARKET ,0,İBNİ SİNA MAH.PİRİ REİS CAD.NO:74/A
0040001923,ARZU GÜNAL,null,02310,40.720722,29.781675,DEĞİRMENDERE İLETİŞİM,0,DEĞİRMENDERE YALI MAH.MİLLET SOK.NO:1/B
0040001924,EMEL ŞENTÜRK,null,02311,40.763087,29.8510278,ŞENTÜRK TİCARET,0,ÇINARLI MAH.BERAT SOK.NO:47
0040001938,MEHDİ ŞENTÜRK,GEBZE,02326,40.75919,29.943218,EFEM BÜFE,0,OSMANYILMAZ MAH. 611. SOKAK DEMİR APT. NO:2
0040001818,GÜLŞEN TUFENK,GEBZE,02113,40.784048,29.411745,KARADENİZ BÜFE,0,İSTASYON MAH. ŞEHİT ABDULLAH HOROZ CAD. NO:10
0040001828,ÖZCAN AKA,İZMİT,02125,40.779303,29.967696,SELVİLİ MARKET,0,Tavşantepe mah. Turan Güneş Cad. No:537 İç Kapı No: A 
0040001829,SUAT NAKAŞ,İZMİT,02126,40.776432,29.972839,NAKKAŞ BÜFE,0,Yahya Kaptan mah. Seymen cad. Kırsal Terminal içi No:39 İzmit/Kocaeli
0040001846,ALİ SEÇER,null,02165,40.775659,29.813,ANADOLU BÜFE,0,YENİKENT MAH.KAZIM KARABEKİR CAD.NO:67
0040001850,İBRAHİM EROL ,GEBZE,02169,40.75919,29.943218,EROL BÜFE,0,GÜZELLER MAH. ŞEHİT MEVLÜD DURU CAD.NO:51 İÇ KAPI NO:A
0040001859,HALİT AYDIN ,GEBZE,02179,40.75919,29.943218,AYDIN BÜFE,0,ADEM YAVUZ MAH. YAVUZ SULTA SELİM CAD. ADEM YAVUZ PAZARYERİ N0:28
0040001862,ABDÜSSAMET ÖZTÜRK,null,02182,40.767119,29.933354,ÇARŞI KURUYEMİŞ,0,ÇUKURBAĞ MAH. İNÖNÜ CAD. NO:177 İZMİT
0040001865,BURHAN NAKAŞ,GEBZE,02185,40.75919,29.943218,NAKAŞ BÜFE,0,KIŞLA DÜZÜ MAH. AKASYA CAD. NO:55
0040001870,MUHAMMED NESİM NALBANT,null,02190,40.714966,29.931721,BAHATTİN USTA,0,SALİH MAH.MİLLET CAD.NO:2/A
0040001890,İBRAHİM TAŞDELEN,null,02212,40.713024,29.946456,YEKTA MARKET,0,CEDİT MAH.DİKİLİ SOK.NO:3 İÇ KAPI NO:2
0040090043,ULAŞIMPARK TELEFERİK İŞLETME,null,02315,40.75919,29.943218,ULAŞIMPARK A.Ş.,0,KOCAELİ KARTEPE
0040001920,YUSUF CAN YILMAZ,null,02307,40.75919,29.943218,YILMAZ GRUP,0,ÇINAR MAH.ANTO CAD.NO:24/4
0040001920,YUSUF CAN YILMAZ,null,02306,40.75919,29.943218,YILMAZ GRUP,0,ÇINAR MAH.ANTO CAD.NO:24/4
0040001933,AYKUT DERECİ,null,02321,40.7516369,29.8054431,UMUT GIDA,0,YAVUZ SULTAN MAH.BARBAROS CAD.NO:61/A
0040001805,DİNÇER ÖNAL ,ÇAYIROVA,02094,40.791174,29.424264,DİNOS GIDA,0,ATATÜRK MAH. ADNAN KAHVESİ CAD. NO:115/B
0040001807,MELEK BAYHAN,null,02096,40.792487,29.972965,KARDEŞLER MARKET,0,YEŞİLOVA MAH.DAĞÇİÇEĞİ SOK.NO:29/A
0040001812,MEHMET ALİ TURANOĞLU,null,02107,40.764402,29.938391,KARAN BÜFE,0,KARABAŞ MAH.HAFIZ BİNBAŞI CAD.NO:10/B
0040001819,NİHAL AYDOSLU,null,02115,40.71388,29.932633,İSKELE ŞARKÜTERİ,0,SALİH MAH.MİLLET CAD.NO:15/A
0040001821,MUHAMMED TALHA YILDIRIM,null,02117,40.75919,29.943218,BMKT DOST GIDA LTD.ŞTİ.,0,ALİKAHYA ATATÜRK MAH.GÜNEYSU CAD.NO:57/A
0040001821,MUHAMMED TALHA YILDIRIM,null,02221,40.767081,30.013478,BMKT DOST GIDA LTD.ŞTİ.,0,ALİKAHYA ATATÜRK MAH.GÜNEYSU CAD.NO:57/A
0040001878,GÖKHAN BÜYÜK,GEBZE,02198,40.75919,29.943218,BÜYÜK BÜFE,0,MUSTAFA PAŞA MAH. MUAMMER AKSOY CAD. NO:13
0040001891,ENES AY,GEBZE,02213,40.75919,29.943218,ÇOTANAK İLETİŞİM,0,YAVUZSELİM MAH. ANKARA CAD. NO:146 
0040001896,BAŞAK DURDU,null,02218,40.76851,29.813203,KARDEŞLER MİNİ MARKET,0,Yenikent mah. Dobra sok. No:18 Derince Kocaeli
0040001905,ERDEM KORAY KESKİN,null,02244,40.7595935,29.8403452,KESKİN BAKKAL,0,ÇINARLI MAH.ÖNDER CAD.ESKİYOL İMARET CAMİ NO:11 İÇ KAPI NO:C 
0040001912,SONGÜL DİNDAR,GEBZE,02253,40.75919,29.943218,DİNDAR BÜFE,0,TATLIKUYU MAH. 1301 SOKAK NO:22
0040001914,İSMAİL CANIM,null,02270,40.7185255,29.8198529,MERT BÜFE,0,MERKEZ MAH.36.SOK.NO:9/D
0040001921,FATİH MUTLU,GEBZE,02308,40.75919,29.943218,DURAK BÜFE,0,MİMAR SİNAN MAH.İSTİKLAL CAD. NO:175
0040001925,MUHİTTİN TOZAN,null,02312,40.7072175,29.9356044,BİZİM MARKET,0,BARBAROS MAH.GAZİ OSMAN PAŞA CAD.NO:10/A
0040001926,VOLKAN GÜRHAN,null,02313,40.7574223,29.8285826,DORUK BÜFE,0,SIRRI PAŞA MAH.DENİZCİLER CAD.NO:114/C
